<?xml version="1.0" encoding="UTF-8"?>
<gpx creator="Garmin Connect" version="1.1"
  xsi:schemaLocation="http://www.topografix.com/GPX/1/1 http://www.topografix.com/GPX/11.xsd"
  xmlns:ns3="http://www.garmin.com/xmlschemas/TrackPointExtension/v1"
  xmlns="http://www.topografix.com/GPX/1/1"
  xmlns:xsi="http://www.w3.org/2001/XMLSchema-instance" xmlns:ns2="http://www.garmin.com/xmlschemas/GpxExtensions/v3">
  <metadata>
    <name>Обзорная ЦПКиО им. Кирова (Елагин остров) Бег 10,11 км</name>
    <link href="connect.garmin.com">
      <text>Garmin Connect</text>
    </link>
    <time>2026-09-24T18:59:01.000Z</time>
  </metadata>
  <trk>
    <name>Обзорная ЦПКиО им. Кирова (Елагин остров) Бег 10,11 км</name>
    <trkseg>
      <trkpt lat="59.97769117355347" lon="30.27034878730774">
        <ele>2.67</ele>
      </trkpt>
      <trkpt lat="59.97744114138186" lon="30.270012756809592">
        <ele>3.45</ele>
      </trkpt>
      <trkpt lat="59.97719110921025" lon="30.269676726311445">
        <ele>4.4</ele>
      </trkpt>
      <trkpt lat="59.97694116085768" lon="30.2693406958133">
        <ele>3.99</ele>
      </trkpt>
      <trkpt lat="59.97669339179993" lon="30.269007682800293">
        <ele>3.49</ele>
      </trkpt>
      <trkpt lat="59.97669347561896" lon="30.269007682800293">
        <ele>3.1</ele>
      </trkpt>
      <trkpt lat="59.97646817006171" lon="30.268739461898804">
        <ele>2.08</ele>
      </trkpt>
      <trkpt lat="59.976258454844356" lon="30.268459841609">
        <ele>1.58</ele>
      </trkpt>
      <trkpt lat="59.976049745455384" lon="30.268181562423706">
        <ele>1.27</ele>
      </trkpt>
      <trkpt lat="59.97583583928645" lon="30.267834551632404">
        <ele>1.16</ele>
      </trkpt>
      <trkpt lat="59.97562293894589" lon="30.26748930104077">
        <ele>1.2</ele>
      </trkpt>
      <trkpt lat="59.97556686401367" lon="30.267398357391357">
        <ele>1.38</ele>
      </trkpt>
      <trkpt lat="59.975470304489136" lon="30.267033576965332">
        <ele>1.67</ele>
      </trkpt>
      <trkpt lat="59.97544884681702" lon="30.266486406326294">
        <ele>2.1</ele>
      </trkpt>
      <trkpt lat="59.975502490997314" lon="30.265896320343018">
        <ele>2.62</ele>
      </trkpt>
      <trkpt lat="59.975588573142886" lon="30.265386113896966">
        <ele>3.33</ele>
      </trkpt>
      <trkpt lat="59.97567465528846" lon="30.264875991269946">
        <ele>4.17</ele>
      </trkpt>
      <trkpt lat="59.97576073743403" lon="30.264365784823895">
        <ele>4.94</ele>
      </trkpt>
      <trkpt lat="59.97584690339863" lon="30.263855662196875">
        <ele>5.59</ele>
      </trkpt>
      <trkpt lat="59.9759316444397" lon="30.2633535861969">
        <ele>5.94</ele>
      </trkpt>
      <trkpt lat="59.97600708156824" lon="30.262749502435327">
        <ele>6.05</ele>
      </trkpt>
      <trkpt lat="59.97608260251582" lon="30.262145418673754">
        <ele>6.22</ele>
      </trkpt>
      <trkpt lat="59.97615745291114" lon="30.261547286063433">
        <ele>6.28</ele>
      </trkpt>
      <trkpt lat="59.97615745291114" lon="30.2615472022444">
        <ele>6.28</ele>
      </trkpt>
      <trkpt lat="59.976221323013306" lon="30.261036157608032">
        <ele>6.16</ele>
      </trkpt>
      <trkpt lat="59.976253593340516" lon="30.260535590350628">
        <ele>6.27</ele>
      </trkpt>
      <trkpt lat="59.97628586366773" lon="30.260035023093224">
        <ele>6.31</ele>
      </trkpt>
      <trkpt lat="59.97631813399494" lon="30.25953445583582">
        <ele>6.08</ele>
      </trkpt>
      <trkpt lat="59.97635006904602" lon="30.259040594100952">
        <ele>5.49</ele>
      </trkpt>
      <trkpt lat="59.97635015286505" lon="30.259040594100952">
        <ele>5.28</ele>
      </trkpt>
      <trkpt lat="59.97635543346405" lon="30.25864228606224">
        <ele>5.02</ele>
      </trkpt>
      <trkpt lat="59.97636079788208" lon="30.258246660232544">
        <ele>4.95</ele>
      </trkpt>
      <trkpt lat="59.97636088170111" lon="30.258246660232544">
        <ele>4.89</ele>
      </trkpt>
      <trkpt lat="59.97640379704535" lon="30.25808572769165">
        <ele>4.94</ele>
      </trkpt>
      <trkpt lat="59.9764358997345" lon="30.25787115097046">
        <ele>5.06</ele>
      </trkpt>
      <trkpt lat="59.97644671238959" lon="30.25763511657715">
        <ele>5.27</ele>
      </trkpt>
      <trkpt lat="59.9764842633158" lon="30.25730679742992">
        <ele>5.58</ele>
      </trkpt>
      <trkpt lat="59.976521730422974" lon="30.256980657577515">
        <ele>5.93</ele>
      </trkpt>
      <trkpt lat="59.976521814242005" lon="30.256980657577515">
        <ele>6.15</ele>
      </trkpt>
      <trkpt lat="59.976580990478396" lon="30.256388559937477">
        <ele>6.38</ele>
      </trkpt>
      <trkpt lat="59.97664016671479" lon="30.25579654611647">
        <ele>6.53</ele>
      </trkpt>
      <trkpt lat="59.97669934295118" lon="30.255204532295465">
        <ele>6.75</ele>
      </trkpt>
      <trkpt lat="59.976757764816284" lon="30.25462031364441">
        <ele>6.8</ele>
      </trkpt>
      <trkpt lat="59.976818449795246" lon="30.254307501018047">
        <ele>6.9</ele>
      </trkpt>
      <trkpt lat="59.976818449795246" lon="30.25430758483708">
        <ele>6.94</ele>
      </trkpt>
      <trkpt lat="59.97689732350409" lon="30.253901481628418">
        <ele>6.86</ele>
      </trkpt>
      <trkpt lat="59.9769295938313" lon="30.25358389131725">
        <ele>6.79</ele>
      </trkpt>
      <trkpt lat="59.97696169652045" lon="30.253268480300903">
        <ele>6.54</ele>
      </trkpt>
      <trkpt lat="59.97707962989807" lon="30.252721309661865">
        <ele>6.67</ele>
      </trkpt>
      <trkpt lat="59.97716554440558" lon="30.25258183479309">
        <ele>6.57</ele>
      </trkpt>
      <trkpt lat="59.977272832766175" lon="30.252453088760376">
        <ele>6.41</ele>
      </trkpt>
      <trkpt lat="59.977272748947144" lon="30.252453088760376">
        <ele>6.29</ele>
      </trkpt>
      <trkpt lat="59.977418007329106" lon="30.251914970576763">
        <ele>6.11</ele>
      </trkpt>
      <trkpt lat="59.977562511339784" lon="30.25138020515442">
        <ele>5.78</ele>
      </trkpt>
      <trkpt lat="59.97762688435614" lon="30.251230001449585">
        <ele>5.71</ele>
      </trkpt>
      <trkpt lat="59.97779888100922" lon="30.25089112110436">
        <ele>5.79</ele>
      </trkpt>
      <trkpt lat="59.977970123291016" lon="30.250554084777832">
        <ele>5.84</ele>
      </trkpt>
      <trkpt lat="59.97814580798149" lon="30.250105820596218">
        <ele>5.68</ele>
      </trkpt>
      <trkpt lat="59.97832149267197" lon="30.249657556414604">
        <ele>5.5</ele>
      </trkpt>
      <trkpt lat="59.978495836257935" lon="30.249212980270386">
        <ele>5.45</ele>
      </trkpt>
      <trkpt lat="59.978495920076966" lon="30.249212980270386">
        <ele>5.35</ele>
      </trkpt>
      <trkpt lat="59.978538919240236" lon="30.249050119891763">
        <ele>5.16</ele>
      </trkpt>
      <trkpt lat="59.9786392506212" lon="30.248670503497124">
        <ele>4.89</ele>
      </trkpt>
      <trkpt lat="59.978739665821195" lon="30.248290970921516">
        <ele>4.93</ele>
      </trkpt>
      <trkpt lat="59.97883924283087" lon="30.247914791107178">
        <ele>4.8</ele>
      </trkpt>
      <trkpt lat="59.9788498878479" lon="30.24783968925476">
        <ele>4.76</ele>
      </trkpt>
      <trkpt lat="59.97888207435608" lon="30.247732400894165">
        <ele>4.74</ele>
      </trkpt>
      <trkpt lat="59.97892498970032" lon="30.24760365486145">
        <ele>4.64</ele>
      </trkpt>
      <trkpt lat="59.97892507351935" lon="30.24760365486145">
        <ele>4.74</ele>
      </trkpt>
      <trkpt lat="59.97915029525757" lon="30.247260332107544">
        <ele>4.99</ele>
      </trkpt>
      <trkpt lat="59.9791503790766" lon="30.247260332107544">
        <ele>5.18</ele>
      </trkpt>
      <trkpt lat="59.97931701131165" lon="30.247055981308222">
        <ele>5.53</ele>
      </trkpt>
      <trkpt lat="59.97948297299445" lon="30.24685263633728">
        <ele>5.97</ele>
      </trkpt>
      <trkpt lat="59.97949571348727" lon="30.246820533648133">
        <ele>6.25</ele>
      </trkpt>
      <trkpt lat="59.97949571348727" lon="30.246820617467165">
        <ele>6.52</ele>
      </trkpt>
      <trkpt lat="59.979504346847534" lon="30.246798992156982">
        <ele>6.79</ele>
      </trkpt>
      <trkpt lat="59.9794558994472" lon="30.246465308591723">
        <ele>6.96</ele>
      </trkpt>
      <trkpt lat="59.979407787323" lon="30.24613380432129">
        <ele>7.15</ele>
      </trkpt>
      <trkpt lat="59.97942932881415" lon="30.245545310899615">
        <ele>7.48</ele>
      </trkpt>
      <trkpt lat="59.9794508703053" lon="30.24495681747794">
        <ele>7.7</ele>
      </trkpt>
      <trkpt lat="59.97947224415839" lon="30.24437427520752">
        <ele>7.85</ele>
      </trkpt>
      <trkpt lat="59.979472160339355" lon="30.24437427520752">
        <ele>8.0</ele>
      </trkpt>
      <trkpt lat="59.97947224415839" lon="30.24437427520752">
        <ele>8.12</ele>
      </trkpt>
      <trkpt lat="59.97953133657575" lon="30.24400287307799">
        <ele>8.18</ele>
      </trkpt>
      <trkpt lat="59.97959017753601" lon="30.24363398551941">
        <ele>8.21</ele>
      </trkpt>
      <trkpt lat="59.97974784113467" lon="30.24329242296517">
        <ele>8.22</ele>
      </trkpt>
      <trkpt lat="59.979783380404115" lon="30.243215560913086">
        <ele>8.18</ele>
      </trkpt>
      <trkpt lat="59.97986921109259" lon="30.24312973022461">
        <ele>8.16</ele>
      </trkpt>
      <trkpt lat="59.98008370399475" lon="30.24314045906067">
        <ele>8.12</ele>
      </trkpt>
      <trkpt lat="59.98029408976436" lon="30.24336920119822">
        <ele>8.0</ele>
      </trkpt>
      <trkpt lat="59.98029408976436" lon="30.24336911737919">
        <ele>7.72</ele>
      </trkpt>
      <trkpt lat="59.98033055104315" lon="30.243408679962158">
        <ele>7.39</ele>
      </trkpt>
      <trkpt lat="59.98034119606018" lon="30.242958068847656">
        <ele>6.92</ele>
      </trkpt>
      <trkpt lat="59.98021739535034" lon="30.242484575137496">
        <ele>6.26</ele>
      </trkpt>
      <trkpt lat="59.98009443283081" lon="30.242013931274414">
        <ele>5.59</ele>
      </trkpt>
      <trkpt lat="59.98004062101245" lon="30.241642529144883">
        <ele>5.0</ele>
      </trkpt>
      <trkpt lat="59.97998722828925" lon="30.241273641586304">
        <ele>4.45</ele>
      </trkpt>
      <trkpt lat="59.97998354025185" lon="30.240814313292503">
        <ele>4.01</ele>
      </trkpt>
      <trkpt lat="59.97997993603349" lon="30.240354984998703">
        <ele>3.45</ele>
      </trkpt>
      <trkpt lat="59.979976415634155" lon="30.23990035057068">
        <ele>3.08</ele>
      </trkpt>
      <trkpt lat="59.979927968233824" lon="30.23931361734867">
        <ele>2.36</ele>
      </trkpt>
      <trkpt lat="59.97987993992865" lon="30.238730907440186">
        <ele>1.88</ele>
      </trkpt>
      <trkpt lat="59.97987985610962" lon="30.238730907440186">
        <ele>1.53</ele>
      </trkpt>
      <trkpt lat="59.97987993992865" lon="30.238451957702637">
        <ele>1.23</ele>
      </trkpt>
      <trkpt lat="59.97990139760077" lon="30.237994389608502">
        <ele>1.01</ele>
      </trkpt>
      <trkpt lat="59.97992285527289" lon="30.237540006637573">
        <ele>0.86</ele>
      </trkpt>
      <trkpt lat="59.97992277145386" lon="30.237540006637573">
        <ele>0.77</ele>
      </trkpt>
      <trkpt lat="59.97990139760077" lon="30.236982107162476">
        <ele>0.74</ele>
      </trkpt>
      <trkpt lat="59.97994431294501" lon="30.236778259277344">
        <ele>0.78</ele>
      </trkpt>
      <trkpt lat="59.98019107617438" lon="30.23658514022827">
        <ele>0.88</ele>
      </trkpt>
      <trkpt lat="59.980432810261846" lon="30.23676786571741">
        <ele>1.25</ele>
      </trkpt>
      <trkpt lat="59.98067378997803" lon="30.236949920654297">
        <ele>1.42</ele>
      </trkpt>
      <trkpt lat="59.98082399368286" lon="30.237293243408203">
        <ele>1.55</ele>
      </trkpt>
      <trkpt lat="59.98082575388253" lon="30.237458031624556">
        <ele>1.78</ele>
      </trkpt>
      <trkpt lat="59.98082575388253" lon="30.237458115443587">
        <ele>2.04</ele>
      </trkpt>
      <trkpt lat="59.980832291767" lon="30.2380739338696">
        <ele>2.29</ele>
      </trkpt>
      <trkpt lat="59.98083891347051" lon="30.238689836114645">
        <ele>2.65</ele>
      </trkpt>
      <trkpt lat="59.98084545135498" lon="30.239299535751343">
        <ele>3.07</ele>
      </trkpt>
      <trkpt lat="59.98092608526349" lon="30.23967077024281">
        <ele>3.42</ele>
      </trkpt>
      <trkpt lat="59.981006383895874" lon="30.240039825439453">
        <ele>3.71</ele>
      </trkpt>
      <trkpt lat="59.98106153681874" lon="30.240586074069142">
        <ele>4.04</ele>
      </trkpt>
      <trkpt lat="59.98111668974161" lon="30.24113232269883">
        <ele>4.29</ele>
      </trkpt>
      <trkpt lat="59.98117184266448" lon="30.24167857132852">
        <ele>4.48</ele>
      </trkpt>
      <trkpt lat="59.98122699558735" lon="30.24222490377724">
        <ele>4.84</ele>
      </trkpt>
      <trkpt lat="59.98128223232925" lon="30.24277115240693">
        <ele>5.27</ele>
      </trkpt>
      <trkpt lat="59.98133738525212" lon="30.24331740103662">
        <ele>5.66</ele>
      </trkpt>
      <trkpt lat="59.98139253817499" lon="30.24386373348534">
        <ele>6.03</ele>
      </trkpt>
      <trkpt lat="59.981446266174316" lon="30.24439573287964">
        <ele>6.34</ele>
      </trkpt>
      <trkpt lat="59.981494629755616" lon="30.244723968207836">
        <ele>6.68</ele>
      </trkpt>
      <trkpt lat="59.98154282569885" lon="30.245050191879272">
        <ele>7.0</ele>
      </trkpt>
      <trkpt lat="59.98155891895294" lon="30.245615299791098">
        <ele>7.36</ele>
      </trkpt>
      <trkpt lat="59.98157501220703" lon="30.246176719665527">
        <ele>7.62</ele>
      </trkpt>
      <trkpt lat="59.98157509602606" lon="30.246176719665527">
        <ele>7.75</ele>
      </trkpt>
      <trkpt lat="59.98156436719" lon="30.246798992156982">
        <ele>7.87</ele>
      </trkpt>
      <trkpt lat="59.98156428337097" lon="30.246798992156982">
        <ele>7.9</ele>
      </trkpt>
      <trkpt lat="59.98156436719" lon="30.246798992156982">
        <ele>7.87</ele>
      </trkpt>
      <trkpt lat="59.981645001098514" lon="30.24720249697566">
        <ele>7.62</ele>
      </trkpt>
      <trkpt lat="59.981725215911865" lon="30.24760365486145">
        <ele>7.29</ele>
      </trkpt>
      <trkpt lat="59.9817252997309" lon="30.24760365486145">
        <ele>7.13</ele>
      </trkpt>
      <trkpt lat="59.98175027780235" lon="30.248184353113174">
        <ele>7.13</ele>
      </trkpt>
      <trkpt lat="59.9817752558738" lon="30.2487650513649">
        <ele>7.06</ele>
      </trkpt>
      <trkpt lat="59.98180023394525" lon="30.249345749616623">
        <ele>6.76</ele>
      </trkpt>
      <trkpt lat="59.98182529583573" lon="30.24992653168738">
        <ele>6.39</ele>
      </trkpt>
      <trkpt lat="59.981850273907185" lon="30.250507229939103">
        <ele>6.0</ele>
      </trkpt>
      <trkpt lat="59.981875251978636" lon="30.251087928190827">
        <ele>5.69</ele>
      </trkpt>
      <trkpt lat="59.98190031386912" lon="30.251668710261583">
        <ele>5.43</ele>
      </trkpt>
      <trkpt lat="59.98192529194057" lon="30.252249408513308">
        <ele>5.11</ele>
      </trkpt>
      <trkpt lat="59.98195027001202" lon="30.252830106765032">
        <ele>4.78</ele>
      </trkpt>
      <trkpt lat="59.981975331902504" lon="30.253410888835788">
        <ele>4.5</ele>
      </trkpt>
      <trkpt lat="59.981999304145575" lon="30.253970380872488">
        <ele>4.18</ele>
      </trkpt>
      <trkpt lat="59.981999304145575" lon="30.25397046469152">
        <ele>3.98</ele>
      </trkpt>
      <trkpt lat="59.982004165649414" lon="30.25408387184143">
        <ele>3.78</ele>
      </trkpt>
      <trkpt lat="59.98197206296027" lon="30.254298448562622">
        <ele>3.66</ele>
      </trkpt>
      <trkpt lat="59.981993520632386" lon="30.254491567611694">
        <ele>3.55</ele>
      </trkpt>
      <trkpt lat="59.982020342722535" lon="30.254986686632037">
        <ele>3.53</ele>
      </trkpt>
      <trkpt lat="59.982047248631716" lon="30.25548188947141">
        <ele>3.64</ele>
      </trkpt>
      <trkpt lat="59.982074154540896" lon="30.255977008491755">
        <ele>3.71</ele>
      </trkpt>
      <trkpt lat="59.98210072517395" lon="30.256465673446655">
        <ele>3.73</ele>
      </trkpt>
      <trkpt lat="59.982097959145904" lon="30.257060369476676">
        <ele>3.65</ele>
      </trkpt>
      <trkpt lat="59.98209527693689" lon="30.25765514932573">
        <ele>3.62</ele>
      </trkpt>
      <trkpt lat="59.982092594727874" lon="30.25824992917478">
        <ele>3.62</ele>
      </trkpt>
      <trkpt lat="59.98208999633789" lon="30.25883674621582">
        <ele>3.79</ele>
      </trkpt>
      <trkpt lat="59.98201464302838" lon="30.25929951108992">
        <ele>4.0</ele>
      </trkpt>
      <trkpt lat="59.98193979263306" lon="30.259759426116943">
        <ele>4.15</ele>
      </trkpt>
      <trkpt lat="59.98193987645209" lon="30.259759426116943">
        <ele>4.3</ele>
      </trkpt>
      <trkpt lat="59.98186678625643" lon="30.259955562651157">
        <ele>4.46</ele>
      </trkpt>
      <trkpt lat="59.981768215075135" lon="30.260220766067505">
        <ele>4.64</ele>
      </trkpt>
      <trkpt lat="59.98163938522339" lon="30.260499715805054">
        <ele>4.76</ele>
      </trkpt>
      <trkpt lat="59.98159630224109" lon="30.26105945929885">
        <ele>4.91</ele>
      </trkpt>
      <trkpt lat="59.98155355453491" lon="30.26161551475525">
        <ele>5.13</ele>
      </trkpt>
      <trkpt lat="59.98161809518933" lon="30.261970655992627">
        <ele>5.33</ele>
      </trkpt>
      <trkpt lat="59.98168238438666" lon="30.26232361793518">
        <ele>5.43</ele>
      </trkpt>
      <trkpt lat="59.98180031776428" lon="30.26281714439392">
        <ele>5.44</ele>
      </trkpt>
      <trkpt lat="59.98177886009216" lon="30.263149738311768">
        <ele>5.51</ele>
      </trkpt>
      <trkpt lat="59.981745751574636" lon="30.263163903728127">
        <ele>5.56</ele>
      </trkpt>
      <trkpt lat="59.981778943911195" lon="30.263149738311768">
        <ele>5.59</ele>
      </trkpt>
      <trkpt lat="59.98186502605677" lon="30.263494066894054">
        <ele>5.62</ele>
      </trkpt>
      <trkpt lat="59.98195060528815" lon="30.26383638381958">
        <ele>5.67</ele>
      </trkpt>
      <trkpt lat="59.981928979977965" lon="30.264424793422222">
        <ele>5.64</ele>
      </trkpt>
      <trkpt lat="59.981907438486814" lon="30.265013286843896">
        <ele>5.6</ele>
      </trkpt>
      <trkpt lat="59.98188614845276" lon="30.26559591293335">
        <ele>5.54</ele>
      </trkpt>
      <trkpt lat="59.981828732416034" lon="30.26606949046254">
        <ele>5.66</ele>
      </trkpt>
      <trkpt lat="59.98177131637931" lon="30.266543067991734">
        <ele>5.8</ele>
      </trkpt>
      <trkpt lat="59.98171457089484" lon="30.267012119293213">
        <ele>5.86</ele>
      </trkpt>
      <trkpt lat="59.98166712932289" lon="30.26757831685245">
        <ele>5.82</ele>
      </trkpt>
      <trkpt lat="59.98161977156997" lon="30.268144514411688">
        <ele>5.83</ele>
      </trkpt>
      <trkpt lat="59.98157241381705" lon="30.268710711970925">
        <ele>5.94</ele>
      </trkpt>
      <trkpt lat="59.98152505606413" lon="30.269276909530163">
        <ele>6.1</ele>
      </trkpt>
      <trkpt lat="59.981478452682495" lon="30.26983380317688">
        <ele>6.32</ele>
      </trkpt>
      <trkpt lat="59.981395890936255" lon="30.270292963832617">
        <ele>6.51</ele>
      </trkpt>
      <trkpt lat="59.98131341300905" lon="30.270752208307385">
        <ele>6.75</ele>
      </trkpt>
      <trkpt lat="59.981231689453125" lon="30.271207094192505">
        <ele>6.98</ele>
      </trkpt>
      <trkpt lat="59.98123177327216" lon="30.271207094192505">
        <ele>7.2</ele>
      </trkpt>
      <trkpt lat="59.98118877410889" lon="30.271378755569458">
        <ele>7.46</ele>
      </trkpt>
      <trkpt lat="59.981129514053464" lon="30.271706990897655">
        <ele>7.76</ele>
      </trkpt>
      <trkpt lat="59.98107075691223" lon="30.272033214569092">
        <ele>8.06</ele>
      </trkpt>
      <trkpt lat="59.98107084073126" lon="30.272033214569092">
        <ele>8.28</ele>
      </trkpt>
      <trkpt lat="59.98095240443945" lon="30.27246898971498">
        <ele>8.53</ele>
      </trkpt>
      <trkpt lat="59.98083472251892" lon="30.272902250289917">
        <ele>8.64</ele>
      </trkpt>
      <trkpt lat="59.98077034950256" lon="30.273234844207764">
        <ele>8.76</ele>
      </trkpt>
      <trkpt lat="59.98066306114197" lon="30.273385047912598">
        <ele>8.94</ele>
      </trkpt>
      <trkpt lat="59.98058435507119" lon="30.273264683783054">
        <ele>9.11</ele>
      </trkpt>
      <trkpt lat="59.98048075474799" lon="30.27310609817505">
        <ele>9.3</ele>
      </trkpt>
      <trkpt lat="59.98039492405951" lon="30.27304172515869">
        <ele>9.47</ele>
      </trkpt>
      <trkpt lat="59.98018789105117" lon="30.272780964151025">
        <ele>9.72</ele>
      </trkpt>
      <trkpt lat="59.97998094186187" lon="30.27252020314336">
        <ele>9.9</ele>
      </trkpt>
      <trkpt lat="59.97977399267256" lon="30.27225944213569">
        <ele>9.93</ele>
      </trkpt>
      <trkpt lat="59.97956880368292" lon="30.272001028060913">
        <ele>9.86</ele>
      </trkpt>
      <trkpt lat="59.979472160339355" lon="30.271925926208496">
        <ele>9.9</ele>
      </trkpt>
      <trkpt lat="59.97947224415839" lon="30.271925926208496">
        <ele>9.96</ele>
      </trkpt>
      <trkpt lat="59.979472160339355" lon="30.271925926208496">
        <ele>10.0</ele>
      </trkpt>
      <trkpt lat="59.97956360690296" lon="30.27162459678948">
        <ele>10.1</ele>
      </trkpt>
      <trkpt lat="59.97965455055237" lon="30.27132511138916">
        <ele>10.26</ele>
      </trkpt>
      <trkpt lat="59.97963460162282" lon="30.27087265625596">
        <ele>10.27</ele>
      </trkpt>
      <trkpt lat="59.97961490415037" lon="30.270423386245966">
        <ele>10.25</ele>
      </trkpt>
      <trkpt lat="59.97961490415037" lon="30.270423302426934">
        <ele>10.2</ele>
      </trkpt>
      <trkpt lat="59.97961171902716" lon="30.27034878730774">
        <ele>10.14</ele>
      </trkpt>
      <trkpt lat="59.97968698851764" lon="30.270058186724782">
        <ele>9.99</ele>
      </trkpt>
      <trkpt lat="59.979761922731996" lon="30.269769430160522">
        <ele>9.75</ele>
      </trkpt>
      <trkpt lat="59.97967609204352" lon="30.26932954788208">
        <ele>9.54</ele>
      </trkpt>
      <trkpt lat="59.97967600822449" lon="30.26932954788208">
        <ele>9.4</ele>
      </trkpt>
      <trkpt lat="59.97967609204352" lon="30.26932954788208">
        <ele>9.25</ele>
      </trkpt>
      <trkpt lat="59.97966536320746" lon="30.269179344177246">
        <ele>9.03</ele>
      </trkpt>
      <trkpt lat="59.97959017753601" lon="30.26936173439026">
        <ele>9.0</ele>
      </trkpt>
      <trkpt lat="59.97933276928961" lon="30.269426107406616">
        <ele>8.88</ele>
      </trkpt>
      <trkpt lat="59.97917141765356" lon="30.269323932006955">
        <ele>8.66</ele>
      </trkpt>
      <trkpt lat="59.979010820388794" lon="30.269222259521484">
        <ele>8.44</ele>
      </trkpt>
      <trkpt lat="59.97893580235541" lon="30.269426107406616">
        <ele>8.29</ele>
      </trkpt>
      <trkpt lat="59.97893571853638" lon="30.269426107406616">
        <ele>8.1</ele>
      </trkpt>
      <trkpt lat="59.97893580235541" lon="30.269426107406616">
        <ele>7.9</ele>
      </trkpt>
      <trkpt lat="59.97893580235541" lon="30.269835144281387">
        <ele>7.78</ele>
      </trkpt>
      <trkpt lat="59.97893580235541" lon="30.270241498947144">
        <ele>7.54</ele>
      </trkpt>
      <trkpt lat="59.97893571853638" lon="30.270241498947144">
        <ele>7.32</ele>
      </trkpt>
      <trkpt lat="59.97893580235541" lon="30.270241498947144">
        <ele>7.09</ele>
      </trkpt>
      <trkpt lat="59.978785179555416" lon="30.270391954109073">
        <ele>6.75</ele>
      </trkpt>
      <trkpt lat="59.97863531112671" lon="30.27054190635681">
        <ele>6.45</ele>
      </trkpt>
      <trkpt lat="59.97832417488098" lon="30.270456075668335">
        <ele>6.3</ele>
      </trkpt>
      <trkpt lat="59.97816290706396" lon="30.270493626594543">
        <ele>6.09</ele>
      </trkpt>
      <trkpt lat="59.978002309799194" lon="30.270531177520752">
        <ele>5.77</ele>
      </trkpt>
      <trkpt lat="59.978002393618226" lon="30.270531177520752">
        <ele>5.64</ele>
      </trkpt>
      <trkpt lat="59.97790575027466" lon="30.270423889160156">
        <ele>5.61</ele>
      </trkpt>
      <trkpt lat="59.97788429260254" lon="30.27004837989807">
        <ele>5.86</ele>
      </trkpt>
      <trkpt lat="59.97772344388068" lon="30.26986598968506">
        <ele>5.94</ele>
      </trkpt>
      <trkpt lat="59.977723360061646" lon="30.26986598968506">
        <ele>6.1</ele>
      </trkpt>
      <trkpt lat="59.97766979970038" lon="30.26984453201294">
        <ele>6.27</ele>
      </trkpt>
      <trkpt lat="59.97762688435614" lon="30.26930809020996">
        <ele>6.66</ele>
      </trkpt>
      <trkpt lat="59.97759989462793" lon="30.268845157697797">
        <ele>7.04</ele>
      </trkpt>
      <trkpt lat="59.97757315635681" lon="30.268385410308838">
        <ele>7.37</ele>
      </trkpt>
      <trkpt lat="59.9776376131922" lon="30.267881155014038">
        <ele>7.67</ele>
      </trkpt>
      <trkpt lat="59.97762135230005" lon="30.267445128411055">
        <ele>8.02</ele>
      </trkpt>
      <trkpt lat="59.97760534286499" lon="30.267012119293213">
        <ele>8.21</ele>
      </trkpt>
      <trkpt lat="59.97770198620856" lon="30.26660442352295">
        <ele>8.39</ele>
      </trkpt>
      <trkpt lat="59.97765613719821" lon="30.266130762174726">
        <ele>8.57</ele>
      </trkpt>
      <trkpt lat="59.97761037200689" lon="30.265657100826502">
        <ele>8.86</ele>
      </trkpt>
      <trkpt lat="59.97756460681558" lon="30.26518352329731">
        <ele>9.24</ele>
      </trkpt>
      <trkpt lat="59.977519512176514" lon="30.264716148376465">
        <ele>9.55</ele>
      </trkpt>
      <trkpt lat="59.977519512176514" lon="30.264371652156115">
        <ele>9.83</ele>
      </trkpt>
      <trkpt lat="59.977519512176514" lon="30.264029502868652">
        <ele>10.06</ele>
      </trkpt>
      <trkpt lat="59.97757315635681" lon="30.263653993606567">
        <ele>10.34</ele>
      </trkpt>
      <trkpt lat="59.97770760208368" lon="30.26330966502428">
        <ele>10.59</ele>
      </trkpt>
      <trkpt lat="59.9778413772583" lon="30.262967348098755">
        <ele>10.86</ele>
      </trkpt>
      <trkpt lat="59.97788437642157" lon="30.26247214525938">
        <ele>11.08</ele>
      </trkpt>
      <trkpt lat="59.97792745940387" lon="30.261977026239038">
        <ele>11.29</ele>
      </trkpt>
      <trkpt lat="59.977970542386174" lon="30.261481823399663">
        <ele>11.46</ele>
      </trkpt>
      <trkpt lat="59.978013038635254" lon="30.260993242263794">
        <ele>11.58</ele>
      </trkpt>
      <trkpt lat="59.978013122454286" lon="30.260993242263794">
        <ele>11.67</ele>
      </trkpt>
      <trkpt lat="59.97810993343592" lon="30.260578840970993">
        <ele>11.74</ele>
      </trkpt>
      <trkpt lat="59.978206157684326" lon="30.260167121887207">
        <ele>11.72</ele>
      </trkpt>
      <trkpt lat="59.97820624150336" lon="30.260167121887207">
        <ele>11.72</ele>
      </trkpt>
      <trkpt lat="59.97837781906128" lon="30.259759426116943">
        <ele>11.67</ele>
      </trkpt>
      <trkpt lat="59.97837790288031" lon="30.259759426116943">
        <ele>11.6</ele>
      </trkpt>
      <trkpt lat="59.97855526395142" lon="30.2594905346632">
        <ele>11.56</ele>
      </trkpt>
      <trkpt lat="59.978731870651245" lon="30.259222984313965">
        <ele>11.48</ele>
      </trkpt>
      <trkpt lat="59.97873195447028" lon="30.259222984313965">
        <ele>11.31</ele>
      </trkpt>
      <trkpt lat="59.97878551483154" lon="30.259019136428833">
        <ele>11.14</ele>
      </trkpt>
      <trkpt lat="59.97881778515875" lon="30.258507756516337">
        <ele>10.91</ele>
      </trkpt>
      <trkpt lat="59.9788498878479" lon="30.257999897003174">
        <ele>10.47</ele>
      </trkpt>
      <trkpt lat="59.97897360473871" lon="30.25748868472874">
        <ele>10.02</ele>
      </trkpt>
      <trkpt lat="59.97909665107727" lon="30.256980657577515">
        <ele>9.7</ele>
      </trkpt>
      <trkpt lat="59.97906966134906" lon="30.256356289610267">
        <ele>9.49</ele>
      </trkpt>
      <trkpt lat="59.97904300689697" lon="30.255736112594604">
        <ele>9.29</ele>
      </trkpt>
      <trkpt lat="59.979204358533025" lon="30.255198078230023">
        <ele>9.12</ele>
      </trkpt>
      <trkpt lat="59.97936487197876" lon="30.254663228988647">
        <ele>8.83</ele>
      </trkpt>
      <trkpt lat="59.9793541431427" lon="30.254191160202026">
        <ele>8.56</ele>
      </trkpt>
      <trkpt lat="59.97928415425122" lon="30.253819841891527">
        <ele>8.36</ele>
      </trkpt>
      <trkpt lat="59.97921475209296" lon="30.253450870513916">
        <ele>8.19</ele>
      </trkpt>
      <trkpt lat="59.97893571853638" lon="30.25331139564514">
        <ele>8.04</ele>
      </trkpt>
      <trkpt lat="59.979013754054904" lon="30.25282164104283">
        <ele>7.82</ele>
      </trkpt>
      <trkpt lat="59.97909178957343" lon="30.252331886440516">
        <ele>7.68</ele>
      </trkpt>
      <trkpt lat="59.97916982509196" lon="30.251842215657234">
        <ele>7.7</ele>
      </trkpt>
      <trkpt lat="59.979246854782104" lon="30.2513587474823">
        <ele>7.85</ele>
      </trkpt>
      <trkpt lat="59.979467215016484" lon="30.251143667846918">
        <ele>7.86</ele>
      </trkpt>
      <trkpt lat="59.97968682087958" lon="30.250929594039917">
        <ele>7.95</ele>
      </trkpt>
      <trkpt lat="59.97971900738776" lon="30.250552827492356">
        <ele>8.15</ele>
      </trkpt>
      <trkpt lat="59.979751110076904" lon="30.250178575515747">
        <ele>8.35</ele>
      </trkpt>
      <trkpt lat="59.97986912727356" lon="30.249706506729126">
        <ele>8.52</ele>
      </trkpt>
      <trkpt lat="59.98001966625452" lon="30.24936226196587">
        <ele>8.61</ele>
      </trkpt>
      <trkpt lat="59.98016953468323" lon="30.249019861221313">
        <ele>8.91</ele>
      </trkpt>
      <trkpt lat="59.98016961850226" lon="30.249019861221313">
        <ele>9.23</ele>
      </trkpt>
      <trkpt lat="59.98037924990058" lon="30.24869187735021">
        <ele>9.71</ele>
      </trkpt>
      <trkpt lat="59.98058804310858" lon="30.24836540222168">
        <ele>10.09</ele>
      </trkpt>
      <trkpt lat="59.98058795928955" lon="30.248043537139893">
        <ele>10.4</ele>
      </trkpt>
      <trkpt lat="59.980491399765015" lon="30.247764587402344">
        <ele>10.83</ele>
      </trkpt>
      <trkpt lat="59.980491483584046" lon="30.247764587402344">
        <ele>11.2</ele>
      </trkpt>
      <trkpt lat="59.98044856823981" lon="30.247474908828735">
        <ele>11.59</ele>
      </trkpt>
      <trkpt lat="59.98042702674866" lon="30.247206687927246">
        <ele>11.99</ele>
      </trkpt>
      <trkpt lat="59.98042711056769" lon="30.247206687927246">
        <ele>12.27</ele>
      </trkpt>
      <trkpt lat="59.98051671311259" lon="30.246808463707566">
        <ele>12.65</ele>
      </trkpt>
      <trkpt lat="59.98060639947653" lon="30.246410239487886">
        <ele>12.88</ele>
      </trkpt>
      <trkpt lat="59.98069524765015" lon="30.246015787124634">
        <ele>12.94</ele>
      </trkpt>
      <trkpt lat="59.98069524765015" lon="30.245758295059204">
        <ele>12.91</ele>
      </trkpt>
      <trkpt lat="59.980533896014094" lon="30.24541405029595">
        <ele>12.76</ele>
      </trkpt>
      <trkpt lat="59.98037346638739" lon="30.24507164955139">
        <ele>12.53</ele>
      </trkpt>
      <trkpt lat="59.98037346638739" lon="30.245050191879272">
        <ele>12.19</ele>
      </trkpt>
      <trkpt lat="59.980298364534974" lon="30.244535207748413">
        <ele>11.67</ele>
      </trkpt>
      <trkpt lat="59.98029828071594" lon="30.244535207748413">
        <ele>11.13</ele>
      </trkpt>
      <trkpt lat="59.98031445778906" lon="30.243970016017556">
        <ele>10.38</ele>
      </trkpt>
      <trkpt lat="59.98033055104315" lon="30.243408679962158">
        <ele>9.62</ele>
      </trkpt>
      <trkpt lat="59.98034119606018" lon="30.242958068847656">
        <ele>8.81</ele>
      </trkpt>
      <trkpt lat="59.98021739535034" lon="30.242484575137496">
        <ele>7.81</ele>
      </trkpt>
      <trkpt lat="59.98009443283081" lon="30.242013931274414">
        <ele>6.83</ele>
      </trkpt>
      <trkpt lat="59.98004062101245" lon="30.241642529144883">
        <ele>5.95</ele>
      </trkpt>
      <trkpt lat="59.97998722828925" lon="30.241273641586304">
        <ele>5.14</ele>
      </trkpt>
      <trkpt lat="59.97998354025185" lon="30.240814313292503">
        <ele>4.46</ele>
      </trkpt>
      <trkpt lat="59.97997993603349" lon="30.240354984998703">
        <ele>3.69</ele>
      </trkpt>
      <trkpt lat="59.979976415634155" lon="30.23990035057068">
        <ele>3.14</ele>
      </trkpt>
      <trkpt lat="59.979927968233824" lon="30.23931361734867">
        <ele>2.28</ele>
      </trkpt>
      <trkpt lat="59.97987993992865" lon="30.238730907440186">
        <ele>1.69</ele>
      </trkpt>
      <trkpt lat="59.97987985610962" lon="30.238730907440186">
        <ele>1.24</ele>
      </trkpt>
      <trkpt lat="59.97987993992865" lon="30.238451957702637">
        <ele>0.88</ele>
      </trkpt>
      <trkpt lat="59.97990139760077" lon="30.237994389608502">
        <ele>0.62</ele>
      </trkpt>
      <trkpt lat="59.97992277145386" lon="30.237540006637573">
        <ele>0.45</ele>
      </trkpt>
      <trkpt lat="59.97991832904518" lon="30.237424923107028">
        <ele>0.35</ele>
      </trkpt>
      <trkpt lat="59.97992285527289" lon="30.237540006637573">
        <ele>0.39</ele>
      </trkpt>
      <trkpt lat="59.98007297515869" lon="30.23712158203125">
        <ele>0.64</ele>
      </trkpt>
      <trkpt lat="59.980201721191406" lon="30.236992835998535">
        <ele>0.82</ele>
      </trkpt>
      <trkpt lat="59.98042702674866" lon="30.236949920654297">
        <ele>1.13</ele>
      </trkpt>
      <trkpt lat="59.98058795928955" lon="30.23711085319519">
        <ele>1.38</ele>
      </trkpt>
      <trkpt lat="59.98065233230591" lon="30.237486362457275">
        <ele>1.68</ele>
      </trkpt>
      <trkpt lat="59.98060388490558" lon="30.237970668822527">
        <ele>1.98</ele>
      </trkpt>
      <trkpt lat="59.98055577278137" lon="30.238451957702637">
        <ele>2.34</ele>
      </trkpt>
      <trkpt lat="59.98060941696167" lon="30.238773822784424">
        <ele>2.69</ele>
      </trkpt>
      <trkpt lat="59.98072776943445" lon="30.2390911616385">
        <ele>3.08</ele>
      </trkpt>
      <trkpt lat="59.98084553517401" lon="30.23940682411194">
        <ele>3.38</ele>
      </trkpt>
      <trkpt lat="59.98084545135498" lon="30.23940682411194">
        <ele>3.73</ele>
      </trkpt>
      <trkpt lat="59.98090010136366" lon="30.23995324037969">
        <ele>4.11</ele>
      </trkpt>
      <trkpt lat="59.98095475137234" lon="30.240499656647444">
        <ele>4.53</ele>
      </trkpt>
      <trkpt lat="59.981009401381016" lon="30.241046072915196">
        <ele>4.88</ele>
      </trkpt>
      <trkpt lat="59.981064051389694" lon="30.24159257300198">
        <ele>5.14</ele>
      </trkpt>
      <trkpt lat="59.98111870139837" lon="30.242138989269733">
        <ele>5.54</ele>
      </trkpt>
      <trkpt lat="59.98117226175964" lon="30.242674760520458">
        <ele>6.07</ele>
      </trkpt>
      <trkpt lat="59.98117226175964" lon="30.24267484433949">
        <ele>6.54</ele>
      </trkpt>
      <trkpt lat="59.981210231781006" lon="30.243054628372192">
        <ele>7.09</ele>
      </trkpt>
      <trkpt lat="59.98127477243543" lon="30.243506664410233">
        <ele>7.6</ele>
      </trkpt>
      <trkpt lat="59.98133931308985" lon="30.243958700448275">
        <ele>8.15</ele>
      </trkpt>
      <trkpt lat="59.98140335083008" lon="30.2444064617157">
        <ele>8.62</ele>
      </trkpt>
      <trkpt lat="59.98138180933893" lon="30.24490158073604">
        <ele>9.28</ele>
      </trkpt>
      <trkpt lat="59.98136043548584" lon="30.24539351463318">
        <ele>9.92</ele>
      </trkpt>
      <trkpt lat="59.981253147125244" lon="30.245704650878906">
        <ele>10.56</ele>
      </trkpt>
      <trkpt lat="59.981215009465814" lon="30.245684701949358">
        <ele>10.99</ele>
      </trkpt>
      <trkpt lat="59.981027925387025" lon="30.24558663368225">
        <ele>11.68</ele>
      </trkpt>
      <trkpt lat="59.980861293151975" lon="30.24567254818976">
        <ele>11.98</ele>
      </trkpt>
      <trkpt lat="59.98069533146918" lon="30.245758295059204">
        <ele>12.2</ele>
      </trkpt>
      <trkpt lat="59.98069524765015" lon="30.246015787124634">
        <ele>12.28</ele>
      </trkpt>
      <trkpt lat="59.98060556128621" lon="30.246413927525282">
        <ele>12.28</ele>
      </trkpt>
      <trkpt lat="59.980515874922276" lon="30.24681215174496">
        <ele>12.13</ele>
      </trkpt>
      <trkpt lat="59.98042711056769" lon="30.247206687927246">
        <ele>11.83</ele>
      </trkpt>
      <trkpt lat="59.98042702674866" lon="30.247206687927246">
        <ele>11.64</ele>
      </trkpt>
      <trkpt lat="59.98044856823981" lon="30.247474908828735">
        <ele>11.32</ele>
      </trkpt>
      <trkpt lat="59.980491483584046" lon="30.247764587402344">
        <ele>11.02</ele>
      </trkpt>
      <trkpt lat="59.980491399765015" lon="30.247764587402344">
        <ele>10.72</ele>
      </trkpt>
      <trkpt lat="59.98058795928955" lon="30.248043537139893">
        <ele>10.35</ele>
      </trkpt>
      <trkpt lat="59.98058795928955" lon="30.24836540222168">
        <ele>10.08</ele>
      </trkpt>
      <trkpt lat="59.98069013468921" lon="30.248731188476086">
        <ele>9.71</ele>
      </trkpt>
      <trkpt lat="59.98079180717468" lon="30.24909496307373">
        <ele>9.32</ele>
      </trkpt>
      <trkpt lat="59.98083480633795" lon="30.24941246956587">
        <ele>8.96</ele>
      </trkpt>
      <trkpt lat="59.98087763786316" lon="30.249727964401245">
        <ele>8.63</ele>
      </trkpt>
      <trkpt lat="59.98087763786316" lon="30.2502069901675">
        <ele>8.41</ele>
      </trkpt>
      <trkpt lat="59.98087763786316" lon="30.250682830810547">
        <ele>8.22</ele>
      </trkpt>
      <trkpt lat="59.980823742225766" lon="30.25110620073974">
        <ele>7.88</ele>
      </trkpt>
      <trkpt lat="59.980769930407405" lon="30.251529570668936">
        <ele>7.53</ele>
      </trkpt>
      <trkpt lat="59.980716705322266" lon="30.251948833465576">
        <ele>7.12</ele>
      </trkpt>
      <trkpt lat="59.980722069740295" lon="30.252530118450522">
        <ele>6.71</ele>
      </trkpt>
      <trkpt lat="59.980727434158325" lon="30.25310754776001">
        <ele>6.49</ele>
      </trkpt>
      <trkpt lat="59.98079692013562" lon="30.253441985696554">
        <ele>6.42</ele>
      </trkpt>
      <trkpt lat="59.98086607083678" lon="30.253774411976337">
        <ele>6.43</ele>
      </trkpt>
      <trkpt lat="59.98086607083678" lon="30.253774328157306">
        <ele>6.4</ele>
      </trkpt>
      <trkpt lat="59.980952739715576" lon="30.254191160202026">
        <ele>6.52</ele>
      </trkpt>
      <trkpt lat="59.98108156956732" lon="30.25434136390686">
        <ele>6.58</ele>
      </trkpt>
      <trkpt lat="59.98108148574829" lon="30.25434136390686">
        <ele>6.67</ele>
      </trkpt>
      <trkpt lat="59.98082399368286" lon="30.254523754119873">
        <ele>6.82</ele>
      </trkpt>
      <trkpt lat="59.9807270988822" lon="30.2549057174474">
        <ele>7.02</ele>
      </trkpt>
      <trkpt lat="59.98063087463379" lon="30.255285501480103">
        <ele>7.12</ele>
      </trkpt>
      <trkpt lat="59.98067387379706" lon="30.25558590888977">
        <ele>7.34</ele>
      </trkpt>
      <trkpt lat="59.98079750686884" lon="30.255962423980236">
        <ele>7.55</ele>
      </trkpt>
      <trkpt lat="59.9809205532074" lon="30.25633692741394">
        <ele>7.77</ele>
      </trkpt>
      <trkpt lat="59.98092063702643" lon="30.25633692741394">
        <ele>7.96</ele>
      </trkpt>
      <trkpt lat="59.9808669090271" lon="30.25686264038086">
        <ele>8.11</ele>
      </trkpt>
      <trkpt lat="59.98087763786316" lon="30.25733085349202">
        <ele>8.19</ele>
      </trkpt>
      <trkpt lat="59.98088845051825" lon="30.257796049118042">
        <ele>8.38</ele>
      </trkpt>
      <trkpt lat="59.98083455488086" lon="30.25811892002821">
        <ele>8.68</ele>
      </trkpt>
      <trkpt lat="59.98078107833862" lon="30.258439779281616">
        <ele>9.02</ele>
      </trkpt>
      <trkpt lat="59.980771439149976" lon="30.25845897383988">
        <ele>9.32</ele>
      </trkpt>
      <trkpt lat="59.980771439149976" lon="30.25845905765891">
        <ele>9.63</ele>
      </trkpt>
      <trkpt lat="59.980641854926944" lon="30.258718226104975">
        <ele>10.09</ele>
      </trkpt>
      <trkpt lat="59.980512941256166" lon="30.258976221084595">
        <ele>10.46</ele>
      </trkpt>
      <trkpt lat="59.98040565289557" lon="30.25913715362549">
        <ele>10.82</ele>
      </trkpt>
      <trkpt lat="59.980266094207764" lon="30.259673595428467">
        <ele>11.03</ele>
      </trkpt>
      <trkpt lat="59.980346811935306" lon="30.260098641738296">
        <ele>11.22</ele>
      </trkpt>
      <trkpt lat="59.98042702674866" lon="30.260521173477173">
        <ele>11.42</ele>
      </trkpt>
      <trkpt lat="59.98042702674866" lon="30.260940939188004">
        <ele>11.62</ele>
      </trkpt>
      <trkpt lat="59.98042702674866" lon="30.26135802268982">
        <ele>11.78</ele>
      </trkpt>
      <trkpt lat="59.98042711056769" lon="30.26135802268982">
        <ele>11.89</ele>
      </trkpt>
      <trkpt lat="59.980292581021786" lon="30.261637642979622">
        <ele>12.05</ele>
      </trkpt>
      <trkpt lat="59.98015880584717" lon="30.261915922164917">
        <ele>12.1</ele>
      </trkpt>
      <trkpt lat="59.9801588896662" lon="30.261915922164917">
        <ele>12.05</ele>
      </trkpt>
      <trkpt lat="59.98001363128424" lon="30.26226008310914">
        <ele>11.99</ele>
      </trkpt>
      <trkpt lat="59.97986921109259" lon="30.26260256767273">
        <ele>11.84</ele>
      </trkpt>
      <trkpt lat="59.979761838912964" lon="30.263160467147827">
        <ele>11.6</ele>
      </trkpt>
      <trkpt lat="59.979751110076904" lon="30.26361107826233">
        <ele>11.14</ele>
      </trkpt>
      <trkpt lat="59.979773154482245" lon="30.26363312266767">
        <ele>10.72</ele>
      </trkpt>
      <trkpt lat="59.97979402542114" lon="30.263653993606567">
        <ele>9.71</ele>
      </trkpt>
      <trkpt lat="59.97977248392999" lon="30.264186831191182">
        <ele>8.9</ele>
      </trkpt>
      <trkpt lat="59.979751110076904" lon="30.264716148376465">
        <ele>8.14</ele>
      </trkpt>
      <trkpt lat="59.97967609204352" lon="30.265156030654907">
        <ele>7.49</ele>
      </trkpt>
      <trkpt lat="59.97967600822449" lon="30.265156030654907">
        <ele>6.9</ele>
      </trkpt>
      <trkpt lat="59.97967609204352" lon="30.265156030654907">
        <ele>5.78</ele>
      </trkpt>
      <trkpt lat="59.979761838912964" lon="30.26559591293335">
        <ele>5.27</ele>
      </trkpt>
      <trkpt lat="59.97986921109259" lon="30.265724658966064">
        <ele>4.75</ele>
      </trkpt>
      <trkpt lat="59.97990139760077" lon="30.265767574310303">
        <ele>4.33</ele>
      </trkpt>
      <trkpt lat="59.98004120774567" lon="30.266031017526984">
        <ele>3.9</ele>
      </trkpt>
      <trkpt lat="59.98018034733832" lon="30.26629328727722">
        <ele>3.59</ele>
      </trkpt>
      <trkpt lat="59.9802125338465" lon="30.26661515235901">
        <ele>3.28</ele>
      </trkpt>
      <trkpt lat="59.9802125338465" lon="30.26679754257202">
        <ele>3.14</ele>
      </trkpt>
      <trkpt lat="59.980212450027466" lon="30.26679754257202">
        <ele>3.07</ele>
      </trkpt>
      <trkpt lat="59.9802125338465" lon="30.26679754257202">
        <ele>3.17</ele>
      </trkpt>
      <trkpt lat="59.98014246113598" lon="30.267114965245128">
        <ele>3.4</ele>
      </trkpt>
      <trkpt lat="59.98007297515869" lon="30.267430543899536">
        <ele>3.71</ele>
      </trkpt>
      <trkpt lat="59.97988471761346" lon="30.26785005815327">
        <ele>4.0</ele>
      </trkpt>
      <trkpt lat="59.979697465896606" lon="30.268267393112183">
        <ele>4.4</ele>
      </trkpt>
      <trkpt lat="59.97967609204352" lon="30.26855707168579">
        <ele>4.76</ele>
      </trkpt>
      <trkpt lat="59.97968673706055" lon="30.26885747909546">
        <ele>5.13</ele>
      </trkpt>
      <trkpt lat="59.97986954636872" lon="30.26906711049378">
        <ele>5.5</ele>
      </trkpt>
      <trkpt lat="59.980051601305604" lon="30.269275903701782">
        <ele>5.93</ele>
      </trkpt>
      <trkpt lat="59.980223178863525" lon="30.26956558227539">
        <ele>6.38</ele>
      </trkpt>
      <trkpt lat="59.98022326268256" lon="30.26956558227539">
        <ele>6.85</ele>
      </trkpt>
      <trkpt lat="59.98042702674866" lon="30.26982307434082">
        <ele>7.28</ele>
      </trkpt>
      <trkpt lat="59.98042702674866" lon="30.27004837989807">
        <ele>7.84</ele>
      </trkpt>
      <trkpt lat="59.98048083856702" lon="30.270667299628258">
        <ele>8.4</ele>
      </trkpt>
      <trkpt lat="59.980534398928285" lon="30.271282196044922">
        <ele>9.03</ele>
      </trkpt>
      <trkpt lat="59.98053431510925" lon="30.271282196044922">
        <ele>9.4</ele>
      </trkpt>
      <trkpt lat="59.980534398928285" lon="30.271282196044922">
        <ele>9.99</ele>
      </trkpt>
      <trkpt lat="59.98070631176233" lon="30.27146492153406">
        <ele>10.2</ele>
      </trkpt>
      <trkpt lat="59.98087763786316" lon="30.271646976470947">
        <ele>10.31</ele>
      </trkpt>
      <trkpt lat="59.98107084073126" lon="30.272033214569092">
        <ele>10.38</ele>
      </trkpt>
      <trkpt lat="59.98098274692893" lon="30.27235709130764">
        <ele>10.51</ele>
      </trkpt>
      <trkpt lat="59.98089532367885" lon="30.272679207846522">
        <ele>10.51</ele>
      </trkpt>
      <trkpt lat="59.98083480633795" lon="30.272902250289917">
        <ele>10.33</ele>
      </trkpt>
      <trkpt lat="59.98065744526684" lon="30.273004341870546">
        <ele>10.18</ele>
      </trkpt>
      <trkpt lat="59.98048075474799" lon="30.27310609817505">
        <ele>10.09</ele>
      </trkpt>
      <trkpt lat="59.980480670928955" lon="30.27310609817505">
        <ele>9.93</ele>
      </trkpt>
      <trkpt lat="59.98048075474799" lon="30.27310609817505">
        <ele>9.51</ele>
      </trkpt>
      <trkpt lat="59.98039492405951" lon="30.27304172515869">
        <ele>9.27</ele>
      </trkpt>
      <trkpt lat="59.98018789105117" lon="30.272780964151025">
        <ele>9.09</ele>
      </trkpt>
      <trkpt lat="59.97998094186187" lon="30.27252020314336">
        <ele>8.79</ele>
      </trkpt>
      <trkpt lat="59.97977399267256" lon="30.27225944213569">
        <ele>8.31</ele>
      </trkpt>
      <trkpt lat="59.97956880368292" lon="30.272001028060913">
        <ele>7.74</ele>
      </trkpt>
      <trkpt lat="59.979472160339355" lon="30.271925926208496">
        <ele>7.32</ele>
      </trkpt>
      <trkpt lat="59.97947224415839" lon="30.271925926208496">
        <ele>6.93</ele>
      </trkpt>
      <trkpt lat="59.97928222641349" lon="30.27170372195542">
        <ele>6.51</ele>
      </trkpt>
      <trkpt lat="59.97909229248762" lon="30.27148151770234">
        <ele>6.03</ele>
      </trkpt>
      <trkpt lat="59.9789035320282" lon="30.271260738372803">
        <ele>5.85</ele>
      </trkpt>
      <trkpt lat="59.97869599610567" lon="30.271170465275645">
        <ele>5.61</ele>
      </trkpt>
      <trkpt lat="59.97869599610567" lon="30.271170549094677">
        <ele>5.68</ele>
      </trkpt>
      <trkpt lat="59.97865676879883" lon="30.271153450012207">
        <ele>5.85</ele>
      </trkpt>
      <trkpt lat="59.97863531112671" lon="30.27054190635681">
        <ele>6.45</ele>
      </trkpt>
      <trkpt lat="59.97878585010767" lon="30.27039136737585">
        <ele>6.77</ele>
      </trkpt>
      <trkpt lat="59.97893580235541" lon="30.270241498947144">
        <ele>7.14</ele>
      </trkpt>
      <trkpt lat="59.97893571853638" lon="30.26983237825334">
        <ele>7.4</ele>
      </trkpt>
      <trkpt lat="59.97893571853638" lon="30.269426107406616">
        <ele>7.57</ele>
      </trkpt>
      <trkpt lat="59.97882843017578" lon="30.269232988357544">
        <ele>7.9</ele>
      </trkpt>
      <trkpt lat="59.97880194336176" lon="30.269078258424997">
        <ele>8.25</ele>
      </trkpt>
      <trkpt lat="59.97880185954273" lon="30.269078258424997">
        <ele>8.58</ele>
      </trkpt>
      <trkpt lat="59.97875064611435" lon="30.268779108300805">
        <ele>8.98</ele>
      </trkpt>
      <trkpt lat="59.9786997679621" lon="30.268481969833374">
        <ele>9.27</ele>
      </trkpt>
      <trkpt lat="59.9785961676389" lon="30.268804421648383">
        <ele>9.46</ele>
      </trkpt>
      <trkpt lat="59.97849323786795" lon="30.269125113263726">
        <ele>9.63</ele>
      </trkpt>
      <trkpt lat="59.97842073440552" lon="30.2693510055542">
        <ele>9.81</ele>
      </trkpt>
      <trkpt lat="59.97839634306729" lon="30.269716791808605">
        <ele>9.72</ele>
      </trkpt>
      <trkpt lat="59.97839634306729" lon="30.269716875627637">
        <ele>9.49</ele>
      </trkpt>
      <trkpt lat="59.97835644520819" lon="30.27031660079956">
        <ele>9.0</ele>
      </trkpt>
      <trkpt lat="59.97832417488098" lon="30.270456075668335">
        <ele>8.64</ele>
      </trkpt>
      <trkpt lat="59.97836013324559" lon="30.270465966314077">
        <ele>8.37</ele>
      </trkpt>
      <trkpt lat="59.97832417488098" lon="30.270456075668335">
        <ele>7.53</ele>
      </trkpt>
      <trkpt lat="59.97805771417916" lon="30.270518269389868">
        <ele>6.66</ele>
      </trkpt>
    </trkseg>
  </trk>
</gpx>
