<?xml version="1.0" encoding="UTF-8"?>
<gpx creator="Garmin Connect" version="1.1"
  xsi:schemaLocation="http://www.topografix.com/GPX/1/1 http://www.topografix.com/GPX/11.xsd"
  xmlns:ns3="http://www.garmin.com/xmlschemas/TrackPointExtension/v1"
  xmlns="http://www.topografix.com/GPX/1/1"
  xmlns:xsi="http://www.w3.org/2001/XMLSchema-instance" xmlns:ns2="http://www.garmin.com/xmlschemas/GpxExtensions/v3">
  <metadata>
    <name>ЦПКиО им. Кирова (Елагин остров) Бег 5 км </name>
    <link href="connect.garmin.com">
      <text>Garmin Connect</text>
    </link>
    <time>2026-09-24T18:47:05.000Z</time>
  </metadata>
  <trk>
    <name>ЦПКиО им. Кирова (Елагин остров) Бег 5 км </name>
    <trkseg>
      <trkpt lat="59.97769117355347" lon="30.27034878730774">
        <ele>2.66</ele>
      </trkpt>
      <trkpt lat="59.97744114138186" lon="30.270012756809592">
        <ele>3.28</ele>
      </trkpt>
      <trkpt lat="59.97719110921025" lon="30.269676726311445">
        <ele>4.11</ele>
      </trkpt>
      <trkpt lat="59.97694116085768" lon="30.2693406958133">
        <ele>3.72</ele>
      </trkpt>
      <trkpt lat="59.97669339179993" lon="30.269007682800293">
        <ele>3.24</ele>
      </trkpt>
      <trkpt lat="59.97669347561896" lon="30.269007682800293">
        <ele>2.85</ele>
      </trkpt>
      <trkpt lat="59.97646817006171" lon="30.268739461898804">
        <ele>1.84</ele>
      </trkpt>
      <trkpt lat="59.976258454844356" lon="30.268459841609">
        <ele>1.3</ele>
      </trkpt>
      <trkpt lat="59.976049745455384" lon="30.268181562423706">
        <ele>0.95</ele>
      </trkpt>
      <trkpt lat="59.97580767609179" lon="30.267789037898183">
        <ele>0.76</ele>
      </trkpt>
      <trkpt lat="59.97556686401367" lon="30.267398357391357">
        <ele>0.73</ele>
      </trkpt>
      <trkpt lat="59.975470304489136" lon="30.267033576965332">
        <ele>1.72</ele>
      </trkpt>
      <trkpt lat="59.97544884681702" lon="30.266486406326294">
        <ele>2.2</ele>
      </trkpt>
      <trkpt lat="59.975502490997314" lon="30.265896320343018">
        <ele>2.76</ele>
      </trkpt>
      <trkpt lat="59.975588573142886" lon="30.265386113896966">
        <ele>3.48</ele>
      </trkpt>
      <trkpt lat="59.97567465528846" lon="30.264875991269946">
        <ele>4.29</ele>
      </trkpt>
      <trkpt lat="59.97576073743403" lon="30.264365784823895">
        <ele>5.04</ele>
      </trkpt>
      <trkpt lat="59.97584690339863" lon="30.263855662196875">
        <ele>5.65</ele>
      </trkpt>
      <trkpt lat="59.9759316444397" lon="30.2633535861969">
        <ele>5.99</ele>
      </trkpt>
      <trkpt lat="59.97600423172116" lon="30.262772301211953">
        <ele>6.09</ele>
      </trkpt>
      <trkpt lat="59.97607690282166" lon="30.26219110004604">
        <ele>6.27</ele>
      </trkpt>
      <trkpt lat="59.97614957392216" lon="30.261609815061092">
        <ele>6.31</ele>
      </trkpt>
      <trkpt lat="59.976221323013306" lon="30.261036157608032">
        <ele>6.22</ele>
      </trkpt>
      <trkpt lat="59.976253593340516" lon="30.260535506531596">
        <ele>6.34</ele>
      </trkpt>
      <trkpt lat="59.976285779848695" lon="30.260035526007414">
        <ele>6.23</ele>
      </trkpt>
      <trkpt lat="59.976318050175905" lon="30.25953554548323">
        <ele>5.94</ele>
      </trkpt>
      <trkpt lat="59.97635006904602" lon="30.259040594100952">
        <ele>5.29</ele>
      </trkpt>
      <trkpt lat="59.97635015286505" lon="30.259040594100952">
        <ele>5.03</ele>
      </trkpt>
      <trkpt lat="59.97635551728308" lon="30.25864228606224">
        <ele>4.71</ele>
      </trkpt>
      <trkpt lat="59.97636088170111" lon="30.258246660232544">
        <ele>4.58</ele>
      </trkpt>
      <trkpt lat="59.97640371322632" lon="30.25808572769165">
        <ele>4.5</ele>
      </trkpt>
      <trkpt lat="59.97640379704535" lon="30.25808572769165">
        <ele>4.56</ele>
      </trkpt>
      <trkpt lat="59.9764358997345" lon="30.25787115097046">
        <ele>4.73</ele>
      </trkpt>
      <trkpt lat="59.97644671238959" lon="30.25763511657715">
        <ele>5.0</ele>
      </trkpt>
      <trkpt lat="59.9764842633158" lon="30.25730679742992">
        <ele>5.36</ele>
      </trkpt>
      <trkpt lat="59.976521730422974" lon="30.256980657577515">
        <ele>5.75</ele>
      </trkpt>
      <trkpt lat="59.976521814242005" lon="30.256980657577515">
        <ele>6.7</ele>
      </trkpt>
      <trkpt lat="59.976580990478396" lon="30.256388559937477">
        <ele>6.9</ele>
      </trkpt>
      <trkpt lat="59.97664016671479" lon="30.25579654611647">
        <ele>7.0</ele>
      </trkpt>
      <trkpt lat="59.97669934295118" lon="30.255204532295465">
        <ele>7.17</ele>
      </trkpt>
      <trkpt lat="59.976757764816284" lon="30.25462031364441">
        <ele>7.16</ele>
      </trkpt>
      <trkpt lat="59.97682775370777" lon="30.25425972416997">
        <ele>7.21</ele>
      </trkpt>
      <trkpt lat="59.97689732350409" lon="30.253901481628418">
        <ele>7.13</ele>
      </trkpt>
      <trkpt lat="59.9769295938313" lon="30.25358389131725">
        <ele>7.05</ele>
      </trkpt>
      <trkpt lat="59.97696169652045" lon="30.253268480300903">
        <ele>6.8</ele>
      </trkpt>
      <trkpt lat="59.97707962989807" lon="30.252721309661865">
        <ele>6.94</ele>
      </trkpt>
      <trkpt lat="59.97716554440558" lon="30.25258183479309">
        <ele>6.85</ele>
      </trkpt>
      <trkpt lat="59.977272748947144" lon="30.252453088760376">
        <ele>6.71</ele>
      </trkpt>
      <trkpt lat="59.977418007329106" lon="30.251914970576763">
        <ele>6.26</ele>
      </trkpt>
      <trkpt lat="59.977562511339784" lon="30.25138020515442">
        <ele>5.97</ele>
      </trkpt>
      <trkpt lat="59.97762688435614" lon="30.251230001449585">
        <ele>5.94</ele>
      </trkpt>
      <trkpt lat="59.97779888100922" lon="30.25089112110436">
        <ele>6.06</ele>
      </trkpt>
      <trkpt lat="59.977970123291016" lon="30.250554084777832">
        <ele>6.14</ele>
      </trkpt>
      <trkpt lat="59.97814580798149" lon="30.250105820596218">
        <ele>6.02</ele>
      </trkpt>
      <trkpt lat="59.97832149267197" lon="30.249657556414604">
        <ele>5.87</ele>
      </trkpt>
      <trkpt lat="59.978495836257935" lon="30.249212980270386">
        <ele>5.86</ele>
      </trkpt>
      <trkpt lat="59.978495920076966" lon="30.249212980270386">
        <ele>5.46</ele>
      </trkpt>
      <trkpt lat="59.978610668331385" lon="30.24877888150513">
        <ele>5.19</ele>
      </trkpt>
      <trkpt lat="59.9787254165858" lon="30.24834486655891">
        <ele>5.1</ele>
      </trkpt>
      <trkpt lat="59.97883924283087" lon="30.247914791107178">
        <ele>5.0</ele>
      </trkpt>
      <trkpt lat="59.9788498878479" lon="30.24783968925476">
        <ele>4.95</ele>
      </trkpt>
      <trkpt lat="59.97888207435608" lon="30.247732400894165">
        <ele>4.91</ele>
      </trkpt>
      <trkpt lat="59.97892498970032" lon="30.24760365486145">
        <ele>4.79</ele>
      </trkpt>
      <trkpt lat="59.97892507351935" lon="30.24760365486145">
        <ele>4.87</ele>
      </trkpt>
      <trkpt lat="59.97915029525757" lon="30.247260332107544">
        <ele>5.09</ele>
      </trkpt>
      <trkpt lat="59.9791503790766" lon="30.247260332107544">
        <ele>5.24</ele>
      </trkpt>
      <trkpt lat="59.97931701131165" lon="30.247055981308222">
        <ele>5.57</ele>
      </trkpt>
      <trkpt lat="59.97948297299445" lon="30.24685263633728">
        <ele>6.2</ele>
      </trkpt>
      <trkpt lat="59.979504346847534" lon="30.246798992156982">
        <ele>6.46</ele>
      </trkpt>
      <trkpt lat="59.9794558994472" lon="30.246465308591723">
        <ele>6.82</ele>
      </trkpt>
      <trkpt lat="59.979407787323" lon="30.24613380432129">
        <ele>6.97</ele>
      </trkpt>
      <trkpt lat="59.97942932881415" lon="30.245545310899615">
        <ele>7.25</ele>
      </trkpt>
      <trkpt lat="59.9794508703053" lon="30.24495681747794">
        <ele>7.42</ele>
      </trkpt>
      <trkpt lat="59.97947224415839" lon="30.24437427520752">
        <ele>7.51</ele>
      </trkpt>
      <trkpt lat="59.97953133657575" lon="30.24400287307799">
        <ele>7.57</ele>
      </trkpt>
      <trkpt lat="59.97959017753601" lon="30.24363398551941">
        <ele>7.6</ele>
      </trkpt>
      <trkpt lat="59.979783380404115" lon="30.243215560913086">
        <ele>7.49</ele>
      </trkpt>
      <trkpt lat="59.97986921109259" lon="30.24312973022461">
        <ele>7.44</ele>
      </trkpt>
      <trkpt lat="59.98008370399475" lon="30.24314045906067">
        <ele>7.36</ele>
      </trkpt>
      <trkpt lat="59.98033055104315" lon="30.243408679962158">
        <ele>7.22</ele>
      </trkpt>
      <trkpt lat="59.98034119606018" lon="30.242958068847656">
        <ele>6.85</ele>
      </trkpt>
      <trkpt lat="59.98021739535034" lon="30.242484575137496">
        <ele>6.29</ele>
      </trkpt>
      <trkpt lat="59.98009443283081" lon="30.242013931274414">
        <ele>5.3</ele>
      </trkpt>
      <trkpt lat="59.98004062101245" lon="30.241642529144883">
        <ele>4.79</ele>
      </trkpt>
      <trkpt lat="59.97998722828925" lon="30.241273641586304">
        <ele>4.31</ele>
      </trkpt>
      <trkpt lat="59.97998354025185" lon="30.240812804549932">
        <ele>3.94</ele>
      </trkpt>
      <trkpt lat="59.97997993603349" lon="30.240355068817735">
        <ele>3.44</ele>
      </trkpt>
      <trkpt lat="59.979976415634155" lon="30.23990035057068">
        <ele>2.74</ele>
      </trkpt>
      <trkpt lat="59.979927968233824" lon="30.23931361734867">
        <ele>2.12</ele>
      </trkpt>
      <trkpt lat="59.97987993992865" lon="30.238730907440186">
        <ele>1.73</ele>
      </trkpt>
      <trkpt lat="59.97987985610962" lon="30.238730907440186">
        <ele>1.47</ele>
      </trkpt>
      <trkpt lat="59.97987993992865" lon="30.238451957702637">
        <ele>1.26</ele>
      </trkpt>
      <trkpt lat="59.97987985610962" lon="30.238451957702637">
        <ele>1.12</ele>
      </trkpt>
      <trkpt lat="59.97987993992865" lon="30.238451957702637">
        <ele>1.03</ele>
      </trkpt>
      <trkpt lat="59.97990139760077" lon="30.237994389608502">
        <ele>1.08</ele>
      </trkpt>
      <trkpt lat="59.97992285527289" lon="30.237540006637573">
        <ele>1.19</ele>
      </trkpt>
      <trkpt lat="59.98007297515869" lon="30.23712158203125">
        <ele>1.46</ele>
      </trkpt>
      <trkpt lat="59.980201721191406" lon="30.236992835998535">
        <ele>1.65</ele>
      </trkpt>
      <trkpt lat="59.98042702674866" lon="30.236949920654297">
        <ele>1.95</ele>
      </trkpt>
      <trkpt lat="59.98058795928955" lon="30.23711085319519">
        <ele>2.17</ele>
      </trkpt>
      <trkpt lat="59.98065233230591" lon="30.237486362457275">
        <ele>2.42</ele>
      </trkpt>
      <trkpt lat="59.98060388490558" lon="30.237970668822527">
        <ele>2.66</ele>
      </trkpt>
      <trkpt lat="59.98055577278137" lon="30.238451957702637">
        <ele>2.94</ele>
      </trkpt>
      <trkpt lat="59.98060941696167" lon="30.238773822784424">
        <ele>3.2</ele>
      </trkpt>
      <trkpt lat="59.98072768561542" lon="30.2390911616385">
        <ele>3.47</ele>
      </trkpt>
      <trkpt lat="59.98084545135498" lon="30.23940682411194">
        <ele>3.64</ele>
      </trkpt>
      <trkpt lat="59.98084545135498" lon="30.239299535751343">
        <ele>3.83</ele>
      </trkpt>
      <trkpt lat="59.98092608526349" lon="30.23967077024281">
        <ele>4.05</ele>
      </trkpt>
      <trkpt lat="59.981006383895874" lon="30.240039825439453">
        <ele>4.2</ele>
      </trkpt>
      <trkpt lat="59.98106153681874" lon="30.24058599025011">
        <ele>4.38</ele>
      </trkpt>
      <trkpt lat="59.98111660592258" lon="30.241131987422705">
        <ele>4.67</ele>
      </trkpt>
      <trkpt lat="59.98117175884545" lon="30.2416779845953">
        <ele>4.71</ele>
      </trkpt>
      <trkpt lat="59.98122691176832" lon="30.242224065586925">
        <ele>4.94</ele>
      </trkpt>
      <trkpt lat="59.981282064691186" lon="30.24277006275952">
        <ele>5.24</ele>
      </trkpt>
      <trkpt lat="59.981337217614055" lon="30.243316143751144">
        <ele>5.53</ele>
      </trkpt>
      <trkpt lat="59.98139237053692" lon="30.24386214092374">
        <ele>5.81</ele>
      </trkpt>
      <trkpt lat="59.981446266174316" lon="30.24439573287964">
        <ele>6.05</ele>
      </trkpt>
      <trkpt lat="59.981494629755616" lon="30.244723968207836">
        <ele>6.59</ele>
      </trkpt>
      <trkpt lat="59.98154282569885" lon="30.245050191879272">
        <ele>6.88</ele>
      </trkpt>
      <trkpt lat="59.98155891895294" lon="30.245615299791098">
        <ele>7.64</ele>
      </trkpt>
      <trkpt lat="59.98157501220703" lon="30.246176719665527">
        <ele>7.84</ele>
      </trkpt>
      <trkpt lat="59.98157509602606" lon="30.246176719665527">
        <ele>7.95</ele>
      </trkpt>
      <trkpt lat="59.98156428337097" lon="30.246798992156982">
        <ele>8.04</ele>
      </trkpt>
      <trkpt lat="59.98156436719" lon="30.246798992156982">
        <ele>7.93</ele>
      </trkpt>
      <trkpt lat="59.981645001098514" lon="30.24720249697566">
        <ele>7.63</ele>
      </trkpt>
      <trkpt lat="59.981725215911865" lon="30.24760365486145">
        <ele>7.25</ele>
      </trkpt>
      <trkpt lat="59.9817252997309" lon="30.24760365486145">
        <ele>7.06</ele>
      </trkpt>
      <trkpt lat="59.98175069689751" lon="30.248194662854075">
        <ele>7.05</ele>
      </trkpt>
      <trkpt lat="59.98177617788315" lon="30.248785754665732">
        <ele>6.96</ele>
      </trkpt>
      <trkpt lat="59.98180157504976" lon="30.24937684647739">
        <ele>6.64</ele>
      </trkpt>
      <trkpt lat="59.9818270560354" lon="30.249967938289046">
        <ele>6.26</ele>
      </trkpt>
      <trkpt lat="59.98185253702104" lon="30.250559030100703">
        <ele>5.88</ele>
      </trkpt>
      <trkpt lat="59.98187793418765" lon="30.25115003809333">
        <ele>5.6</ele>
      </trkpt>
      <trkpt lat="59.98190341517329" lon="30.251741129904985">
        <ele>5.34</ele>
      </trkpt>
      <trkpt lat="59.9819288123399" lon="30.252332221716642">
        <ele>5.04</ele>
      </trkpt>
      <trkpt lat="59.98195429332554" lon="30.2529233135283">
        <ele>4.74</ele>
      </trkpt>
      <trkpt lat="59.981979774311185" lon="30.253514405339956">
        <ele>4.47</ele>
      </trkpt>
      <trkpt lat="59.982004165649414" lon="30.25408387184143">
        <ele>4.18</ele>
      </trkpt>
      <trkpt lat="59.98197206296027" lon="30.254298448562622">
        <ele>4.03</ele>
      </trkpt>
      <trkpt lat="59.981993520632386" lon="30.254491567611694">
        <ele>3.89</ele>
      </trkpt>
      <trkpt lat="59.98202042654157" lon="30.25498827919364">
        <ele>3.84</ele>
      </trkpt>
      <trkpt lat="59.982047248631716" lon="30.25548180565238">
        <ele>3.91</ele>
      </trkpt>
      <trkpt lat="59.982074070721865" lon="30.25597533211112">
        <ele>3.95</ele>
      </trkpt>
      <trkpt lat="59.98210072517395" lon="30.256465673446655">
        <ele>3.97</ele>
      </trkpt>
      <trkpt lat="59.982097959145904" lon="30.257060369476676">
        <ele>3.88</ele>
      </trkpt>
      <trkpt lat="59.98209527693689" lon="30.25765514932573">
        <ele>3.85</ele>
      </trkpt>
      <trkpt lat="59.982092594727874" lon="30.25824992917478">
        <ele>3.85</ele>
      </trkpt>
      <trkpt lat="59.98208999633789" lon="30.25883674621582">
        <ele>4.03</ele>
      </trkpt>
      <trkpt lat="59.98201464302838" lon="30.25929951108992">
        <ele>4.25</ele>
      </trkpt>
      <trkpt lat="59.98193979263306" lon="30.259759426116943">
        <ele>4.42</ele>
      </trkpt>
      <trkpt lat="59.98193987645209" lon="30.259759426116943">
        <ele>4.57</ele>
      </trkpt>
      <trkpt lat="59.981768215075135" lon="30.260220766067505">
        <ele>4.78</ele>
      </trkpt>
      <trkpt lat="59.98163938522339" lon="30.260499715805054">
        <ele>4.9</ele>
      </trkpt>
      <trkpt lat="59.98159630224109" lon="30.26105945929885">
        <ele>5.07</ele>
      </trkpt>
      <trkpt lat="59.98155355453491" lon="30.26161551475525">
        <ele>5.31</ele>
      </trkpt>
      <trkpt lat="59.98161809518933" lon="30.261970655992627">
        <ele>5.52</ele>
      </trkpt>
      <trkpt lat="59.98168238438666" lon="30.26232361793518">
        <ele>5.63</ele>
      </trkpt>
      <trkpt lat="59.98168230056763" lon="30.26232361793518">
        <ele>5.72</ele>
      </trkpt>
      <trkpt lat="59.98168238438666" lon="30.26232361793518">
        <ele>5.81</ele>
      </trkpt>
      <trkpt lat="59.98180031776428" lon="30.26281714439392">
        <ele>5.75</ele>
      </trkpt>
      <trkpt lat="59.981778943911195" lon="30.263149738311768">
        <ele>5.75</ele>
      </trkpt>
      <trkpt lat="59.98186502605677" lon="30.263494066894054">
        <ele>5.73</ele>
      </trkpt>
      <trkpt lat="59.98195060528815" lon="30.26383638381958">
        <ele>5.73</ele>
      </trkpt>
      <trkpt lat="59.981928979977965" lon="30.264424793422222">
        <ele>5.65</ele>
      </trkpt>
      <trkpt lat="59.981907438486814" lon="30.265013286843896">
        <ele>5.56</ele>
      </trkpt>
      <trkpt lat="59.98188614845276" lon="30.26559591293335">
        <ele>5.45</ele>
      </trkpt>
      <trkpt lat="59.981828732416034" lon="30.26606949046254">
        <ele>5.53</ele>
      </trkpt>
      <trkpt lat="59.98177131637931" lon="30.266543067991734">
        <ele>5.61</ele>
      </trkpt>
      <trkpt lat="59.98171457089484" lon="30.267012119293213">
        <ele>5.63</ele>
      </trkpt>
      <trkpt lat="59.98166696168482" lon="30.267580160871148">
        <ele>5.54</ele>
      </trkpt>
      <trkpt lat="59.98161943629384" lon="30.268148202449083">
        <ele>5.51</ele>
      </trkpt>
      <trkpt lat="59.98157191090286" lon="30.26871624402702">
        <ele>5.6</ele>
      </trkpt>
      <trkpt lat="59.98152505606413" lon="30.26927682571113">
        <ele>5.74</ele>
      </trkpt>
      <trkpt lat="59.981478452682495" lon="30.26983380317688">
        <ele>6.13</ele>
      </trkpt>
      <trkpt lat="59.981395890936255" lon="30.270292963832617">
        <ele>6.35</ele>
      </trkpt>
      <trkpt lat="59.98131341300905" lon="30.270752208307385">
        <ele>6.64</ele>
      </trkpt>
      <trkpt lat="59.981231689453125" lon="30.271207094192505">
        <ele>6.92</ele>
      </trkpt>
      <trkpt lat="59.98123177327216" lon="30.271207094192505">
        <ele>7.2</ele>
      </trkpt>
      <trkpt lat="59.98118877410889" lon="30.271378755569458">
        <ele>7.53</ele>
      </trkpt>
      <trkpt lat="59.981129514053464" lon="30.271706990897655">
        <ele>7.92</ele>
      </trkpt>
      <trkpt lat="59.98107075691223" lon="30.272033214569092">
        <ele>8.3</ele>
      </trkpt>
      <trkpt lat="59.98107084073126" lon="30.272033214569092">
        <ele>8.61</ele>
      </trkpt>
      <trkpt lat="59.98095240443945" lon="30.27246898971498">
        <ele>8.96</ele>
      </trkpt>
      <trkpt lat="59.98083480633795" lon="30.272902250289917">
        <ele>9.46</ele>
      </trkpt>
      <trkpt lat="59.98065744526684" lon="30.273004341870546">
        <ele>9.69</ele>
      </trkpt>
      <trkpt lat="59.98048075474799" lon="30.27310609817505">
        <ele>10.0</ele>
      </trkpt>
      <trkpt lat="59.98039492405951" lon="30.27304172515869">
        <ele>10.28</ele>
      </trkpt>
      <trkpt lat="59.98039484024048" lon="30.27304172515869">
        <ele>10.53</ele>
      </trkpt>
      <trkpt lat="59.98034639284015" lon="30.272568063810468">
        <ele>11.32</ele>
      </trkpt>
      <trkpt lat="59.980298364534974" lon="30.27209758758545">
        <ele>11.61</ele>
      </trkpt>
      <trkpt lat="59.980244636535645" lon="30.27160406112671">
        <ele>11.62</ele>
      </trkpt>
      <trkpt lat="59.980184622108936" lon="30.271343970671296">
        <ele>11.5</ele>
      </trkpt>
      <trkpt lat="59.980184622108936" lon="30.271344054490328">
        <ele>11.39</ele>
      </trkpt>
      <trkpt lat="59.98010172508657" lon="30.270984722301364">
        <ele>11.09</ele>
      </trkpt>
      <trkpt lat="59.980019414797425" lon="30.270627737045288">
        <ele>10.81</ele>
      </trkpt>
      <trkpt lat="59.97989024966955" lon="30.27019732631743">
        <ele>10.56</ele>
      </trkpt>
      <trkpt lat="59.979761922731996" lon="30.269769430160522">
        <ele>10.29</ele>
      </trkpt>
      <trkpt lat="59.979761838912964" lon="30.269769430160522">
        <ele>10.08</ele>
      </trkpt>
      <trkpt lat="59.979761922731996" lon="30.269769430160522">
        <ele>9.68</ele>
      </trkpt>
      <trkpt lat="59.97967609204352" lon="30.26932954788208">
        <ele>9.42</ele>
      </trkpt>
      <trkpt lat="59.97966536320746" lon="30.269179344177246">
        <ele>9.22</ele>
      </trkpt>
      <trkpt lat="59.97959017753601" lon="30.26936173439026">
        <ele>9.27</ele>
      </trkpt>
      <trkpt lat="59.97933276928961" lon="30.269426107406616">
        <ele>9.23</ele>
      </trkpt>
      <trkpt lat="59.97917141765356" lon="30.269323932006955">
        <ele>9.14</ele>
      </trkpt>
      <trkpt lat="59.979010820388794" lon="30.269222259521484">
        <ele>9.11</ele>
      </trkpt>
      <trkpt lat="59.979010904207826" lon="30.269222259521484">
        <ele>9.35</ele>
      </trkpt>
      <trkpt lat="59.97893555089831" lon="30.268829399719834">
        <ele>9.53</ele>
      </trkpt>
      <trkpt lat="59.97886070050299" lon="30.268439054489136">
        <ele>9.76</ele>
      </trkpt>
      <trkpt lat="59.97881778515875" lon="30.26829957962036">
        <ele>9.91</ele>
      </trkpt>
      <trkpt lat="59.97881770133972" lon="30.26829957962036">
        <ele>9.96</ele>
      </trkpt>
      <trkpt lat="59.9786997679621" lon="30.268481969833374">
        <ele>9.81</ele>
      </trkpt>
      <trkpt lat="59.97855979017913" lon="30.26891766116023">
        <ele>9.64</ele>
      </trkpt>
      <trkpt lat="59.97842073440552" lon="30.2693510055542">
        <ele>9.46</ele>
      </trkpt>
      <trkpt lat="59.97838846407831" lon="30.269835395738482">
        <ele>9.21</ele>
      </trkpt>
      <trkpt lat="59.97835644520819" lon="30.27031660079956">
        <ele>8.74</ele>
      </trkpt>
      <trkpt lat="59.97832417488098" lon="30.270456075668335">
        <ele>8.31</ele>
      </trkpt>
      <trkpt lat="59.97816299088299" lon="30.270493626594543">
        <ele>6.28</ele>
      </trkpt>
      <trkpt lat="59.978002393618226" lon="30.270531177520752">
        <ele>5.44</ele>
      </trkpt>
      <trkpt lat="59.97790575027466" lon="30.270423889160156">
        <ele>4.85</ele>
      </trkpt>
      <trkpt lat="59.977766359224916" lon="30.27061700820923">
        <ele>2.39</ele>
      </trkpt>
      <trkpt lat="59.977766275405884" lon="30.27061700820923">
        <ele>2.02</ele>
      </trkpt>
      <trkpt lat="59.977766359224916" lon="30.27061700820923">
        <ele>1.46</ele>
      </trkpt>
      <trkpt lat="59.97772344388068" lon="30.27056336402893">
        <ele>1.3</ele>
      </trkpt>
      <trkpt lat="59.9776912573725" lon="30.27054190635681">
        <ele>1.22</ele>
      </trkpt>
      <trkpt lat="59.9776912573725" lon="30.270402431488037">
        <ele>1.35</ele>
      </trkpt>
      <trkpt lat="59.97769117355347" lon="30.27038399130106">
        <ele>1.31</ele>
      </trkpt>
    </trkseg>
  </trk>
</gpx>
