<?xml version="1.0" encoding="UTF-8"?>
<gpx creator="Garmin Connect" version="1.1"
  xsi:schemaLocation="http://www.topografix.com/GPX/1/1 http://www.topografix.com/GPX/11.xsd"
  xmlns:ns3="http://www.garmin.com/xmlschemas/TrackPointExtension/v1"
  xmlns="http://www.topografix.com/GPX/1/1"
  xmlns:xsi="http://www.w3.org/2001/XMLSchema-instance" xmlns:ns2="http://www.garmin.com/xmlschemas/GpxExtensions/v3">
  <metadata>
    <name>Московский парк Победы
Московский район (м. Парк Победы) Бег 10 км</name>
    <link href="connect.garmin.com">
      <text>Garmin Connect</text>
    </link>
    <time>2026-09-25T16:05:16.000Z</time>
  </metadata>
  <trk>
    <name>Московский парк Победы
Московский район (м. Парк Победы) Бег 10 км</name>
    <trkseg>
      <trkpt lat="59.86894369125366" lon="30.322448015213013">
        <ele>14.9</ele>
      </trkpt>
      <trkpt lat="59.868943775072694" lon="30.322448015213013">
        <ele>14.71</ele>
      </trkpt>
      <trkpt lat="59.868868589401245" lon="30.322394371032715">
        <ele>14.43</ele>
      </trkpt>
      <trkpt lat="59.86881494522095" lon="30.32252311706543">
        <ele>14.08</ele>
      </trkpt>
      <trkpt lat="59.86862190999091" lon="30.322952270507812">
        <ele>13.59</ele>
      </trkpt>
      <trkpt lat="59.868621826171875" lon="30.322952270507812">
        <ele>13.29</ele>
      </trkpt>
      <trkpt lat="59.868594417348504" lon="30.3230167273432">
        <ele>13.01</ele>
      </trkpt>
      <trkpt lat="59.868439519777894" lon="30.323381423950195">
        <ele>12.42</ele>
      </trkpt>
      <trkpt lat="59.86843943595886" lon="30.323381423950195">
        <ele>12.26</ele>
      </trkpt>
      <trkpt lat="59.868149757385254" lon="30.3232741355896">
        <ele>12.06</ele>
      </trkpt>
      <trkpt lat="59.867967031896114" lon="30.32328486442566">
        <ele>12.11</ele>
      </trkpt>
      <trkpt lat="59.86778506077826" lon="30.32329559326172">
        <ele>12.29</ele>
      </trkpt>
      <trkpt lat="59.86750560812652" lon="30.32330632209778">
        <ele>12.68</ele>
      </trkpt>
      <trkpt lat="59.867226239293814" lon="30.323317050933838">
        <ele>12.99</ele>
      </trkpt>
      <trkpt lat="59.866948211565614" lon="30.323327779769897">
        <ele>13.13</ele>
      </trkpt>
      <trkpt lat="59.86694812774658" lon="30.323327779769897">
        <ele>13.26</ele>
      </trkpt>
      <trkpt lat="59.8669299390167" lon="30.32333230599761">
        <ele>13.32</ele>
      </trkpt>
      <trkpt lat="59.866905296221375" lon="30.323338508605957">
        <ele>13.28</ele>
      </trkpt>
      <trkpt lat="59.86670136451721" lon="30.32329559326172">
        <ele>13.16</ele>
      </trkpt>
      <trkpt lat="59.86660488881171" lon="30.323166847229004">
        <ele>12.98</ele>
      </trkpt>
      <trkpt lat="59.866604804992676" lon="30.323166847229004">
        <ele>12.8</ele>
      </trkpt>
      <trkpt lat="59.866411266848445" lon="30.323000214993954">
        <ele>12.5</ele>
      </trkpt>
      <trkpt lat="59.86621856689453" lon="30.322834253311157">
        <ele>12.13</ele>
      </trkpt>
      <trkpt lat="59.86605771817267" lon="30.322844982147217">
        <ele>11.87</ele>
      </trkpt>
      <trkpt lat="59.86600407399237" lon="30.322844982147217">
        <ele>11.65</ele>
      </trkpt>
      <trkpt lat="59.86600399017334" lon="30.322844982147217">
        <ele>11.45</ele>
      </trkpt>
      <trkpt lat="59.865886056795716" lon="30.322920083999634">
        <ele>11.32</ele>
      </trkpt>
      <trkpt lat="59.8658109549433" lon="30.32300591468811">
        <ele>11.17</ele>
      </trkpt>
      <trkpt lat="59.86581087112427" lon="30.32300591468811">
        <ele>11.05</ele>
      </trkpt>
      <trkpt lat="59.86567567102611" lon="30.32324924133718">
        <ele>10.92</ele>
      </trkpt>
      <trkpt lat="59.865596294403076" lon="30.323392152786255">
        <ele>10.79</ele>
      </trkpt>
      <trkpt lat="59.86552119255066" lon="30.323606729507446">
        <ele>10.72</ele>
      </trkpt>
      <trkpt lat="59.86548900604248" lon="30.323928594589233">
        <ele>10.78</ele>
      </trkpt>
      <trkpt lat="59.86548908986151" lon="30.323928594589233">
        <ele>10.83</ele>
      </trkpt>
      <trkpt lat="59.86549981869757" lon="30.324432849884033">
        <ele>11.02</ele>
      </trkpt>
      <trkpt lat="59.86558556556702" lon="30.32496929168701">
        <ele>11.13</ele>
      </trkpt>
      <trkpt lat="59.86558564938605" lon="30.32496929168701">
        <ele>11.26</ele>
      </trkpt>
      <trkpt lat="59.86559637822211" lon="30.325162410736084">
        <ele>11.33</ele>
      </trkpt>
      <trkpt lat="59.865596294403076" lon="30.325162410736084">
        <ele>11.47</ele>
      </trkpt>
      <trkpt lat="59.86559637822211" lon="30.325162410736084">
        <ele>11.77</ele>
      </trkpt>
      <trkpt lat="59.86560710705817" lon="30.32528042793274">
        <ele>11.92</ele>
      </trkpt>
      <trkpt lat="59.86549981869757" lon="30.3252911567688">
        <ele>12.11</ele>
      </trkpt>
      <trkpt lat="59.86547827720642" lon="30.325387716293335">
        <ele>12.27</ele>
      </trkpt>
      <trkpt lat="59.86518859863281" lon="30.32550573348999">
        <ele>12.5</ele>
      </trkpt>
      <trkpt lat="59.865156412124634" lon="30.32553791999817">
        <ele>12.65</ele>
      </trkpt>
      <trkpt lat="59.864920042455196" lon="30.325791221112013">
        <ele>12.83</ele>
      </trkpt>
      <trkpt lat="59.864920042455196" lon="30.32579113729298">
        <ele>12.91</ele>
      </trkpt>
      <trkpt lat="59.86470588482916" lon="30.32602071762085">
        <ele>12.97</ele>
      </trkpt>
      <trkpt lat="59.864652240648866" lon="30.326149463653564">
        <ele>13.0</ele>
      </trkpt>
      <trkpt lat="59.8646557610482" lon="30.32677022740245">
        <ele>12.98</ele>
      </trkpt>
      <trkpt lat="59.86465936526656" lon="30.327390991151333">
        <ele>12.93</ele>
      </trkpt>
      <trkpt lat="59.864662969484925" lon="30.32800555229187">
        <ele>12.87</ele>
      </trkpt>
      <trkpt lat="59.86467101611197" lon="30.328611060976982">
        <ele>12.71</ele>
      </trkpt>
      <trkpt lat="59.864679062739015" lon="30.329216569662094">
        <ele>12.48</ele>
      </trkpt>
      <trkpt lat="59.86468719318509" lon="30.329822078347206">
        <ele>12.48</ele>
      </trkpt>
      <trkpt lat="59.864695155993104" lon="30.330419540405273">
        <ele>12.35</ele>
      </trkpt>
      <trkpt lat="59.86469507217407" lon="30.330419540405273">
        <ele>12.23</ele>
      </trkpt>
      <trkpt lat="59.864695155993104" lon="30.330559015274048">
        <ele>12.1</ele>
      </trkpt>
      <trkpt lat="59.86470588482916" lon="30.330805778503418">
        <ele>11.94</ele>
      </trkpt>
      <trkpt lat="59.86470580101013" lon="30.33097743988037">
        <ele>11.8</ele>
      </trkpt>
      <trkpt lat="59.86470588482916" lon="30.331138372421265">
        <ele>11.52</ele>
      </trkpt>
      <trkpt lat="59.86471124924719" lon="30.33164966851473">
        <ele>11.4</ele>
      </trkpt>
      <trkpt lat="59.86471661366522" lon="30.332157611846924">
        <ele>11.28</ele>
      </trkpt>
      <trkpt lat="59.86471652984619" lon="30.332157611846924">
        <ele>11.16</ele>
      </trkpt>
      <trkpt lat="59.86472734250128" lon="30.33254384994507">
        <ele>11.0</ele>
      </trkpt>
      <trkpt lat="59.86472725868225" lon="30.33254384994507">
        <ele>10.88</ele>
      </trkpt>
      <trkpt lat="59.864730862900615" lon="30.332970824092627">
        <ele>10.67</ele>
      </trkpt>
      <trkpt lat="59.86473446711898" lon="30.333397798240185">
        <ele>10.6</ele>
      </trkpt>
      <trkpt lat="59.86473807133734" lon="30.333820581436157">
        <ele>10.57</ele>
      </trkpt>
      <trkpt lat="59.86473807133734" lon="30.334045886993408">
        <ele>10.45</ele>
      </trkpt>
      <trkpt lat="59.8647488001734" lon="30.3342604637146">
        <ele>10.37</ele>
      </trkpt>
      <trkpt lat="59.864752320572734" lon="30.33473404124379">
        <ele>10.26</ele>
      </trkpt>
      <trkpt lat="59.8647559247911" lon="30.335207702592015">
        <ele>10.07</ele>
      </trkpt>
      <trkpt lat="59.86475952900946" lon="30.335676670074463">
        <ele>9.69</ele>
      </trkpt>
      <trkpt lat="59.86475952900946" lon="30.335848331451416">
        <ele>9.4</ele>
      </trkpt>
      <trkpt lat="59.86477025784552" lon="30.336073637008667">
        <ele>9.11</ele>
      </trkpt>
      <trkpt lat="59.86477017402649" lon="30.336073637008667">
        <ele>8.87</ele>
      </trkpt>
      <trkpt lat="59.86477017402649" lon="30.33628821372986">
        <ele>8.59</ele>
      </trkpt>
      <trkpt lat="59.86478970386088" lon="30.33628494478762">
        <ele>8.38</ele>
      </trkpt>
      <trkpt lat="59.86483463086188" lon="30.3362774848938">
        <ele>8.02</ele>
      </trkpt>
      <trkpt lat="59.86498475074768" lon="30.3362774848938">
        <ele>7.8</ele>
      </trkpt>
      <trkpt lat="59.865196058526635" lon="30.336277401074767">
        <ele>7.59</ele>
      </trkpt>
      <trkpt lat="59.86540745012462" lon="30.336277401074767">
        <ele>7.51</ele>
      </trkpt>
      <trkpt lat="59.86561783589423" lon="30.3362774848938">
        <ele>7.66</ele>
      </trkpt>
      <trkpt lat="59.865617752075195" lon="30.3362774848938">
        <ele>7.66</ele>
      </trkpt>
      <trkpt lat="59.8658971209079" lon="30.33625954762101">
        <ele>7.86</ele>
      </trkpt>
      <trkpt lat="59.86617657355964" lon="30.336241610348225">
        <ele>7.94</ele>
      </trkpt>
      <trkpt lat="59.86645468510687" lon="30.3362238407135">
        <ele>8.0</ele>
      </trkpt>
      <trkpt lat="59.86672868952155" lon="30.33620766364038">
        <ele>8.01</ele>
      </trkpt>
      <trkpt lat="59.86700269393623" lon="30.33619157038629">
        <ele>8.17</ele>
      </trkpt>
      <trkpt lat="59.86727678216994" lon="30.3361754771322">
        <ele>8.2</ele>
      </trkpt>
      <trkpt lat="59.867550786584616" lon="30.33615930005908">
        <ele>8.29</ele>
      </trkpt>
      <trkpt lat="59.86782479099929" lon="30.33614320680499">
        <ele>8.43</ele>
      </trkpt>
      <trkpt lat="59.86809619702399" lon="30.336127281188965">
        <ele>8.52</ele>
      </trkpt>
      <trkpt lat="59.86820348538458" lon="30.336116552352905">
        <ele>8.72</ele>
      </trkpt>
      <trkpt lat="59.86848285421729" lon="30.336098615080118">
        <ele>9.05</ele>
      </trkpt>
      <trkpt lat="59.86876230686903" lon="30.33608067780733">
        <ele>9.48</ele>
      </trkpt>
      <trkpt lat="59.86904033459723" lon="30.336062908172607">
        <ele>9.94</ele>
      </trkpt>
      <trkpt lat="59.869147622957826" lon="30.336062908172607">
        <ele>10.21</ele>
      </trkpt>
      <trkpt lat="59.86925491131842" lon="30.336052179336548">
        <ele>10.47</ele>
      </trkpt>
      <trkpt lat="59.869437301531434" lon="30.33604145050049">
        <ele>10.74</ele>
      </trkpt>
      <trkpt lat="59.86968440003693" lon="30.336027117446065">
        <ele>10.98</ele>
      </trkpt>
      <trkpt lat="59.86993158236146" lon="30.33601278439164">
        <ele>11.19</ele>
      </trkpt>
      <trkpt lat="59.870177591219544" lon="30.33599853515625">
        <ele>11.41</ele>
      </trkpt>
      <trkpt lat="59.87044623121619" lon="30.3359769936651">
        <ele>11.6</ele>
      </trkpt>
      <trkpt lat="59.87071487121284" lon="30.33595553599298">
        <ele>11.68</ele>
      </trkpt>
      <trkpt lat="59.87098225392401" lon="30.335934162139893">
        <ele>11.77</ele>
      </trkpt>
      <trkpt lat="59.87098217010498" lon="30.335934162139893">
        <ele>11.95</ele>
      </trkpt>
      <trkpt lat="59.871204290539026" lon="30.33591982908547">
        <ele>12.2</ele>
      </trkpt>
      <trkpt lat="59.87142641097307" lon="30.335905496031046">
        <ele>12.44</ele>
      </trkpt>
      <trkpt lat="59.871647441759706" lon="30.335891246795654">
        <ele>12.71</ele>
      </trkpt>
      <trkpt lat="59.87178683280945" lon="30.335891246795654">
        <ele>12.97</ele>
      </trkpt>
      <trkpt lat="59.87178691662848" lon="30.335891246795654">
        <ele>13.53</ele>
      </trkpt>
      <trkpt lat="59.87178146839142" lon="30.33543367870152">
        <ele>13.83</ele>
      </trkpt>
      <trkpt lat="59.87177618779242" lon="30.33497929573059">
        <ele>14.07</ele>
      </trkpt>
      <trkpt lat="59.87177073955536" lon="30.33465634100139">
        <ele>14.23</ele>
      </trkpt>
      <trkpt lat="59.87176545895636" lon="30.334335565567017">
        <ele>14.31</ele>
      </trkpt>
      <trkpt lat="59.87175464630127" lon="30.333750676363707">
        <ele>14.4</ele>
      </trkpt>
      <trkpt lat="59.87174391746521" lon="30.333165787160397">
        <ele>14.54</ele>
      </trkpt>
      <trkpt lat="59.87173327244818" lon="30.332586765289307">
        <ele>14.71</ele>
      </trkpt>
      <trkpt lat="59.87173327244818" lon="30.33251166343689">
        <ele>14.93</ele>
      </trkpt>
      <trkpt lat="59.87172782421112" lon="30.332000283524394">
        <ele>15.17</ele>
      </trkpt>
      <trkpt lat="59.87172254361212" lon="30.33149242401123">
        <ele>15.55</ele>
      </trkpt>
      <trkpt lat="59.871713910251856" lon="30.33093041740358">
        <ele>16.04</ele>
      </trkpt>
      <trkpt lat="59.87170527689159" lon="30.33036849461496">
        <ele>16.59</ele>
      </trkpt>
      <trkpt lat="59.87169664353132" lon="30.32980657182634">
        <ele>17.03</ele>
      </trkpt>
      <trkpt lat="59.87168809399009" lon="30.32924464903772">
        <ele>17.19</ele>
      </trkpt>
      <trkpt lat="59.871679628267884" lon="30.328692197799683">
        <ele>17.18</ele>
      </trkpt>
      <trkpt lat="59.871679628267884" lon="30.328638553619385">
        <ele>17.36</ele>
      </trkpt>
      <trkpt lat="59.871679628267884" lon="30.328574180603027">
        <ele>17.51</ele>
      </trkpt>
      <trkpt lat="59.87167241983116" lon="30.327969510108232">
        <ele>17.74</ele>
      </trkpt>
      <trkpt lat="59.87166521139443" lon="30.32736492343247">
        <ele>17.83</ele>
      </trkpt>
      <trkpt lat="59.87165808677673" lon="30.326760252937675">
        <ele>17.93</ele>
      </trkpt>
      <trkpt lat="59.871650878340006" lon="30.32615566626191">
        <ele>18.01</ele>
      </trkpt>
      <trkpt lat="59.87164375372231" lon="30.325550995767117">
        <ele>18.0</ele>
      </trkpt>
      <trkpt lat="59.871636712923646" lon="30.324958562850952">
        <ele>17.87</ele>
      </trkpt>
      <trkpt lat="59.871636712923646" lon="30.324904918670654">
        <ele>17.86</ele>
      </trkpt>
      <trkpt lat="59.871625984087586" lon="30.324625968933105">
        <ele>17.8</ele>
      </trkpt>
      <trkpt lat="59.871625984087586" lon="30.32404661178589">
        <ele>17.87</ele>
      </trkpt>
      <trkpt lat="59.871615171432495" lon="30.323470691218972">
        <ele>17.9</ele>
      </trkpt>
      <trkpt lat="59.871604358777404" lon="30.322894770652056">
        <ele>17.75</ele>
      </trkpt>
      <trkpt lat="59.871593629941344" lon="30.32231885008514">
        <ele>17.44</ele>
      </trkpt>
      <trkpt lat="59.871582984924316" lon="30.32175064086914">
        <ele>17.15</ele>
      </trkpt>
      <trkpt lat="59.871565299108624" lon="30.321704540401697">
        <ele>16.9</ele>
      </trkpt>
      <trkpt lat="59.871565299108624" lon="30.32170462422073">
        <ele>16.67</ele>
      </trkpt>
      <trkpt lat="59.87152934074402" lon="30.321611166000366">
        <ele>16.4</ele>
      </trkpt>
      <trkpt lat="59.871389949694276" lon="30.321428775787354">
        <ele>16.05</ele>
      </trkpt>
      <trkpt lat="59.871389865875244" lon="30.321428775787354">
        <ele>15.83</ele>
      </trkpt>
      <trkpt lat="59.871368408203125" lon="30.3212571144104">
        <ele>15.58</ele>
      </trkpt>
      <trkpt lat="59.871293641626835" lon="30.321253342553973">
        <ele>15.37</ele>
      </trkpt>
      <trkpt lat="59.871368408203125" lon="30.3212571144104">
        <ele>15.11</ele>
      </trkpt>
      <trkpt lat="59.87112105824053" lon="30.321637066081166">
        <ele>15.09</ele>
      </trkpt>
      <trkpt lat="59.87087379209697" lon="30.322017017751932">
        <ele>15.08</ele>
      </trkpt>
      <trkpt lat="59.870628202334046" lon="30.322394371032715">
        <ele>14.94</ele>
      </trkpt>
      <trkpt lat="59.870628118515015" lon="30.322394371032715">
        <ele>14.89</ele>
      </trkpt>
      <trkpt lat="59.87061747349799" lon="30.322415828704834">
        <ele>14.85</ele>
      </trkpt>
      <trkpt lat="59.87053155899048" lon="30.32254457473755">
        <ele>14.8</ele>
      </trkpt>
      <trkpt lat="59.870359897613525" lon="30.322694778442383">
        <ele>14.77</ele>
      </trkpt>
      <trkpt lat="59.87018823623657" lon="30.322405099868774">
        <ele>14.82</ele>
      </trkpt>
      <trkpt lat="59.86998438835144" lon="30.32230854034424">
        <ele>14.87</ele>
      </trkpt>
      <trkpt lat="59.86981775611639" lon="30.322437454015017">
        <ele>14.88</ele>
      </trkpt>
      <trkpt lat="59.869651878252625" lon="30.322566032409668">
        <ele>14.96</ele>
      </trkpt>
      <trkpt lat="59.86953352577984" lon="30.32278111204505">
        <ele>14.91</ele>
      </trkpt>
      <trkpt lat="59.869415843859315" lon="30.32299518585205">
        <ele>14.84</ele>
      </trkpt>
      <trkpt lat="59.86931920051575" lon="30.323327779769897">
        <ele>14.69</ele>
      </trkpt>
      <trkpt lat="59.86931928433478" lon="30.323327779769897">
        <ele>14.4</ele>
      </trkpt>
      <trkpt lat="59.86912616528571" lon="30.323563814163208">
        <ele>14.19</ele>
      </trkpt>
      <trkpt lat="59.86896523274481" lon="30.32347798347473">
        <ele>14.09</ele>
      </trkpt>
      <trkpt lat="59.86896514892578" lon="30.32347798347473">
        <ele>13.93</ele>
      </trkpt>
      <trkpt lat="59.86896523274481" lon="30.32347798347473">
        <ele>13.59</ele>
      </trkpt>
      <trkpt lat="59.86896523274481" lon="30.323832035064697">
        <ele>13.32</ele>
      </trkpt>
      <trkpt lat="59.86896523274481" lon="30.324110984802246">
        <ele>13.13</ele>
      </trkpt>
      <trkpt lat="59.86897596158087" lon="30.324389934539795">
        <ele>12.94</ele>
      </trkpt>
      <trkpt lat="59.86897596158087" lon="30.324786901474">
        <ele>12.79</ele>
      </trkpt>
      <trkpt lat="59.86897587776184" lon="30.324786901474">
        <ele>12.61</ele>
      </trkpt>
      <trkpt lat="59.8689866065979" lon="30.32502293586731">
        <ele>12.47</ele>
      </trkpt>
      <trkpt lat="59.86907252110541" lon="30.32525897026062">
        <ele>12.28</ele>
      </trkpt>
      <trkpt lat="59.86908056773245" lon="30.325791807845235">
        <ele>12.04</ele>
      </trkpt>
      <trkpt lat="59.8690886143595" lon="30.32632464542985">
        <ele>11.89</ele>
      </trkpt>
      <trkpt lat="59.869096744805574" lon="30.326857483014464">
        <ele>11.71</ele>
      </trkpt>
      <trkpt lat="59.86910470761359" lon="30.327383279800415">
        <ele>11.67</ele>
      </trkpt>
      <trkpt lat="59.86901887692511" lon="30.32751202583313">
        <ele>11.64</ele>
      </trkpt>
      <trkpt lat="59.86902952194214" lon="30.327985603362322">
        <ele>11.7</ele>
      </trkpt>
      <trkpt lat="59.8690402507782" lon="30.328456163406372">
        <ele>11.71</ele>
      </trkpt>
      <trkpt lat="59.86904033459723" lon="30.328456163406372">
        <ele>11.92</ele>
      </trkpt>
      <trkpt lat="59.86892223358154" lon="30.328456163406372">
        <ele>12.05</ele>
      </trkpt>
      <trkpt lat="59.868922317400575" lon="30.32874584197998">
        <ele>12.14</ele>
      </trkpt>
      <trkpt lat="59.868933046236634" lon="30.32900333404541">
        <ele>12.27</ele>
      </trkpt>
      <trkpt lat="59.8689329624176" lon="30.32900333404541">
        <ele>12.43</ele>
      </trkpt>
      <trkpt lat="59.86905097961426" lon="30.32899260520935">
        <ele>12.58</ele>
      </trkpt>
      <trkpt lat="59.86905634403229" lon="30.329503901302814">
        <ele>12.78</ele>
      </trkpt>
      <trkpt lat="59.86906179226935" lon="30.33001184463501">
        <ele>13.07</ele>
      </trkpt>
      <trkpt lat="59.86906715668738" lon="30.33037779852748">
        <ele>13.27</ele>
      </trkpt>
      <trkpt lat="59.86907252110541" lon="30.33074140548706">
        <ele>13.5</ele>
      </trkpt>
      <trkpt lat="59.86907243728638" lon="30.330859422683716">
        <ele>13.56</ele>
      </trkpt>
      <trkpt lat="59.86907252110541" lon="30.331149101257324">
        <ele>13.56</ele>
      </trkpt>
      <trkpt lat="59.86907252110541" lon="30.331320762634277">
        <ele>13.5</ele>
      </trkpt>
      <trkpt lat="59.86908056773245" lon="30.33182669430971">
        <ele>13.32</ele>
      </trkpt>
      <trkpt lat="59.8690886143595" lon="30.332332625985146">
        <ele>13.07</ele>
      </trkpt>
      <trkpt lat="59.86909666098654" lon="30.33283855766058">
        <ele>12.76</ele>
      </trkpt>
      <trkpt lat="59.869104623794556" lon="30.333337783813477">
        <ele>12.45</ele>
      </trkpt>
      <trkpt lat="59.86910470761359" lon="30.333337783813477">
        <ele>12.31</ele>
      </trkpt>
      <trkpt lat="59.869104623794556" lon="30.333337783813477">
        <ele>12.19</ele>
      </trkpt>
      <trkpt lat="59.86894369125366" lon="30.333337783813477">
        <ele>12.05</ele>
      </trkpt>
      <trkpt lat="59.868879402056336" lon="30.333337783813477">
        <ele>12.09</ele>
      </trkpt>
      <trkpt lat="59.868691228330135" lon="30.333316242322326">
        <ele>12.2</ele>
      </trkpt>
      <trkpt lat="59.86850380897522" lon="30.33329486846924">
        <ele>12.25</ele>
      </trkpt>
      <trkpt lat="59.86830490641296" lon="30.3331605065614">
        <ele>12.31</ele>
      </trkpt>
      <trkpt lat="59.868106842041016" lon="30.33302664756775">
        <ele>12.37</ele>
      </trkpt>
      <trkpt lat="59.86787089146674" lon="30.33301591873169">
        <ele>12.45</ele>
      </trkpt>
      <trkpt lat="59.867699230089784" lon="30.333123207092285">
        <ele>12.59</ele>
      </trkpt>
      <trkpt lat="59.86769914627075" lon="30.333123207092285">
        <ele>12.63</ele>
      </trkpt>
      <trkpt lat="59.867699230089784" lon="30.333198308944702">
        <ele>12.64</ele>
      </trkpt>
      <trkpt lat="59.86769914627075" lon="30.333198308944702">
        <ele>12.62</ele>
      </trkpt>
      <trkpt lat="59.867699230089784" lon="30.333198308944702">
        <ele>12.49</ele>
      </trkpt>
      <trkpt lat="59.86769914627075" lon="30.333123207092285">
        <ele>12.36</ele>
      </trkpt>
      <trkpt lat="59.867699230089784" lon="30.333123207092285">
        <ele>12.2</ele>
      </trkpt>
      <trkpt lat="59.86768841743469" lon="30.332636050879955">
        <ele>12.0</ele>
      </trkpt>
      <trkpt lat="59.8676776047796" lon="30.332148978486657">
        <ele>11.71</ele>
      </trkpt>
      <trkpt lat="59.86766687594354" lon="30.331661822274327">
        <ele>11.43</ele>
      </trkpt>
      <trkpt lat="59.867656230926514" lon="30.331181287765503">
        <ele>11.07</ele>
      </trkpt>
      <trkpt lat="59.867656314745545" lon="30.331181287765503">
        <ele>10.79</ele>
      </trkpt>
      <trkpt lat="59.867656230926514" lon="30.331181287765503">
        <ele>10.51</ele>
      </trkpt>
      <trkpt lat="59.867656314745545" lon="30.331181287765503">
        <ele>9.97</ele>
      </trkpt>
      <trkpt lat="59.86753821372986" lon="30.331052541732788">
        <ele>9.7</ele>
      </trkpt>
      <trkpt lat="59.86730217933655" lon="30.330805778503418">
        <ele>9.31</ele>
      </trkpt>
      <trkpt lat="59.86722707748413" lon="30.33077359199524">
        <ele>9.12</ele>
      </trkpt>
      <trkpt lat="59.86721634864807" lon="30.3307843208313">
        <ele>9.02</ele>
      </trkpt>
      <trkpt lat="59.867098331451416" lon="30.330827236175537">
        <ele>8.96</ele>
      </trkpt>
      <trkpt lat="59.867087602615356" lon="30.330837965011597">
        <ele>8.98</ele>
      </trkpt>
      <trkpt lat="59.86696966923773" lon="30.330870151519775">
        <ele>9.12</ele>
      </trkpt>
      <trkpt lat="59.86680865287781" lon="30.33098816871643">
        <ele>9.41</ele>
      </trkpt>
      <trkpt lat="59.86680739559233" lon="30.33084684982896">
        <ele>9.55</ele>
      </trkpt>
      <trkpt lat="59.86680739559233" lon="30.33084693364799">
        <ele>9.77</ele>
      </trkpt>
      <trkpt lat="59.866802617907524" lon="30.330325663089752">
        <ele>10.0</ele>
      </trkpt>
      <trkpt lat="59.86679800786078" lon="30.329807996749878">
        <ele>10.37</ele>
      </trkpt>
      <trkpt lat="59.86679792404175" lon="30.329219503328204">
        <ele>10.73</ele>
      </trkpt>
      <trkpt lat="59.86679792404175" lon="30.32863100990653">
        <ele>10.96</ele>
      </trkpt>
      <trkpt lat="59.86679792404175" lon="30.328042516484857">
        <ele>11.25</ele>
      </trkpt>
      <trkpt lat="59.86679792404175" lon="30.327454023063183">
        <ele>11.7</ele>
      </trkpt>
      <trkpt lat="59.86679792404175" lon="30.32686561346054">
        <ele>12.05</ele>
      </trkpt>
      <trkpt lat="59.86679792404175" lon="30.32628893852234">
        <ele>12.27</ele>
      </trkpt>
      <trkpt lat="59.86679792404175" lon="30.32625675201416">
        <ele>12.47</ele>
      </trkpt>
      <trkpt lat="59.86678719520569" lon="30.32598853111267">
        <ele>12.57</ele>
      </trkpt>
      <trkpt lat="59.86678719520569" lon="30.32596707344055">
        <ele>12.71</ele>
      </trkpt>
      <trkpt lat="59.86679524183273" lon="30.32570891082287">
        <ele>12.78</ele>
      </trkpt>
      <trkpt lat="59.86679792404175" lon="30.325623750686646">
        <ele>12.92</ele>
      </trkpt>
      <trkpt lat="59.86698039807379" lon="30.325613021850586">
        <ele>13.0</ele>
      </trkpt>
      <trkpt lat="59.86702331341803" lon="30.32572031021118">
        <ele>13.02</ele>
      </trkpt>
      <trkpt lat="59.867119789123535" lon="30.32600998878479">
        <ele>12.99</ele>
      </trkpt>
      <trkpt lat="59.867356326431036" lon="30.32635943032801">
        <ele>12.96</ele>
      </trkpt>
      <trkpt lat="59.86759194172919" lon="30.326707363128662">
        <ele>12.93</ele>
      </trkpt>
      <trkpt lat="59.86774248071015" lon="30.327029982581735">
        <ele>12.82</ele>
      </trkpt>
      <trkpt lat="59.86789301969111" lon="30.32735268585384">
        <ele>12.65</ele>
      </trkpt>
      <trkpt lat="59.86804246902466" lon="30.327672958374023">
        <ele>12.53</ele>
      </trkpt>
      <trkpt lat="59.86811245791614" lon="30.327752083539963">
        <ele>12.42</ele>
      </trkpt>
      <trkpt lat="59.86828923225403" lon="30.327951908111572">
        <ele>12.22</ele>
      </trkpt>
      <trkpt lat="59.8684823513031" lon="30.327919721603394">
        <ele>12.17</ele>
      </trkpt>
      <trkpt lat="59.86854672431946" lon="30.32778024673462">
        <ele>12.04</ele>
      </trkpt>
      <trkpt lat="59.86854680813849" lon="30.32778024673462">
        <ele>11.94</ele>
      </trkpt>
      <trkpt lat="59.868654012680054" lon="30.327415466308594">
        <ele>11.79</ele>
      </trkpt>
      <trkpt lat="59.868654096499085" lon="30.327415466308594">
        <ele>11.7</ele>
      </trkpt>
      <trkpt lat="59.868654012680054" lon="30.327415466308594">
        <ele>11.64</ele>
      </trkpt>
      <trkpt lat="59.8689329624176" lon="30.327394008636475">
        <ele>11.51</ele>
      </trkpt>
      <trkpt lat="59.868933046236634" lon="30.327394008636475">
        <ele>11.74</ele>
      </trkpt>
      <trkpt lat="59.86892491579056" lon="30.326861087232828">
        <ele>11.87</ele>
      </trkpt>
      <trkpt lat="59.86891678534448" lon="30.326328249648213">
        <ele>12.09</ele>
      </trkpt>
      <trkpt lat="59.86890873871744" lon="30.3257954120636">
        <ele>12.26</ele>
      </trkpt>
      <trkpt lat="59.868900775909424" lon="30.32526969909668">
        <ele>12.5</ele>
      </trkpt>
      <trkpt lat="59.86898669041693" lon="30.32502293586731">
        <ele>12.81</ele>
      </trkpt>
      <trkpt lat="59.86897587776184" lon="30.324786901474">
        <ele>12.97</ele>
      </trkpt>
      <trkpt lat="59.86897596158087" lon="30.324786901474">
        <ele>13.17</ele>
      </trkpt>
      <trkpt lat="59.86897596158087" lon="30.324389934539795">
        <ele>13.33</ele>
      </trkpt>
      <trkpt lat="59.86896523274481" lon="30.324110984802246">
        <ele>13.5</ele>
      </trkpt>
      <trkpt lat="59.86896523274481" lon="30.323832035064697">
        <ele>13.66</ele>
      </trkpt>
      <trkpt lat="59.86896523274481" lon="30.32347798347473">
        <ele>13.88</ele>
      </trkpt>
      <trkpt lat="59.86895442008972" lon="30.323041956871748">
        <ele>14.03</ele>
      </trkpt>
      <trkpt lat="59.868943775072694" lon="30.322608947753906">
        <ele>14.16</ele>
      </trkpt>
      <trkpt lat="59.86894369125366" lon="30.322608947753906">
        <ele>14.19</ele>
      </trkpt>
      <trkpt lat="59.868943775072694" lon="30.322608947753906">
        <ele>14.13</ele>
      </trkpt>
      <trkpt lat="59.86895442008972" lon="30.323044890537858">
        <ele>13.99</ele>
      </trkpt>
      <trkpt lat="59.86896514892578" lon="30.32347798347473">
        <ele>13.82</ele>
      </trkpt>
      <trkpt lat="59.86879357136786" lon="30.32355308532715">
        <ele>13.63</ele>
      </trkpt>
      <trkpt lat="59.86861621029675" lon="30.32346708700061">
        <ele>13.42</ele>
      </trkpt>
      <trkpt lat="59.868439519777894" lon="30.323381423950195">
        <ele>13.19</ele>
      </trkpt>
      <trkpt lat="59.86843943595886" lon="30.323381423950195">
        <ele>13.06</ele>
      </trkpt>
      <trkpt lat="59.868149757385254" lon="30.3232741355896">
        <ele>12.88</ele>
      </trkpt>
      <trkpt lat="59.86806753091514" lon="30.32327899709344">
        <ele>12.81</ele>
      </trkpt>
      <trkpt lat="59.86778506077826" lon="30.32329559326172">
        <ele>12.79</ele>
      </trkpt>
      <trkpt lat="59.86750560812652" lon="30.32330632209778">
        <ele>12.89</ele>
      </trkpt>
      <trkpt lat="59.867226239293814" lon="30.323317050933838">
        <ele>12.91</ele>
      </trkpt>
      <trkpt lat="59.866948211565614" lon="30.323327779769897">
        <ele>12.81</ele>
      </trkpt>
      <trkpt lat="59.86694812774658" lon="30.323327779769897">
        <ele>12.74</ele>
      </trkpt>
      <trkpt lat="59.866905296221375" lon="30.323338508605957">
        <ele>12.65</ele>
      </trkpt>
      <trkpt lat="59.86670136451721" lon="30.32329559326172">
        <ele>12.53</ele>
      </trkpt>
      <trkpt lat="59.86660488881171" lon="30.323166847229004">
        <ele>12.39</ele>
      </trkpt>
      <trkpt lat="59.866604804992676" lon="30.323166847229004">
        <ele>12.26</ele>
      </trkpt>
      <trkpt lat="59.866411266848445" lon="30.323000214993954">
        <ele>12.05</ele>
      </trkpt>
      <trkpt lat="59.86621856689453" lon="30.322834253311157">
        <ele>11.8</ele>
      </trkpt>
      <trkpt lat="59.86605771817267" lon="30.322844982147217">
        <ele>11.65</ele>
      </trkpt>
      <trkpt lat="59.86600407399237" lon="30.322844982147217">
        <ele>11.53</ele>
      </trkpt>
      <trkpt lat="59.86600399017334" lon="30.322844982147217">
        <ele>11.4</ele>
      </trkpt>
      <trkpt lat="59.865886056795716" lon="30.322920083999634">
        <ele>11.33</ele>
      </trkpt>
      <trkpt lat="59.8658109549433" lon="30.32300591468811">
        <ele>11.21</ele>
      </trkpt>
      <trkpt lat="59.86581087112427" lon="30.32300591468811">
        <ele>11.13</ele>
      </trkpt>
      <trkpt lat="59.86571975983679" lon="30.323169864714146">
        <ele>11.03</ele>
      </trkpt>
      <trkpt lat="59.865596294403076" lon="30.323392152786255">
        <ele>10.91</ele>
      </trkpt>
      <trkpt lat="59.86552119255066" lon="30.323606729507446">
        <ele>10.85</ele>
      </trkpt>
      <trkpt lat="59.86548900604248" lon="30.323928594589233">
        <ele>10.9</ele>
      </trkpt>
      <trkpt lat="59.86548908986151" lon="30.323928594589233">
        <ele>10.94</ele>
      </trkpt>
      <trkpt lat="59.86549981869757" lon="30.324432849884033">
        <ele>11.11</ele>
      </trkpt>
      <trkpt lat="59.86558556556702" lon="30.32496929168701">
        <ele>11.2</ele>
      </trkpt>
      <trkpt lat="59.86558564938605" lon="30.32496929168701">
        <ele>11.29</ele>
      </trkpt>
      <trkpt lat="59.86559637822211" lon="30.325162410736084">
        <ele>11.35</ele>
      </trkpt>
      <trkpt lat="59.865607023239136" lon="30.32528042793274">
        <ele>11.48</ele>
      </trkpt>
      <trkpt lat="59.86560710705817" lon="30.32528042793274">
        <ele>11.92</ele>
      </trkpt>
      <trkpt lat="59.86549981869757" lon="30.3252911567688">
        <ele>12.11</ele>
      </trkpt>
      <trkpt lat="59.86547827720642" lon="30.325387716293335">
        <ele>12.28</ele>
      </trkpt>
      <trkpt lat="59.86518859863281" lon="30.32550573348999">
        <ele>12.51</ele>
      </trkpt>
      <trkpt lat="59.865156412124634" lon="30.32553791999817">
        <ele>12.66</ele>
      </trkpt>
      <trkpt lat="59.86499154008925" lon="30.32571444287896">
        <ele>12.85</ele>
      </trkpt>
      <trkpt lat="59.86482742242515" lon="30.325890379026532">
        <ele>12.94</ele>
      </trkpt>
      <trkpt lat="59.86470588482916" lon="30.32602071762085">
        <ele>13.05</ele>
      </trkpt>
      <trkpt lat="59.864652240648866" lon="30.326149463653564">
        <ele>13.07</ele>
      </trkpt>
      <trkpt lat="59.8646557610482" lon="30.32677022740245">
        <ele>13.04</ele>
      </trkpt>
      <trkpt lat="59.86465936526656" lon="30.327390991151333">
        <ele>12.98</ele>
      </trkpt>
      <trkpt lat="59.864662969484925" lon="30.32800555229187">
        <ele>12.91</ele>
      </trkpt>
      <trkpt lat="59.86467101611197" lon="30.328611060976982">
        <ele>12.74</ele>
      </trkpt>
      <trkpt lat="59.864679062739015" lon="30.329216569662094">
        <ele>12.51</ele>
      </trkpt>
      <trkpt lat="59.86468719318509" lon="30.329822078347206">
        <ele>12.5</ele>
      </trkpt>
      <trkpt lat="59.864695155993104" lon="30.330419540405273">
        <ele>12.37</ele>
      </trkpt>
      <trkpt lat="59.86469507217407" lon="30.330419540405273">
        <ele>12.23</ele>
      </trkpt>
      <trkpt lat="59.864695155993104" lon="30.330559015274048">
        <ele>12.1</ele>
      </trkpt>
      <trkpt lat="59.86470588482916" lon="30.330805778503418">
        <ele>11.92</ele>
      </trkpt>
      <trkpt lat="59.86470588482916" lon="30.331138372421265">
        <ele>11.74</ele>
      </trkpt>
      <trkpt lat="59.86471124924719" lon="30.33164966851473">
        <ele>11.59</ele>
      </trkpt>
      <trkpt lat="59.86471661366522" lon="30.332157611846924">
        <ele>11.45</ele>
      </trkpt>
      <trkpt lat="59.86471652984619" lon="30.332157611846924">
        <ele>11.31</ele>
      </trkpt>
      <trkpt lat="59.86472734250128" lon="30.33254384994507">
        <ele>11.12</ele>
      </trkpt>
      <trkpt lat="59.86472725868225" lon="30.33254384994507">
        <ele>10.98</ele>
      </trkpt>
      <trkpt lat="59.864730862900615" lon="30.332970824092627">
        <ele>10.75</ele>
      </trkpt>
      <trkpt lat="59.86473446711898" lon="30.333397798240185">
        <ele>10.66</ele>
      </trkpt>
      <trkpt lat="59.86473807133734" lon="30.333820581436157">
        <ele>10.61</ele>
      </trkpt>
      <trkpt lat="59.86473807133734" lon="30.334045886993408">
        <ele>10.47</ele>
      </trkpt>
      <trkpt lat="59.8647488001734" lon="30.3342604637146">
        <ele>10.38</ele>
      </trkpt>
      <trkpt lat="59.864752320572734" lon="30.33473404124379">
        <ele>10.25</ele>
      </trkpt>
      <trkpt lat="59.8647559247911" lon="30.335207702592015">
        <ele>10.05</ele>
      </trkpt>
      <trkpt lat="59.86475952900946" lon="30.335676670074463">
        <ele>9.66</ele>
      </trkpt>
      <trkpt lat="59.86475952900946" lon="30.335848331451416">
        <ele>9.37</ele>
      </trkpt>
      <trkpt lat="59.86477025784552" lon="30.336073637008667">
        <ele>9.07</ele>
      </trkpt>
      <trkpt lat="59.86477017402649" lon="30.336073637008667">
        <ele>8.83</ele>
      </trkpt>
      <trkpt lat="59.86477017402649" lon="30.33628821372986">
        <ele>8.55</ele>
      </trkpt>
      <trkpt lat="59.86477889120579" lon="30.33628678880632">
        <ele>8.34</ele>
      </trkpt>
      <trkpt lat="59.86483463086188" lon="30.3362774848938">
        <ele>7.99</ele>
      </trkpt>
      <trkpt lat="59.86498475074768" lon="30.3362774848938">
        <ele>7.77</ele>
      </trkpt>
      <trkpt lat="59.865196058526635" lon="30.336277401074767">
        <ele>7.56</ele>
      </trkpt>
      <trkpt lat="59.86540745012462" lon="30.336277401074767">
        <ele>7.49</ele>
      </trkpt>
      <trkpt lat="59.86561783589423" lon="30.3362774848938">
        <ele>7.65</ele>
      </trkpt>
      <trkpt lat="59.865617752075195" lon="30.3362774848938">
        <ele>7.65</ele>
      </trkpt>
      <trkpt lat="59.8658971209079" lon="30.33625954762101">
        <ele>7.85</ele>
      </trkpt>
      <trkpt lat="59.86617657355964" lon="30.336241610348225">
        <ele>7.93</ele>
      </trkpt>
      <trkpt lat="59.86645468510687" lon="30.3362238407135">
        <ele>7.99</ele>
      </trkpt>
      <trkpt lat="59.86672868952155" lon="30.33620766364038">
        <ele>8.01</ele>
      </trkpt>
      <trkpt lat="59.86700269393623" lon="30.33619157038629">
        <ele>8.16</ele>
      </trkpt>
      <trkpt lat="59.86727678216994" lon="30.3361754771322">
        <ele>8.2</ele>
      </trkpt>
      <trkpt lat="59.867550786584616" lon="30.33615930005908">
        <ele>8.29</ele>
      </trkpt>
      <trkpt lat="59.86782479099929" lon="30.33614320680499">
        <ele>8.43</ele>
      </trkpt>
      <trkpt lat="59.86809619702399" lon="30.336127281188965">
        <ele>8.53</ele>
      </trkpt>
      <trkpt lat="59.86820348538458" lon="30.336116552352905">
        <ele>8.73</ele>
      </trkpt>
      <trkpt lat="59.86848285421729" lon="30.336098615080118">
        <ele>9.07</ele>
      </trkpt>
      <trkpt lat="59.86876230686903" lon="30.33608067780733">
        <ele>9.5</ele>
      </trkpt>
      <trkpt lat="59.86904033459723" lon="30.336062908172607">
        <ele>9.96</ele>
      </trkpt>
      <trkpt lat="59.869147622957826" lon="30.336062908172607">
        <ele>10.23</ele>
      </trkpt>
      <trkpt lat="59.86925491131842" lon="30.336052179336548">
        <ele>10.49</ele>
      </trkpt>
      <trkpt lat="59.869437301531434" lon="30.33604145050049">
        <ele>10.76</ele>
      </trkpt>
      <trkpt lat="59.86968440003693" lon="30.336027117446065">
        <ele>11.0</ele>
      </trkpt>
      <trkpt lat="59.86993158236146" lon="30.33601278439164">
        <ele>11.21</ele>
      </trkpt>
      <trkpt lat="59.870177591219544" lon="30.33599853515625">
        <ele>11.43</ele>
      </trkpt>
      <trkpt lat="59.87044623121619" lon="30.3359769936651">
        <ele>11.62</ele>
      </trkpt>
      <trkpt lat="59.87071487121284" lon="30.33595553599298">
        <ele>11.69</ele>
      </trkpt>
      <trkpt lat="59.87098225392401" lon="30.335934162139893">
        <ele>11.78</ele>
      </trkpt>
      <trkpt lat="59.87098217010498" lon="30.335934162139893">
        <ele>11.96</ele>
      </trkpt>
      <trkpt lat="59.871204290539026" lon="30.33591982908547">
        <ele>12.19</ele>
      </trkpt>
      <trkpt lat="59.87142641097307" lon="30.335905496031046">
        <ele>12.43</ele>
      </trkpt>
      <trkpt lat="59.871647441759706" lon="30.335891246795654">
        <ele>12.69</ele>
      </trkpt>
      <trkpt lat="59.87178691662848" lon="30.335891246795654">
        <ele>12.93</ele>
      </trkpt>
      <trkpt lat="59.87178683280945" lon="30.335891246795654">
        <ele>13.11</ele>
      </trkpt>
      <trkpt lat="59.87178691662848" lon="30.335891246795654">
        <ele>13.62</ele>
      </trkpt>
      <trkpt lat="59.87178146839142" lon="30.33543367870152">
        <ele>13.91</ele>
      </trkpt>
      <trkpt lat="59.87177618779242" lon="30.33497929573059">
        <ele>14.12</ele>
      </trkpt>
      <trkpt lat="59.87177073955536" lon="30.33465634100139">
        <ele>14.27</ele>
      </trkpt>
      <trkpt lat="59.87176545895636" lon="30.334335565567017">
        <ele>14.34</ele>
      </trkpt>
      <trkpt lat="59.87175464630127" lon="30.333750676363707">
        <ele>14.42</ele>
      </trkpt>
      <trkpt lat="59.87174391746521" lon="30.333165787160397">
        <ele>14.54</ele>
      </trkpt>
      <trkpt lat="59.87173327244818" lon="30.332586765289307">
        <ele>14.71</ele>
      </trkpt>
      <trkpt lat="59.87173327244818" lon="30.33251166343689">
        <ele>14.92</ele>
      </trkpt>
      <trkpt lat="59.87172782421112" lon="30.332000283524394">
        <ele>15.15</ele>
      </trkpt>
      <trkpt lat="59.87172254361212" lon="30.33149242401123">
        <ele>15.53</ele>
      </trkpt>
      <trkpt lat="59.871713910251856" lon="30.33093041740358">
        <ele>16.01</ele>
      </trkpt>
      <trkpt lat="59.87170527689159" lon="30.33036849461496">
        <ele>16.56</ele>
      </trkpt>
      <trkpt lat="59.87169664353132" lon="30.32980657182634">
        <ele>17.0</ele>
      </trkpt>
      <trkpt lat="59.87168809399009" lon="30.32924464903772">
        <ele>17.15</ele>
      </trkpt>
      <trkpt lat="59.871679628267884" lon="30.328692197799683">
        <ele>17.15</ele>
      </trkpt>
      <trkpt lat="59.871679628267884" lon="30.328638553619385">
        <ele>17.33</ele>
      </trkpt>
      <trkpt lat="59.871679628267884" lon="30.328574180603027">
        <ele>17.49</ele>
      </trkpt>
      <trkpt lat="59.87167241983116" lon="30.327969510108232">
        <ele>17.72</ele>
      </trkpt>
      <trkpt lat="59.87166521139443" lon="30.32736492343247">
        <ele>17.82</ele>
      </trkpt>
      <trkpt lat="59.87165808677673" lon="30.326760252937675">
        <ele>17.93</ele>
      </trkpt>
      <trkpt lat="59.871650878340006" lon="30.32615566626191">
        <ele>18.02</ele>
      </trkpt>
      <trkpt lat="59.87164375372231" lon="30.325550995767117">
        <ele>18.02</ele>
      </trkpt>
      <trkpt lat="59.871636712923646" lon="30.324958562850952">
        <ele>17.91</ele>
      </trkpt>
      <trkpt lat="59.871636712923646" lon="30.324904918670654">
        <ele>17.9</ele>
      </trkpt>
      <trkpt lat="59.871625984087586" lon="30.324625968933105">
        <ele>17.85</ele>
      </trkpt>
      <trkpt lat="59.871625984087586" lon="30.32404661178589">
        <ele>17.94</ele>
      </trkpt>
      <trkpt lat="59.87161525525153" lon="30.323475636541843">
        <ele>17.97</ele>
      </trkpt>
      <trkpt lat="59.87160452641547" lon="30.322904661297798">
        <ele>17.84</ele>
      </trkpt>
      <trkpt lat="59.87159388139844" lon="30.322333769872785">
        <ele>17.54</ele>
      </trkpt>
      <trkpt lat="59.87158332020044" lon="30.321770505979657">
        <ele>17.26</ele>
      </trkpt>
      <trkpt lat="59.871582984924316" lon="30.32175064086914">
        <ele>16.81</ele>
      </trkpt>
      <trkpt lat="59.87152934074402" lon="30.321611166000366">
        <ele>16.51</ele>
      </trkpt>
      <trkpt lat="59.871389949694276" lon="30.321428775787354">
        <ele>16.17</ele>
      </trkpt>
      <trkpt lat="59.871389865875244" lon="30.321428775787354">
        <ele>15.94</ele>
      </trkpt>
      <trkpt lat="59.871368408203125" lon="30.3212571144104">
        <ele>15.68</ele>
      </trkpt>
      <trkpt lat="59.87112105824053" lon="30.321637066081166">
        <ele>15.13</ele>
      </trkpt>
      <trkpt lat="59.87087379209697" lon="30.322017017751932">
        <ele>15.1</ele>
      </trkpt>
      <trkpt lat="59.870628202334046" lon="30.322394371032715">
        <ele>14.93</ele>
      </trkpt>
      <trkpt lat="59.870628118515015" lon="30.322394371032715">
        <ele>14.86</ele>
      </trkpt>
      <trkpt lat="59.87061747349799" lon="30.322415828704834">
        <ele>14.8</ele>
      </trkpt>
      <trkpt lat="59.87053155899048" lon="30.32254457473755">
        <ele>14.71</ele>
      </trkpt>
      <trkpt lat="59.870359897613525" lon="30.322694778442383">
        <ele>14.63</ele>
      </trkpt>
      <trkpt lat="59.87018823623657" lon="30.322405099868774">
        <ele>14.61</ele>
      </trkpt>
      <trkpt lat="59.86998438835144" lon="30.32230854034424">
        <ele>14.63</ele>
      </trkpt>
      <trkpt lat="59.86981775611639" lon="30.322437454015017">
        <ele>14.62</ele>
      </trkpt>
      <trkpt lat="59.869651878252625" lon="30.322566032409668">
        <ele>14.67</ele>
      </trkpt>
      <trkpt lat="59.86953352577984" lon="30.32278111204505">
        <ele>14.59</ele>
      </trkpt>
      <trkpt lat="59.869415843859315" lon="30.32299518585205">
        <ele>14.49</ele>
      </trkpt>
      <trkpt lat="59.86931928433478" lon="30.323327779769897">
        <ele>14.32</ele>
      </trkpt>
      <trkpt lat="59.86912616528571" lon="30.323563814163208">
        <ele>14.14</ele>
      </trkpt>
      <trkpt lat="59.869126081466675" lon="30.323563814163208">
        <ele>14.02</ele>
      </trkpt>
      <trkpt lat="59.86912616528571" lon="30.323563814163208">
        <ele>13.74</ele>
      </trkpt>
      <trkpt lat="59.86896523274481" lon="30.32347798347473">
        <ele>13.64</ele>
      </trkpt>
      <trkpt lat="59.86896523274481" lon="30.323832035064697">
        <ele>13.39</ele>
      </trkpt>
      <trkpt lat="59.86896523274481" lon="30.324110984802246">
        <ele>13.22</ele>
      </trkpt>
      <trkpt lat="59.86897596158087" lon="30.324389934539795">
        <ele>13.05</ele>
      </trkpt>
      <trkpt lat="59.86897587776184" lon="30.324705094099045">
        <ele>12.88</ele>
      </trkpt>
      <trkpt lat="59.86897596158087" lon="30.324786901474">
        <ele>12.56</ele>
      </trkpt>
      <trkpt lat="59.86897587776184" lon="30.324786901474">
        <ele>12.39</ele>
      </trkpt>
      <trkpt lat="59.8689866065979" lon="30.32502293586731">
        <ele>12.26</ele>
      </trkpt>
      <trkpt lat="59.86907252110541" lon="30.32525897026062">
        <ele>12.06</ele>
      </trkpt>
      <trkpt lat="59.869079645723104" lon="30.325733218342066">
        <ele>11.83</ele>
      </trkpt>
      <trkpt lat="59.86908685415983" lon="30.326207550242543">
        <ele>11.66</ele>
      </trkpt>
      <trkpt lat="59.86909397877753" lon="30.32668188214302">
        <ele>11.48</ele>
      </trkpt>
      <trkpt lat="59.869101103395224" lon="30.32714992761612">
        <ele>11.41</ele>
      </trkpt>
      <trkpt lat="59.869101103395224" lon="30.32715001143515">
        <ele>11.36</ele>
      </trkpt>
      <trkpt lat="59.86910470761359" lon="30.327383279800415">
        <ele>11.34</ele>
      </trkpt>
      <trkpt lat="59.86901887692511" lon="30.32751202583313">
        <ele>11.35</ele>
      </trkpt>
      <trkpt lat="59.86902960576117" lon="30.327985603362322">
        <ele>11.46</ele>
      </trkpt>
      <trkpt lat="59.86904033459723" lon="30.328456163406372">
        <ele>11.52</ele>
      </trkpt>
      <trkpt lat="59.86892223358154" lon="30.328456163406372">
        <ele>11.63</ele>
      </trkpt>
      <trkpt lat="59.868922317400575" lon="30.32874584197998">
        <ele>11.71</ele>
      </trkpt>
      <trkpt lat="59.868933046236634" lon="30.32900333404541">
        <ele>11.85</ele>
      </trkpt>
      <trkpt lat="59.8689329624176" lon="30.32900333404541">
        <ele>12.02</ele>
      </trkpt>
      <trkpt lat="59.869014183059335" lon="30.32899595797062">
        <ele>12.2</ele>
      </trkpt>
      <trkpt lat="59.86905097961426" lon="30.32899260520935">
        <ele>12.62</ele>
      </trkpt>
      <trkpt lat="59.86905634403229" lon="30.329503901302814">
        <ele>12.89</ele>
      </trkpt>
      <trkpt lat="59.86906179226935" lon="30.33001184463501">
        <ele>13.23</ele>
      </trkpt>
      <trkpt lat="59.86906715668738" lon="30.33037779852748">
        <ele>13.5</ele>
      </trkpt>
      <trkpt lat="59.86907252110541" lon="30.33074140548706">
        <ele>13.78</ele>
      </trkpt>
      <trkpt lat="59.86907243728638" lon="30.330859422683716">
        <ele>13.9</ele>
      </trkpt>
      <trkpt lat="59.86907252110541" lon="30.331149101257324">
        <ele>13.95</ele>
      </trkpt>
      <trkpt lat="59.86907252110541" lon="30.331320762634277">
        <ele>13.94</ele>
      </trkpt>
      <trkpt lat="59.86907998099923" lon="30.331792663782835">
        <ele>13.81</ele>
      </trkpt>
      <trkpt lat="59.869087524712086" lon="30.332264564931393">
        <ele>13.6</ele>
      </trkpt>
      <trkpt lat="59.86909498460591" lon="30.33273646607995">
        <ele>13.35</ele>
      </trkpt>
      <trkpt lat="59.86910244449973" lon="30.33320208080113">
        <ele>13.05</ele>
      </trkpt>
      <trkpt lat="59.86910244449973" lon="30.333201996982098">
        <ele>12.91</ele>
      </trkpt>
      <trkpt lat="59.869104623794556" lon="30.333337783813477">
        <ele>12.71</ele>
      </trkpt>
      <trkpt lat="59.86894369125366" lon="30.333337783813477">
        <ele>12.51</ele>
      </trkpt>
      <trkpt lat="59.868879402056336" lon="30.333337783813477">
        <ele>12.44</ele>
      </trkpt>
      <trkpt lat="59.868691228330135" lon="30.333316242322326">
        <ele>12.43</ele>
      </trkpt>
      <trkpt lat="59.86850380897522" lon="30.33329486846924">
        <ele>12.35</ele>
      </trkpt>
      <trkpt lat="59.86830490641296" lon="30.3331605065614">
        <ele>12.26</ele>
      </trkpt>
      <trkpt lat="59.868106842041016" lon="30.33302664756775">
        <ele>12.16</ele>
      </trkpt>
      <trkpt lat="59.86787089146674" lon="30.33301591873169">
        <ele>12.06</ele>
      </trkpt>
      <trkpt lat="59.86769914627075" lon="30.333123207092285">
        <ele>12.03</ele>
      </trkpt>
      <trkpt lat="59.867699230089784" lon="30.333123207092285">
        <ele>11.5</ele>
      </trkpt>
      <trkpt lat="59.86768841743469" lon="30.332636050879955">
        <ele>11.28</ele>
      </trkpt>
      <trkpt lat="59.8676776047796" lon="30.332148978486657">
        <ele>10.97</ele>
      </trkpt>
      <trkpt lat="59.86766687594354" lon="30.331661822274327">
        <ele>10.68</ele>
      </trkpt>
      <trkpt lat="59.867656230926514" lon="30.331181287765503">
        <ele>10.32</ele>
      </trkpt>
      <trkpt lat="59.867656314745545" lon="30.331181287765503">
        <ele>10.06</ele>
      </trkpt>
      <trkpt lat="59.86753821372986" lon="30.331052541732788">
        <ele>9.78</ele>
      </trkpt>
      <trkpt lat="59.86730217933655" lon="30.330805778503418">
        <ele>9.37</ele>
      </trkpt>
      <trkpt lat="59.86722707748413" lon="30.33077359199524">
        <ele>9.17</ele>
      </trkpt>
      <trkpt lat="59.86721634864807" lon="30.3307843208313">
        <ele>9.06</ele>
      </trkpt>
      <trkpt lat="59.867098331451416" lon="30.330827236175537">
        <ele>8.98</ele>
      </trkpt>
      <trkpt lat="59.867087602615356" lon="30.330837965011597">
        <ele>8.98</ele>
      </trkpt>
      <trkpt lat="59.86696966923773" lon="30.330870151519775">
        <ele>9.1</ele>
      </trkpt>
      <trkpt lat="59.86680865287781" lon="30.33098816871643">
        <ele>9.37</ele>
      </trkpt>
      <trkpt lat="59.86680328845978" lon="30.330396071076393">
        <ele>10.13</ele>
      </trkpt>
      <trkpt lat="59.86679800786078" lon="30.329807996749878">
        <ele>10.51</ele>
      </trkpt>
      <trkpt lat="59.86679792404175" lon="30.329219503328204">
        <ele>10.87</ele>
      </trkpt>
      <trkpt lat="59.86679792404175" lon="30.32863100990653">
        <ele>11.09</ele>
      </trkpt>
      <trkpt lat="59.86679792404175" lon="30.328042516484857">
        <ele>11.38</ele>
      </trkpt>
      <trkpt lat="59.86679792404175" lon="30.327454023063183">
        <ele>11.84</ele>
      </trkpt>
      <trkpt lat="59.86679792404175" lon="30.32686561346054">
        <ele>12.18</ele>
      </trkpt>
      <trkpt lat="59.86679792404175" lon="30.32628893852234">
        <ele>12.37</ele>
      </trkpt>
      <trkpt lat="59.86679792404175" lon="30.32625675201416">
        <ele>12.55</ele>
      </trkpt>
      <trkpt lat="59.86678719520569" lon="30.32598853111267">
        <ele>12.64</ele>
      </trkpt>
      <trkpt lat="59.86678719520569" lon="30.32596707344055">
        <ele>12.77</ele>
      </trkpt>
      <trkpt lat="59.86679113470018" lon="30.325841596350074">
        <ele>12.84</ele>
      </trkpt>
      <trkpt lat="59.86679113470018" lon="30.325841512531042">
        <ele>12.93</ele>
      </trkpt>
      <trkpt lat="59.86679792404175" lon="30.325623750686646">
        <ele>12.99</ele>
      </trkpt>
      <trkpt lat="59.86698039807379" lon="30.325613021850586">
        <ele>13.08</ele>
      </trkpt>
      <trkpt lat="59.86702331341803" lon="30.32572031021118">
        <ele>13.1</ele>
      </trkpt>
      <trkpt lat="59.867119789123535" lon="30.32600998878479">
        <ele>13.07</ele>
      </trkpt>
      <trkpt lat="59.867356326431036" lon="30.32635943032801">
        <ele>13.05</ele>
      </trkpt>
      <trkpt lat="59.86759194172919" lon="30.326707363128662">
        <ele>13.01</ele>
      </trkpt>
      <trkpt lat="59.86774248071015" lon="30.327029982581735">
        <ele>12.89</ele>
      </trkpt>
      <trkpt lat="59.86789301969111" lon="30.32735268585384">
        <ele>12.71</ele>
      </trkpt>
      <trkpt lat="59.86804246902466" lon="30.327672958374023">
        <ele>12.6</ele>
      </trkpt>
      <trkpt lat="59.86819803714752" lon="30.327848810702562">
        <ele>12.5</ele>
      </trkpt>
      <trkpt lat="59.86828923225403" lon="30.327951908111572">
        <ele>12.31</ele>
      </trkpt>
      <trkpt lat="59.8684823513031" lon="30.327919721603394">
        <ele>12.25</ele>
      </trkpt>
      <trkpt lat="59.86854672431946" lon="30.32778024673462">
        <ele>12.09</ele>
      </trkpt>
      <trkpt lat="59.86854680813849" lon="30.32778024673462">
        <ele>11.96</ele>
      </trkpt>
      <trkpt lat="59.868654012680054" lon="30.327415466308594">
        <ele>11.78</ele>
      </trkpt>
      <trkpt lat="59.868933046236634" lon="30.327394008636475">
        <ele>11.56</ele>
      </trkpt>
      <trkpt lat="59.86893036402762" lon="30.327223604544997">
        <ele>11.56</ele>
      </trkpt>
      <trkpt lat="59.86893036402762" lon="30.327223520725965">
        <ele>11.61</ele>
      </trkpt>
      <trkpt lat="59.8689229041338" lon="30.326733347028494">
        <ele>11.71</ele>
      </trkpt>
      <trkpt lat="59.868915444239974" lon="30.326243257150054">
        <ele>11.91</ele>
      </trkpt>
      <trkpt lat="59.86890806816518" lon="30.325753167271614">
        <ele>12.06</ele>
      </trkpt>
      <trkpt lat="59.868900775909424" lon="30.32526969909668">
        <ele>12.3</ele>
      </trkpt>
      <trkpt lat="59.86898669041693" lon="30.32502293586731">
        <ele>12.57</ele>
      </trkpt>
      <trkpt lat="59.8689866065979" lon="30.32502293586731">
        <ele>12.66</ele>
      </trkpt>
      <trkpt lat="59.86898669041693" lon="30.32502293586731">
        <ele>12.79</ele>
      </trkpt>
      <trkpt lat="59.86897587776184" lon="30.324786901474">
        <ele>12.8</ele>
      </trkpt>
      <trkpt lat="59.86897596158087" lon="30.324786901474">
        <ele>12.88</ele>
      </trkpt>
      <trkpt lat="59.86897596158087" lon="30.324389934539795">
        <ele>12.96</ele>
      </trkpt>
      <trkpt lat="59.86896523274481" lon="30.324110984802246">
        <ele>13.16</ele>
      </trkpt>
      <trkpt lat="59.86896523274481" lon="30.323832035064697">
        <ele>13.45</ele>
      </trkpt>
      <trkpt lat="59.86896523274481" lon="30.32347798347473">
        <ele>13.92</ele>
      </trkpt>
      <trkpt lat="59.86895341426134" lon="30.32300289720297">
        <ele>14.27</ele>
      </trkpt>
    </trkseg>
  </trk>
</gpx>
