<?xml version="1.0" encoding="UTF-8"?>
<gpx creator="Garmin Connect" version="1.1"
  xsi:schemaLocation="http://www.topografix.com/GPX/1/1 http://www.topografix.com/GPX/11.xsd"
  xmlns:ns3="http://www.garmin.com/xmlschemas/TrackPointExtension/v1"
  xmlns="http://www.topografix.com/GPX/1/1"
  xmlns:xsi="http://www.w3.org/2001/XMLSchema-instance" xmlns:ns2="http://www.garmin.com/xmlschemas/GpxExtensions/v3">
  <metadata>
    <name>Московский парк Победы
Московский район (м. Парк Победы)Бег 5 км</name>
    <link href="connect.garmin.com">
      <text>Garmin Connect</text>
    </link>
    <time>2026-09-25T15:48:17.000Z</time>
  </metadata>
  <trk>
    <name>Московский парк Победы
Московский район (м. Парк Победы)Бег 5 км</name>
    <trkseg>
      <trkpt lat="59.86882567405701" lon="30.322179794311523">
        <ele>15.46</ele>
      </trkpt>
      <trkpt lat="59.86873984336853" lon="30.322169065475464">
        <ele>15.3</ele>
      </trkpt>
      <trkpt lat="59.868621826171875" lon="30.322158336639404">
        <ele>15.13</ele>
      </trkpt>
      <trkpt lat="59.86862190999091" lon="30.322158336639404">
        <ele>15.01</ele>
      </trkpt>
      <trkpt lat="59.86838009208441" lon="30.322185158729553">
        <ele>14.83</ele>
      </trkpt>
      <trkpt lat="59.868139112368226" lon="30.322211980819702">
        <ele>14.83</ele>
      </trkpt>
      <trkpt lat="59.867961751297116" lon="30.32222270965576">
        <ele>14.95</ele>
      </trkpt>
      <trkpt lat="59.86778506077826" lon="30.32223343849182">
        <ele>15.02</ele>
      </trkpt>
      <trkpt lat="59.86758121289313" lon="30.32224416732788">
        <ele>15.03</ele>
      </trkpt>
      <trkpt lat="59.867431009188294" lon="30.32225489616394">
        <ele>14.81</ele>
      </trkpt>
      <trkpt lat="59.86722707748413" lon="30.322265625">
        <ele>14.44</ele>
      </trkpt>
      <trkpt lat="59.86722716130316" lon="30.322265625">
        <ele>14.18</ele>
      </trkpt>
      <trkpt lat="59.86706052906811" lon="30.32227635383606">
        <ele>13.73</ele>
      </trkpt>
      <trkpt lat="59.866894483566284" lon="30.32228708267212">
        <ele>13.44</ele>
      </trkpt>
      <trkpt lat="59.866894483566284" lon="30.322587490081787">
        <ele>12.94</ele>
      </trkpt>
      <trkpt lat="59.866899847984314" lon="30.322964256629348">
        <ele>13.01</ele>
      </trkpt>
      <trkpt lat="59.866905296221375" lon="30.323338508605957">
        <ele>13.05</ele>
      </trkpt>
      <trkpt lat="59.866905212402344" lon="30.323338508605957">
        <ele>13.09</ele>
      </trkpt>
      <trkpt lat="59.866916025057435" lon="30.323939323425293">
        <ele>13.09</ele>
      </trkpt>
      <trkpt lat="59.86692130565643" lon="30.324348360300064">
        <ele>12.99</ele>
      </trkpt>
      <trkpt lat="59.86692667007446" lon="30.32475471496582">
        <ele>12.96</ele>
      </trkpt>
      <trkpt lat="59.8669695854187" lon="30.32474398612976">
        <ele>12.94</ele>
      </trkpt>
      <trkpt lat="59.86698039807379" lon="30.325344800949097">
        <ele>12.99</ele>
      </trkpt>
      <trkpt lat="59.86698039807379" lon="30.325613021850586">
        <ele>13.01</ele>
      </trkpt>
      <trkpt lat="59.86698031425476" lon="30.325613021850586">
        <ele>13.02</ele>
      </trkpt>
      <trkpt lat="59.86698039807379" lon="30.325613021850586">
        <ele>13.0</ele>
      </trkpt>
      <trkpt lat="59.86702331341803" lon="30.32572031021118">
        <ele>12.99</ele>
      </trkpt>
      <trkpt lat="59.867119789123535" lon="30.32600998878479">
        <ele>12.94</ele>
      </trkpt>
      <trkpt lat="59.867141246795654" lon="30.32623529434204">
        <ele>12.93</ele>
      </trkpt>
      <trkpt lat="59.86728826537728" lon="30.32659387215972">
        <ele>12.92</ele>
      </trkpt>
      <trkpt lat="59.86743528395891" lon="30.326952449977398">
        <ele>12.88</ele>
      </trkpt>
      <trkpt lat="59.86758121289313" lon="30.327308177947998">
        <ele>12.72</ele>
      </trkpt>
      <trkpt lat="59.8675811290741" lon="30.327308177947998">
        <ele>12.58</ele>
      </trkpt>
      <trkpt lat="59.86758515238762" lon="30.32749584876001">
        <ele>12.39</ele>
      </trkpt>
      <trkpt lat="59.86759454011917" lon="30.327935395762324">
        <ele>11.83</ele>
      </trkpt>
      <trkpt lat="59.867604011669755" lon="30.32837502658367">
        <ele>11.46</ele>
      </trkpt>
      <trkpt lat="59.86761339940131" lon="30.328810214996338">
        <ele>11.16</ele>
      </trkpt>
      <trkpt lat="59.86761876381934" lon="30.32927306368947">
        <ele>11.0</ele>
      </trkpt>
      <trkpt lat="59.86762412823737" lon="30.32973289489746">
        <ele>10.91</ele>
      </trkpt>
      <trkpt lat="59.867634857073426" lon="30.330217285081744">
        <ele>10.98</ele>
      </trkpt>
      <trkpt lat="59.867645585909486" lon="30.330701675266027">
        <ele>11.0</ele>
      </trkpt>
      <trkpt lat="59.867656314745545" lon="30.331181287765503">
        <ele>11.03</ele>
      </trkpt>
      <trkpt lat="59.867656230926514" lon="30.331181287765503">
        <ele>11.05</ele>
      </trkpt>
      <trkpt lat="59.86766695976257" lon="30.3316683601588">
        <ele>11.16</ele>
      </trkpt>
      <trkpt lat="59.867677772417665" lon="30.3321554325521">
        <ele>11.21</ele>
      </trkpt>
      <trkpt lat="59.867688585072756" lon="30.33264258876443">
        <ele>11.29</ele>
      </trkpt>
      <trkpt lat="59.867699230089784" lon="30.333123207092285">
        <ele>11.27</ele>
      </trkpt>
      <trkpt lat="59.86769914627075" lon="30.333123207092285">
        <ele>11.24</ele>
      </trkpt>
      <trkpt lat="59.867699230089784" lon="30.333198308944702">
        <ele>11.19</ele>
      </trkpt>
      <trkpt lat="59.86770995892584" lon="30.333573818206787">
        <ele>11.02</ele>
      </trkpt>
      <trkpt lat="59.86770987510681" lon="30.333573818206787">
        <ele>10.92</ele>
      </trkpt>
      <trkpt lat="59.86787642352283" lon="30.333718908950686">
        <ele>10.64</ele>
      </trkpt>
      <trkpt lat="59.86804246902466" lon="30.333863496780396">
        <ele>10.4</ele>
      </trkpt>
      <trkpt lat="59.868117570877075" lon="30.333884954452515">
        <ele>10.27</ele>
      </trkpt>
      <trkpt lat="59.86820348538458" lon="30.333917140960693">
        <ele>10.18</ele>
      </trkpt>
      <trkpt lat="59.86839157529175" lon="30.334218218922615">
        <ele>10.09</ele>
      </trkpt>
      <trkpt lat="59.86857891082764" lon="30.33451795578003">
        <ele>10.1</ele>
      </trkpt>
      <trkpt lat="59.86869717948139" lon="30.33472758717835">
        <ele>10.14</ele>
      </trkpt>
      <trkpt lat="59.86881494522095" lon="30.334936380386353">
        <ele>10.2</ele>
      </trkpt>
      <trkpt lat="59.8689866065979" lon="30.334981558844447">
        <ele>10.3</ele>
      </trkpt>
      <trkpt lat="59.86901879310608" lon="30.33499002456665">
        <ele>10.27</ele>
      </trkpt>
      <trkpt lat="59.869126081466675" lon="30.33497929573059">
        <ele>10.3</ele>
      </trkpt>
      <trkpt lat="59.86924418248236" lon="30.33496856689453">
        <ele>10.3</ele>
      </trkpt>
      <trkpt lat="59.86954458989203" lon="30.334839820861816">
        <ele>10.16</ele>
      </trkpt>
      <trkpt lat="59.869544506073" lon="30.334839820861816">
        <ele>10.01</ele>
      </trkpt>
      <trkpt lat="59.86981272697449" lon="30.33452868461609">
        <ele>9.55</ele>
      </trkpt>
      <trkpt lat="59.87003811635077" lon="30.334421396255493">
        <ele>9.28</ele>
      </trkpt>
      <trkpt lat="59.87003803253174" lon="30.334421396255493">
        <ele>9.08</ele>
      </trkpt>
      <trkpt lat="59.87003258429468" lon="30.33403381705284">
        <ele>8.45</ele>
      </trkpt>
      <trkpt lat="59.87002730369568" lon="30.333648920059204">
        <ele>8.35</ele>
      </trkpt>
      <trkpt lat="59.87010248936713" lon="30.333648920059204">
        <ele>8.29</ele>
      </trkpt>
      <trkpt lat="59.870102405548096" lon="30.333648920059204">
        <ele>8.3</ele>
      </trkpt>
      <trkpt lat="59.870091676712036" lon="30.333305597305298">
        <ele>8.67</ele>
      </trkpt>
      <trkpt lat="59.87009176053107" lon="30.333187580108643">
        <ele>8.93</ele>
      </trkpt>
      <trkpt lat="59.870091676712036" lon="30.333101749420166">
        <ele>9.23</ele>
      </trkpt>
      <trkpt lat="59.870156049728394" lon="30.33251166343689">
        <ele>10.08</ele>
      </trkpt>
      <trkpt lat="59.870102405548096" lon="30.33200740814209">
        <ele>10.59</ele>
      </trkpt>
      <trkpt lat="59.87011715769768" lon="30.33161748200655">
        <ele>11.02</ele>
      </trkpt>
      <trkpt lat="59.87013190984726" lon="30.331230154260993">
        <ele>11.29</ele>
      </trkpt>
      <trkpt lat="59.870134592056274" lon="30.331159830093384">
        <ele>11.76</ele>
      </trkpt>
      <trkpt lat="59.87004306167364" lon="30.330783147364855">
        <ele>11.87</ele>
      </trkpt>
      <trkpt lat="59.86995220184326" lon="30.330408811569214">
        <ele>12.0</ele>
      </trkpt>
      <trkpt lat="59.86993074417114" lon="30.330376625061035">
        <ele>12.1</ele>
      </trkpt>
      <trkpt lat="59.869930827990174" lon="30.330376625061035">
        <ele>12.16</ele>
      </trkpt>
      <trkpt lat="59.869753299281" lon="30.330064734444022">
        <ele>12.22</ele>
      </trkpt>
      <trkpt lat="59.86957677640021" lon="30.32975435256958">
        <ele>12.22</ele>
      </trkpt>
      <trkpt lat="59.86939078196883" lon="30.329397451132536">
        <ele>12.07</ele>
      </trkpt>
      <trkpt lat="59.869205709546804" lon="30.32904239371419">
        <ele>11.97</ele>
      </trkpt>
      <trkpt lat="59.86917972564697" lon="30.32899260520935">
        <ele>11.82</ele>
      </trkpt>
      <trkpt lat="59.869169080629945" lon="30.32872438430786">
        <ele>11.77</ele>
      </trkpt>
      <trkpt lat="59.86916899681091" lon="30.328445434570312">
        <ele>11.7</ele>
      </trkpt>
      <trkpt lat="59.869127003476024" lon="30.328448954969645">
        <ele>11.59</ele>
      </trkpt>
      <trkpt lat="59.8690402507782" lon="30.328456163406372">
        <ele>11.55</ele>
      </trkpt>
      <trkpt lat="59.86902960576117" lon="30.327986357733607">
        <ele>11.56</ele>
      </trkpt>
      <trkpt lat="59.86902960576117" lon="30.327986273914576">
        <ele>11.58</ele>
      </trkpt>
      <trkpt lat="59.86901879310608" lon="30.32751202583313">
        <ele>11.56</ele>
      </trkpt>
      <trkpt lat="59.86910470761359" lon="30.327383279800415">
        <ele>11.61</ele>
      </trkpt>
      <trkpt lat="59.86909657716751" lon="30.32685035839677">
        <ele>11.68</ele>
      </trkpt>
      <trkpt lat="59.869088530540466" lon="30.326317520812154">
        <ele>11.89</ele>
      </trkpt>
      <trkpt lat="59.86908048391342" lon="30.32578468322754">
        <ele>12.06</ele>
      </trkpt>
      <trkpt lat="59.86907252110541" lon="30.32525897026062">
        <ele>12.33</ele>
      </trkpt>
      <trkpt lat="59.86907243728638" lon="30.32525897026062">
        <ele>12.52</ele>
      </trkpt>
      <trkpt lat="59.86898669041693" lon="30.32502293586731">
        <ele>13.22</ele>
      </trkpt>
      <trkpt lat="59.86897587776184" lon="30.324786901474">
        <ele>13.42</ele>
      </trkpt>
      <trkpt lat="59.86897596158087" lon="30.324786901474">
        <ele>13.67</ele>
      </trkpt>
      <trkpt lat="59.86897596158087" lon="30.324389934539795">
        <ele>13.89</ele>
      </trkpt>
      <trkpt lat="59.86896523274481" lon="30.324110984802246">
        <ele>14.14</ele>
      </trkpt>
      <trkpt lat="59.86896523274481" lon="30.323832035064697">
        <ele>14.4</ele>
      </trkpt>
      <trkpt lat="59.86896523274481" lon="30.32347798347473">
        <ele>14.73</ele>
      </trkpt>
      <trkpt lat="59.86895442008972" lon="30.323041956871748">
        <ele>15.01</ele>
      </trkpt>
      <trkpt lat="59.868943775072694" lon="30.322608947753906">
        <ele>15.28</ele>
      </trkpt>
      <trkpt lat="59.86894369125366" lon="30.322608947753906">
        <ele>15.46</ele>
      </trkpt>
      <trkpt lat="59.86909397877753" lon="30.322469472885132">
        <ele>15.87</ele>
      </trkpt>
      <trkpt lat="59.869147539138794" lon="30.322169065475464">
        <ele>15.9</ele>
      </trkpt>
      <trkpt lat="59.86908316612244" lon="30.321911573410034">
        <ele>15.56</ele>
      </trkpt>
      <trkpt lat="59.868933046236634" lon="30.32180428504944">
        <ele>15.35</ele>
      </trkpt>
      <trkpt lat="59.8689329624176" lon="30.32180428504944">
        <ele>15.17</ele>
      </trkpt>
      <trkpt lat="59.868933046236634" lon="30.32180428504944">
        <ele>14.76</ele>
      </trkpt>
      <trkpt lat="59.868922317400575" lon="30.321342945098877">
        <ele>14.43</ele>
      </trkpt>
      <trkpt lat="59.86892223358154" lon="30.321342945098877">
        <ele>14.23</ele>
      </trkpt>
      <trkpt lat="59.868922317400575" lon="30.321342945098877">
        <ele>13.91</ele>
      </trkpt>
      <trkpt lat="59.869197411462665" lon="30.321325678378344">
        <ele>13.75</ele>
      </trkpt>
      <trkpt lat="59.869472505524755" lon="30.321308495476842">
        <ele>13.65</ele>
      </trkpt>
      <trkpt lat="59.869747599586844" lon="30.32129131257534">
        <ele>13.62</ele>
      </trkpt>
      <trkpt lat="59.870022693648934" lon="30.32127412967384">
        <ele>13.57</ele>
      </trkpt>
      <trkpt lat="59.8702956084162" lon="30.3212571144104">
        <ele>13.74</ele>
      </trkpt>
      <trkpt lat="59.87051588483155" lon="30.32124093733728">
        <ele>13.95</ele>
      </trkpt>
      <trkpt lat="59.87073549069464" lon="30.32122492790222">
        <ele>14.15</ele>
      </trkpt>
      <trkpt lat="59.87101930193603" lon="30.321239344775677">
        <ele>14.29</ele>
      </trkpt>
      <trkpt lat="59.8713022749871" lon="30.32125376164913">
        <ele>14.46</ele>
      </trkpt>
      <trkpt lat="59.871368408203125" lon="30.3212571144104">
        <ele>15.01</ele>
      </trkpt>
      <trkpt lat="59.871389865875244" lon="30.321428775787354">
        <ele>15.37</ele>
      </trkpt>
      <trkpt lat="59.87152934074402" lon="30.321611166000366">
        <ele>16.12</ele>
      </trkpt>
      <trkpt lat="59.871582984924316" lon="30.32175064086914">
        <ele>16.49</ele>
      </trkpt>
      <trkpt lat="59.87158306874335" lon="30.321753239259124">
        <ele>16.8</ele>
      </trkpt>
      <trkpt lat="59.87158306874335" lon="30.321753323078156">
        <ele>17.09</ele>
      </trkpt>
      <trkpt lat="59.87159379757941" lon="30.322328489273787">
        <ele>17.43</ele>
      </trkpt>
      <trkpt lat="59.87160452641547" lon="30.32290373928845">
        <ele>17.79</ele>
      </trkpt>
      <trkpt lat="59.87161533907056" lon="30.323478989303112">
        <ele>17.98</ele>
      </trkpt>
      <trkpt lat="59.871625984087586" lon="30.32404661178589">
        <ele>17.99</ele>
      </trkpt>
      <trkpt lat="59.871625984087586" lon="30.324625968933105">
        <ele>17.93</ele>
      </trkpt>
      <trkpt lat="59.871636712923646" lon="30.324904918670654">
        <ele>18.01</ele>
      </trkpt>
      <trkpt lat="59.871636712923646" lon="30.324958562850952">
        <ele>18.04</ele>
      </trkpt>
      <trkpt lat="59.87164383754134" lon="30.325563149526715">
        <ele>18.16</ele>
      </trkpt>
      <trkpt lat="59.87165104597807" lon="30.32616773620248">
        <ele>18.17</ele>
      </trkpt>
      <trkpt lat="59.8716582544148" lon="30.326772406697273">
        <ele>18.09</ele>
      </trkpt>
      <trkpt lat="59.87166537903249" lon="30.327376993373036">
        <ele>17.98</ele>
      </trkpt>
      <trkpt lat="59.87167258746922" lon="30.32798166386783">
        <ele>17.88</ele>
      </trkpt>
      <trkpt lat="59.871679628267884" lon="30.328574180603027">
        <ele>17.64</ele>
      </trkpt>
      <trkpt lat="59.871679628267884" lon="30.328638553619385">
        <ele>17.47</ele>
      </trkpt>
      <trkpt lat="59.871679628267884" lon="30.328692197799683">
        <ele>17.28</ele>
      </trkpt>
      <trkpt lat="59.87168817780912" lon="30.32925403676927">
        <ele>17.27</ele>
      </trkpt>
      <trkpt lat="59.871696811169386" lon="30.32981595955789">
        <ele>17.08</ele>
      </trkpt>
      <trkpt lat="59.87170544452965" lon="30.33037788234651">
        <ele>16.63</ele>
      </trkpt>
      <trkpt lat="59.87171407788992" lon="30.33093980513513">
        <ele>16.05</ele>
      </trkpt>
      <trkpt lat="59.87172254361212" lon="30.33149242401123">
        <ele>15.55</ele>
      </trkpt>
      <trkpt lat="59.87172790803015" lon="30.332003720104694">
        <ele>15.15</ele>
      </trkpt>
      <trkpt lat="59.87173327244818" lon="30.33251166343689">
        <ele>14.89</ele>
      </trkpt>
      <trkpt lat="59.87173327244818" lon="30.332586765289307">
        <ele>14.65</ele>
      </trkpt>
      <trkpt lat="59.87174400128424" lon="30.333171570673585">
        <ele>14.45</ele>
      </trkpt>
      <trkpt lat="59.8717547301203" lon="30.333756459876895">
        <ele>14.3</ele>
      </trkpt>
      <trkpt lat="59.87176545895636" lon="30.334335565567017">
        <ele>14.18</ele>
      </trkpt>
      <trkpt lat="59.87177082337439" lon="30.334658436477184">
        <ele>14.08</ele>
      </trkpt>
      <trkpt lat="59.87177618779242" lon="30.33497929573059">
        <ele>13.89</ele>
      </trkpt>
      <trkpt lat="59.87178146839142" lon="30.335436780005693">
        <ele>13.65</ele>
      </trkpt>
      <trkpt lat="59.87178683280945" lon="30.335891246795654">
        <ele>13.33</ele>
      </trkpt>
      <trkpt lat="59.871647441759706" lon="30.335891246795654">
        <ele>13.07</ele>
      </trkpt>
      <trkpt lat="59.871647357940674" lon="30.335891246795654">
        <ele>12.88</ele>
      </trkpt>
      <trkpt lat="59.871647441759706" lon="30.335891246795654">
        <ele>12.51</ele>
      </trkpt>
      <trkpt lat="59.87142523750663" lon="30.335905496031046">
        <ele>12.26</ele>
      </trkpt>
      <trkpt lat="59.87120311707258" lon="30.33591982908547">
        <ele>12.03</ele>
      </trkpt>
      <trkpt lat="59.87098217010498" lon="30.335934162139893">
        <ele>11.81</ele>
      </trkpt>
      <trkpt lat="59.87098225392401" lon="30.335934162139893">
        <ele>11.65</ele>
      </trkpt>
      <trkpt lat="59.87071353010833" lon="30.33595561981201">
        <ele>11.58</ele>
      </trkpt>
      <trkpt lat="59.870444890111685" lon="30.33597707748413">
        <ele>11.52</ele>
      </trkpt>
      <trkpt lat="59.870177591219544" lon="30.33599853515625">
        <ele>11.35</ele>
      </trkpt>
      <trkpt lat="59.869930408895016" lon="30.33601278439164">
        <ele>11.14</ele>
      </trkpt>
      <trkpt lat="59.86968322657049" lon="30.336027117446065">
        <ele>10.95</ele>
      </trkpt>
      <trkpt lat="59.869437301531434" lon="30.33604145050049">
        <ele>10.72</ele>
      </trkpt>
      <trkpt lat="59.86925491131842" lon="30.336052179336548">
        <ele>10.47</ele>
      </trkpt>
      <trkpt lat="59.869147622957826" lon="30.336062908172607">
        <ele>10.22</ele>
      </trkpt>
      <trkpt lat="59.86904033459723" lon="30.336062908172607">
        <ele>9.96</ele>
      </trkpt>
      <trkpt lat="59.86876088194549" lon="30.336080761626363">
        <ele>9.5</ele>
      </trkpt>
      <trkpt lat="59.86848142929375" lon="30.33609869889915">
        <ele>9.08</ele>
      </trkpt>
      <trkpt lat="59.86820348538458" lon="30.336116552352905">
        <ele>8.75</ele>
      </trkpt>
      <trkpt lat="59.86809619702399" lon="30.336127281188965">
        <ele>8.55</ele>
      </trkpt>
      <trkpt lat="59.86782210879028" lon="30.336143374443054">
        <ele>8.45</ele>
      </trkpt>
      <trkpt lat="59.8675481043756" lon="30.336159467697144">
        <ele>8.3</ele>
      </trkpt>
      <trkpt lat="59.86727401614189" lon="30.336175560951233">
        <ele>8.21</ele>
      </trkpt>
      <trkpt lat="59.867000011727214" lon="30.336191738024354">
        <ele>8.16</ele>
      </trkpt>
      <trkpt lat="59.866726007312536" lon="30.336207831278443">
        <ele>7.99</ele>
      </trkpt>
      <trkpt lat="59.86645468510687" lon="30.3362238407135">
        <ele>7.96</ele>
      </trkpt>
      <trkpt lat="59.866175232455134" lon="30.336241694167256">
        <ele>7.88</ele>
      </trkpt>
      <trkpt lat="59.865895779803395" lon="30.336259631440043">
        <ele>7.77</ele>
      </trkpt>
      <trkpt lat="59.865617752075195" lon="30.3362774848938">
        <ele>7.56</ele>
      </trkpt>
      <trkpt lat="59.86561783589423" lon="30.3362774848938">
        <ele>7.53</ele>
      </trkpt>
      <trkpt lat="59.865345591679215" lon="30.336277401074767">
        <ele>7.34</ele>
      </trkpt>
      <trkpt lat="59.86507426947355" lon="30.3362774848938">
        <ele>7.46</ele>
      </trkpt>
      <trkpt lat="59.86498475074768" lon="30.3362774848938">
        <ele>7.72</ele>
      </trkpt>
      <trkpt lat="59.86483463086188" lon="30.3362774848938">
        <ele>7.95</ele>
      </trkpt>
      <trkpt lat="59.86477017402649" lon="30.33628821372986">
        <ele>8.13</ele>
      </trkpt>
      <trkpt lat="59.86477017402649" lon="30.336198024451733">
        <ele>8.36</ele>
      </trkpt>
      <trkpt lat="59.86477017402649" lon="30.336073637008667">
        <ele>8.85</ele>
      </trkpt>
      <trkpt lat="59.86477025784552" lon="30.336073637008667">
        <ele>9.09</ele>
      </trkpt>
      <trkpt lat="59.86475952900946" lon="30.335848331451416">
        <ele>9.39</ele>
      </trkpt>
      <trkpt lat="59.86475952900946" lon="30.335676670074463">
        <ele>9.68</ele>
      </trkpt>
      <trkpt lat="59.8647559247911" lon="30.33520300872624">
        <ele>10.07</ele>
      </trkpt>
      <trkpt lat="59.864752320572734" lon="30.334729347378016">
        <ele>10.27</ele>
      </trkpt>
      <trkpt lat="59.8647488001734" lon="30.3342604637146">
        <ele>10.38</ele>
      </trkpt>
      <trkpt lat="59.86473807133734" lon="30.334045886993408">
        <ele>10.48</ele>
      </trkpt>
      <trkpt lat="59.86473807133734" lon="30.333820581436157">
        <ele>10.6</ele>
      </trkpt>
      <trkpt lat="59.86473438329995" lon="30.333393523469567">
        <ele>10.64</ele>
      </trkpt>
      <trkpt lat="59.86473077908158" lon="30.33296654932201">
        <ele>10.73</ele>
      </trkpt>
      <trkpt lat="59.86472725868225" lon="30.33254384994507">
        <ele>10.95</ele>
      </trkpt>
      <trkpt lat="59.86472734250128" lon="30.33254384994507">
        <ele>11.09</ele>
      </trkpt>
      <trkpt lat="59.86471652984619" lon="30.332157611846924">
        <ele>11.27</ele>
      </trkpt>
      <trkpt lat="59.86471661366522" lon="30.332157611846924">
        <ele>11.41</ele>
      </trkpt>
      <trkpt lat="59.86471116542816" lon="30.331646231934428">
        <ele>11.55</ele>
      </trkpt>
      <trkpt lat="59.86470588482916" lon="30.331138372421265">
        <ele>11.69</ele>
      </trkpt>
      <trkpt lat="59.86470588482916" lon="30.330805778503418">
        <ele>11.86</ele>
      </trkpt>
      <trkpt lat="59.864695155993104" lon="30.330559015274048">
        <ele>12.05</ele>
      </trkpt>
      <trkpt lat="59.86469507217407" lon="30.330419540405273">
        <ele>12.19</ele>
      </trkpt>
      <trkpt lat="59.864695155993104" lon="30.330419540405273">
        <ele>12.33</ele>
      </trkpt>
      <trkpt lat="59.86468702554703" lon="30.32981394790113">
        <ele>12.47</ele>
      </trkpt>
      <trkpt lat="59.86467889510095" lon="30.329208439216018">
        <ele>12.5</ele>
      </trkpt>
      <trkpt lat="59.86467084847391" lon="30.328602930530906">
        <ele>12.75</ele>
      </trkpt>
      <trkpt lat="59.864662885665894" lon="30.32800555229187">
        <ele>12.94</ele>
      </trkpt>
      <trkpt lat="59.86471652984619" lon="30.32797336578369">
        <ele>13.19</ele>
      </trkpt>
      <trkpt lat="59.86478098668158" lon="30.327694416046143">
        <ele>13.22</ele>
      </trkpt>
      <trkpt lat="59.86489933915436" lon="30.327226286754012">
        <ele>13.14</ele>
      </trkpt>
      <trkpt lat="59.86501702107489" lon="30.32676100730896">
        <ele>12.96</ele>
      </trkpt>
      <trkpt lat="59.8650598526001" lon="30.326632261276245">
        <ele>12.82</ele>
      </trkpt>
      <trkpt lat="59.86518549732864" lon="30.326258428394794">
        <ele>12.72</ele>
      </trkpt>
      <trkpt lat="59.86531047150493" lon="30.32588677480817">
        <ele>12.59</ele>
      </trkpt>
      <trkpt lat="59.86547836102545" lon="30.325387716293335">
        <ele>12.27</ele>
      </trkpt>
      <trkpt lat="59.86549981869757" lon="30.3252911567688">
        <ele>12.13</ele>
      </trkpt>
      <trkpt lat="59.865607023239136" lon="30.32528042793274">
        <ele>11.97</ele>
      </trkpt>
      <trkpt lat="59.86559637822211" lon="30.325162410736084">
        <ele>11.51</ele>
      </trkpt>
      <trkpt lat="59.86558564938605" lon="30.32496929168701">
        <ele>11.46</ele>
      </trkpt>
      <trkpt lat="59.86558556556702" lon="30.32496929168701">
        <ele>11.36</ele>
      </trkpt>
      <trkpt lat="59.86549981869757" lon="30.324432849884033">
        <ele>11.26</ele>
      </trkpt>
      <trkpt lat="59.86548908986151" lon="30.323928594589233">
        <ele>11.06</ele>
      </trkpt>
      <trkpt lat="59.86548900604248" lon="30.323928594589233">
        <ele>10.99</ele>
      </trkpt>
      <trkpt lat="59.86552119255066" lon="30.323606729507446">
        <ele>10.88</ele>
      </trkpt>
      <trkpt lat="59.86559637822211" lon="30.323392152786255">
        <ele>10.89</ele>
      </trkpt>
      <trkpt lat="59.86576351337135" lon="30.323091158643365">
        <ele>10.88</ele>
      </trkpt>
      <trkpt lat="59.86581087112427" lon="30.32300591468811">
        <ele>10.75</ele>
      </trkpt>
      <trkpt lat="59.86580014228821" lon="30.322383642196655">
        <ele>10.52</ele>
      </trkpt>
      <trkpt lat="59.86596115864813" lon="30.322383642196655">
        <ele>10.22</ele>
      </trkpt>
      <trkpt lat="59.86600407399237" lon="30.322383642196655">
        <ele>10.16</ele>
      </trkpt>
      <trkpt lat="59.86600399017334" lon="30.322383642196655">
        <ele>10.12</ele>
      </trkpt>
      <trkpt lat="59.86612209118903" lon="30.322372913360596">
        <ele>10.07</ele>
      </trkpt>
      <trkpt lat="59.866122007369995" lon="30.322372913360596">
        <ele>10.1</ele>
      </trkpt>
      <trkpt lat="59.8662079218775" lon="30.322372913360596">
        <ele>10.15</ele>
      </trkpt>
      <trkpt lat="59.86620783805847" lon="30.322372913360596">
        <ele>10.24</ele>
      </trkpt>
      <trkpt lat="59.86624010838568" lon="30.322372913360596">
        <ele>10.4</ele>
      </trkpt>
      <trkpt lat="59.86624002456665" lon="30.322372913360596">
        <ele>10.57</ele>
      </trkpt>
      <trkpt lat="59.86637958325446" lon="30.322351455688477">
        <ele>10.86</ele>
      </trkpt>
      <trkpt lat="59.866578318178654" lon="30.322340643033385">
        <ele>11.13</ele>
      </trkpt>
      <trkpt lat="59.86677646636963" lon="30.322329998016357">
        <ele>11.39</ele>
      </trkpt>
      <trkpt lat="59.866894567385316" lon="30.32228708267212">
        <ele>12.46</ele>
      </trkpt>
      <trkpt lat="59.866894483566284" lon="30.32228708267212">
        <ele>12.87</ele>
      </trkpt>
      <trkpt lat="59.8670610319823" lon="30.322276270017028">
        <ele>13.37</ele>
      </trkpt>
      <trkpt lat="59.86722716130316" lon="30.322265625">
        <ele>14.04</ele>
      </trkpt>
      <trkpt lat="59.86722707748413" lon="30.322265625">
        <ele>14.49</ele>
      </trkpt>
      <trkpt lat="59.867431009188294" lon="30.32225489616394">
        <ele>15.08</ele>
      </trkpt>
      <trkpt lat="59.86758121289313" lon="30.32224416732788">
        <ele>15.44</ele>
      </trkpt>
      <trkpt lat="59.86778506077826" lon="30.32223343849182">
        <ele>15.47</ele>
      </trkpt>
      <trkpt lat="59.86796233803034" lon="30.32222262583673">
        <ele>15.38</ele>
      </trkpt>
      <trkpt lat="59.868139112368226" lon="30.322211980819702">
        <ele>15.14</ele>
      </trkpt>
      <trkpt lat="59.86831974238157" lon="30.32219186425209">
        <ele>15.05</ele>
      </trkpt>
    </trkseg>
  </trk>
</gpx>
