<?xml version="1.0" encoding="UTF-8"?>
<gpx creator="Garmin Connect" version="1.1"
  xsi:schemaLocation="http://www.topografix.com/GPX/1/1 http://www.topografix.com/GPX/11.xsd"
  xmlns:ns3="http://www.garmin.com/xmlschemas/TrackPointExtension/v1"
  xmlns="http://www.topografix.com/GPX/1/1"
  xmlns:xsi="http://www.w3.org/2001/XMLSchema-instance" xmlns:ns2="http://www.garmin.com/xmlschemas/GpxExtensions/v3">
  <metadata>
    <name>Парк Героев-Пожарных и Интернационалистов
Купчино (м. Проспект Славы)  Бег 10,01 км</name>
    <link href="connect.garmin.com">
      <text>Garmin Connect</text>
    </link>
    <time>2026-09-25T22:55:03.000Z</time>
  </metadata>
  <trk>
    <name>Парк Героев-Пожарных и Интернационалистов
Купчино (м. Проспект Славы)  Бег 10,01 км</name>
    <trkseg>
      <trkpt lat="59.85535025596619" lon="30.397260189056396">
        <ele>10.85</ele>
      </trkpt>
      <trkpt lat="59.85525378026068" lon="30.39737820625305">
        <ele>10.75</ele>
      </trkpt>
      <trkpt lat="59.85526450909674" lon="30.397571325302124">
        <ele>10.82</ele>
      </trkpt>
      <trkpt lat="59.85528588294983" lon="30.397603511810303">
        <ele>10.92</ele>
      </trkpt>
      <trkpt lat="59.85517113469541" lon="30.397965693846345">
        <ele>11.03</ele>
      </trkpt>
      <trkpt lat="59.85505638644099" lon="30.39832795970142">
        <ele>11.1</ele>
      </trkpt>
      <trkpt lat="59.854942644014955" lon="30.39868712425232">
        <ele>11.21</ele>
      </trkpt>
      <trkpt lat="59.85478665679693" lon="30.39882685057819">
        <ele>11.32</ele>
      </trkpt>
      <trkpt lat="59.854631423950195" lon="30.398966073989868">
        <ele>11.22</ele>
      </trkpt>
      <trkpt lat="59.85463150776923" lon="30.398966073989868">
        <ele>11.2</ele>
      </trkpt>
      <trkpt lat="59.85458859242499" lon="30.399105548858643">
        <ele>11.21</ele>
      </trkpt>
      <trkpt lat="59.85455632209778" lon="30.399223566055298">
        <ele>11.2</ele>
      </trkpt>
      <trkpt lat="59.85453486442566" lon="30.399341583251953">
        <ele>11.16</ele>
      </trkpt>
      <trkpt lat="59.85453494824469" lon="30.399341583251953">
        <ele>11.04</ele>
      </trkpt>
      <trkpt lat="59.85452421940863" lon="30.399470329284668">
        <ele>10.98</ele>
      </trkpt>
      <trkpt lat="59.85452421940863" lon="30.399588346481323">
        <ele>10.92</ele>
      </trkpt>
      <trkpt lat="59.85439547337592" lon="30.399523973464966">
        <ele>10.84</ele>
      </trkpt>
      <trkpt lat="59.85428818501532" lon="30.399609804153442">
        <ele>10.75</ele>
      </trkpt>
      <trkpt lat="59.85407360829413" lon="30.399835109710693">
        <ele>10.63</ele>
      </trkpt>
      <trkpt lat="59.85389616340399" lon="30.400012470781803">
        <ele>10.55</ele>
      </trkpt>
      <trkpt lat="59.85371947288513" lon="30.40018916130066">
        <ele>10.36</ele>
      </trkpt>
      <trkpt lat="59.85371955670416" lon="30.40018916130066">
        <ele>10.23</ele>
      </trkpt>
      <trkpt lat="59.85355828888714" lon="30.400258982554078">
        <ele>10.02</ele>
      </trkpt>
      <trkpt lat="59.853397691622376" lon="30.400328636169434">
        <ele>9.84</ele>
      </trkpt>
      <trkpt lat="59.853140115737915" lon="30.400092601776123">
        <ele>9.76</ele>
      </trkpt>
      <trkpt lat="59.853069288656116" lon="30.400092601776123">
        <ele>9.64</ele>
      </trkpt>
      <trkpt lat="59.852957809343934" lon="30.400092601776123">
        <ele>9.42</ele>
      </trkpt>
      <trkpt lat="59.8527539614588" lon="30.40014624595642">
        <ele>9.26</ele>
      </trkpt>
      <trkpt lat="59.85259269364178" lon="30.4001784324646">
        <ele>9.16</ele>
      </trkpt>
      <trkpt lat="59.852432096377015" lon="30.40021061897278">
        <ele>9.11</ele>
      </trkpt>
      <trkpt lat="59.852249706164" lon="30.400274991989136">
        <ele>9.04</ele>
      </trkpt>
      <trkpt lat="59.85207796096802" lon="30.400575399398804">
        <ele>8.95</ele>
      </trkpt>
      <trkpt lat="59.85201358795166" lon="30.40087580680847">
        <ele>8.84</ele>
      </trkpt>
      <trkpt lat="59.85201945528388" lon="30.40130529552698">
        <ele>8.74</ele>
      </trkpt>
      <trkpt lat="59.8520253226161" lon="30.40173478424549">
        <ele>8.56</ele>
      </trkpt>
      <trkpt lat="59.85203118994832" lon="30.402160082012415">
        <ele>8.38</ele>
      </trkpt>
      <trkpt lat="59.85203118994832" lon="30.402159998193383">
        <ele>8.27</ele>
      </trkpt>
      <trkpt lat="59.85203504562378" lon="30.40244221687317">
        <ele>8.18</ele>
      </trkpt>
      <trkpt lat="59.85203512944281" lon="30.40244221687317">
        <ele>8.11</ele>
      </trkpt>
      <trkpt lat="59.85204032622278" lon="30.403054263442755">
        <ele>8.07</ele>
      </trkpt>
      <trkpt lat="59.852045523002744" lon="30.403666393831372">
        <ele>8.1</ele>
      </trkpt>
      <trkpt lat="59.85205071978271" lon="30.404278440400958">
        <ele>7.93</ele>
      </trkpt>
      <trkpt lat="59.852055916562676" lon="30.404890570789576">
        <ele>7.91</ele>
      </trkpt>
      <trkpt lat="59.85206111334264" lon="30.40550261735916">
        <ele>8.19</ele>
      </trkpt>
      <trkpt lat="59.85206622630358" lon="30.40610251016915">
        <ele>8.29</ele>
      </trkpt>
      <trkpt lat="59.852070081979036" lon="30.406561167910695">
        <ele>8.52</ele>
      </trkpt>
      <trkpt lat="59.85207402147353" lon="30.407019909471273">
        <ele>8.63</ele>
      </trkpt>
      <trkpt lat="59.85207796096802" lon="30.407474040985107">
        <ele>8.77</ele>
      </trkpt>
      <trkpt lat="59.85207804478705" lon="30.407474040985107">
        <ele>9.21</ele>
      </trkpt>
      <trkpt lat="59.85203512944281" lon="30.407742261886597">
        <ele>9.47</ele>
      </trkpt>
      <trkpt lat="59.85199221409857" lon="30.407806634902954">
        <ele>9.61</ele>
      </trkpt>
      <trkpt lat="59.8519975785166" lon="30.408177953213453">
        <ele>9.78</ele>
      </trkpt>
      <trkpt lat="59.85200294293463" lon="30.408546924591064">
        <ele>9.85</ele>
      </trkpt>
      <trkpt lat="59.85201367177069" lon="30.40916919708252">
        <ele>9.87</ele>
      </trkpt>
      <trkpt lat="59.85201367177069" lon="30.409297943115234">
        <ele>9.94</ele>
      </trkpt>
      <trkpt lat="59.85201367177069" lon="30.409658532589674">
        <ele>10.06</ele>
      </trkpt>
      <trkpt lat="59.85201367177069" lon="30.410016775131226">
        <ele>10.12</ele>
      </trkpt>
      <trkpt lat="59.85201367177069" lon="30.41012406349182">
        <ele>10.15</ele>
      </trkpt>
      <trkpt lat="59.85201367177069" lon="30.410220623016357">
        <ele>10.17</ele>
      </trkpt>
      <trkpt lat="59.85203512944281" lon="30.410757064819336">
        <ele>10.05</ele>
      </trkpt>
      <trkpt lat="59.85204577445984" lon="30.41087508201599">
        <ele>9.97</ele>
      </trkpt>
      <trkpt lat="59.85204585827887" lon="30.41087508201599">
        <ele>9.88</ele>
      </trkpt>
      <trkpt lat="59.852163791656494" lon="30.41089653968811">
        <ele>9.81</ele>
      </trkpt>
      <trkpt lat="59.85216613858938" lon="30.411498192697763">
        <ele>9.6</ele>
      </trkpt>
      <trkpt lat="59.8521685693413" lon="30.41209992952645">
        <ele>9.44</ele>
      </trkpt>
      <trkpt lat="59.85217091627419" lon="30.4127015825361">
        <ele>9.29</ele>
      </trkpt>
      <trkpt lat="59.85217334702611" lon="30.413303319364786">
        <ele>9.29</ele>
      </trkpt>
      <trkpt lat="59.852175693959" lon="30.41390497237444">
        <ele>9.06</ele>
      </trkpt>
      <trkpt lat="59.85217812471092" lon="30.414506709203124">
        <ele>8.78</ele>
      </trkpt>
      <trkpt lat="59.852180471643806" lon="30.415108362212777">
        <ele>8.71</ele>
      </trkpt>
      <trkpt lat="59.852182902395725" lon="30.415710099041462">
        <ele>8.71</ele>
      </trkpt>
      <trkpt lat="59.85218516550958" lon="30.416293730959296">
        <ele>8.65</ele>
      </trkpt>
      <trkpt lat="59.85218524932861" lon="30.416314601898193">
        <ele>8.39</ele>
      </trkpt>
      <trkpt lat="59.85233553685248" lon="30.41686177253723">
        <ele>8.21</ele>
      </trkpt>
      <trkpt lat="59.85251826234162" lon="30.41659288108349">
        <ele>7.95</ele>
      </trkpt>
      <trkpt lat="59.852700317278504" lon="30.416325330734253">
        <ele>7.74</ele>
      </trkpt>
      <trkpt lat="59.852947080507874" lon="30.415992736816406">
        <ele>7.62</ele>
      </trkpt>
      <trkpt lat="59.853150928393006" lon="30.415713787078857">
        <ele>7.62</ele>
      </trkpt>
      <trkpt lat="59.85338025726378" lon="30.41544858366251">
        <ele>7.7</ele>
      </trkpt>
      <trkpt lat="59.85360958613455" lon="30.415183380246162">
        <ele>7.86</ele>
      </trkpt>
      <trkpt lat="59.85383757390082" lon="30.41491985321045">
        <ele>7.96</ele>
      </trkpt>
      <trkpt lat="59.85403111204505" lon="30.41463310830295">
        <ele>8.02</ele>
      </trkpt>
      <trkpt lat="59.85422465018928" lon="30.414346363395452">
        <ele>8.15</ele>
      </trkpt>
      <trkpt lat="59.854416931048036" lon="30.414061546325684">
        <ele>8.35</ele>
      </trkpt>
      <trkpt lat="59.85458901152015" lon="30.413663489744067">
        <ele>8.49</ele>
      </trkpt>
      <trkpt lat="59.85476025380194" lon="30.413267612457275">
        <ele>8.73</ele>
      </trkpt>
      <trkpt lat="59.85489461570978" lon="30.413030991330743">
        <ele>8.98</ele>
      </trkpt>
      <trkpt lat="59.8550283908844" lon="30.412795543670654">
        <ele>9.3</ele>
      </trkpt>
      <trkpt lat="59.85502847470343" lon="30.412795543670654">
        <ele>9.49</ele>
      </trkpt>
      <trkpt lat="59.85528286546469" lon="30.412526736035943">
        <ele>9.69</ele>
      </trkpt>
      <trkpt lat="59.855537256225944" lon="30.412258012220263">
        <ele>9.77</ele>
      </trkpt>
      <trkpt lat="59.85579022206366" lon="30.411990880966187">
        <ele>9.94</ele>
      </trkpt>
      <trkpt lat="59.85604276880622" lon="30.411743614822626">
        <ele>10.16</ele>
      </trkpt>
      <trkpt lat="59.85629447735846" lon="30.411497354507446">
        <ele>10.31</ele>
      </trkpt>
      <trkpt lat="59.856391036883" lon="30.41140079498291">
        <ele>10.44</ele>
      </trkpt>
      <trkpt lat="59.856648445129395" lon="30.4111647605896">
        <ele>10.57</ele>
      </trkpt>
      <trkpt lat="59.85648700967431" lon="30.41063209064305">
        <ele>11.29</ele>
      </trkpt>
      <trkpt lat="59.85632658004761" lon="30.410102605819702">
        <ele>11.46</ele>
      </trkpt>
      <trkpt lat="59.856165647506714" lon="30.409576892852783">
        <ele>11.67</ele>
      </trkpt>
      <trkpt lat="59.856165731325746" lon="30.409576892852783">
        <ele>11.84</ele>
      </trkpt>
      <trkpt lat="59.85603656619787" lon="30.409146482124925">
        <ele>12.04</ele>
      </trkpt>
      <trkpt lat="59.85590740107" lon="30.408716071397066">
        <ele>12.19</ele>
      </trkpt>
      <trkpt lat="59.85577940940857" lon="30.408289432525635">
        <ele>12.3</ele>
      </trkpt>
      <trkpt lat="59.85567178577185" lon="30.407858937978745">
        <ele>12.48</ele>
      </trkpt>
      <trkpt lat="59.855564162135124" lon="30.407428527250886">
        <ele>12.62</ele>
      </trkpt>
      <trkpt lat="59.85545754432678" lon="30.407001972198486">
        <ele>12.78</ele>
      </trkpt>
      <trkpt lat="59.855457628145814" lon="30.407001972198486">
        <ele>12.86</ele>
      </trkpt>
      <trkpt lat="59.85539325512946" lon="30.40670156478882">
        <ele>12.98</ele>
      </trkpt>
      <trkpt lat="59.85529669560492" lon="30.406283140182495">
        <ele>13.0</ele>
      </trkpt>
      <trkpt lat="59.85519980080426" lon="30.405847281217575">
        <ele>12.97</ele>
      </trkpt>
      <trkpt lat="59.85510357655585" lon="30.40541410446167">
        <ele>12.91</ele>
      </trkpt>
      <trkpt lat="59.8550283908844" lon="30.405092239379883">
        <ele>12.82</ele>
      </trkpt>
      <trkpt lat="59.85498547554016" lon="30.40488839149475">
        <ele>12.77</ele>
      </trkpt>
      <trkpt lat="59.85498555935919" lon="30.40488839149475">
        <ele>12.7</ele>
      </trkpt>
      <trkpt lat="59.85487785190344" lon="30.404361002147198">
        <ele>12.55</ele>
      </trkpt>
      <trkpt lat="59.85477089881897" lon="30.403836965560913">
        <ele>12.45</ele>
      </trkpt>
      <trkpt lat="59.854674339294434" lon="30.40337562561035">
        <ele>12.39</ele>
      </trkpt>
      <trkpt lat="59.85463150776923" lon="30.40313959121704">
        <ele>12.29</ele>
      </trkpt>
      <trkpt lat="59.854631423950195" lon="30.40313959121704">
        <ele>12.16</ele>
      </trkpt>
      <trkpt lat="59.85458859242499" lon="30.40292501449585">
        <ele>12.01</ele>
      </trkpt>
      <trkpt lat="59.85458850860596" lon="30.40292501449585">
        <ele>11.85</ele>
      </trkpt>
      <trkpt lat="59.85450276173651" lon="30.402485132217407">
        <ele>11.72</ele>
      </trkpt>
      <trkpt lat="59.85450267791748" lon="30.402485132217407">
        <ele>11.52</ele>
      </trkpt>
      <trkpt lat="59.854427659884095" lon="30.40239930152893">
        <ele>11.26</ele>
      </trkpt>
      <trkpt lat="59.85433110035956" lon="30.402302742004395">
        <ele>10.98</ele>
      </trkpt>
      <trkpt lat="59.85433101654053" lon="30.402302742004395">
        <ele>10.74</ele>
      </trkpt>
      <trkpt lat="59.85415901988745" lon="30.402130661532283">
        <ele>10.47</ele>
      </trkpt>
      <trkpt lat="59.85398777760565" lon="30.40195941925049">
        <ele>10.23</ele>
      </trkpt>
      <trkpt lat="59.85398769378662" lon="30.40195941925049">
        <ele>10.0</ele>
      </trkpt>
      <trkpt lat="59.85376238822937" lon="30.40168046951294">
        <ele>9.65</ele>
      </trkpt>
      <trkpt lat="59.85359022393823" lon="30.401250142604113">
        <ele>9.43</ele>
      </trkpt>
      <trkpt lat="59.853419065475464" lon="30.400822162628174">
        <ele>9.26</ele>
      </trkpt>
      <trkpt lat="59.85313802026212" lon="30.4006480704993">
        <ele>9.1</ele>
      </trkpt>
      <trkpt lat="59.852858148515224" lon="30.400474648922682">
        <ele>8.98</ele>
      </trkpt>
      <trkpt lat="59.852644661441445" lon="30.400342382490635">
        <ele>8.96</ele>
      </trkpt>
      <trkpt lat="59.852432096377015" lon="30.40021061897278">
        <ele>9.07</ele>
      </trkpt>
      <trkpt lat="59.852593280375004" lon="30.400178348645568">
        <ele>9.1</ele>
      </trkpt>
      <trkpt lat="59.8527539614588" lon="30.40014624595642">
        <ele>9.2</ele>
      </trkpt>
      <trkpt lat="59.852957809343934" lon="30.400092601776123">
        <ele>9.38</ele>
      </trkpt>
      <trkpt lat="59.853140115737915" lon="30.400092601776123">
        <ele>9.55</ele>
      </trkpt>
      <trkpt lat="59.853397691622376" lon="30.400328636169434">
        <ele>9.69</ele>
      </trkpt>
      <trkpt lat="59.853558875620365" lon="30.400258731096983">
        <ele>9.93</ele>
      </trkpt>
      <trkpt lat="59.85371955670416" lon="30.40018916130066">
        <ele>10.21</ele>
      </trkpt>
      <trkpt lat="59.85371947288513" lon="30.40018916130066">
        <ele>10.43</ele>
      </trkpt>
      <trkpt lat="59.85389683395624" lon="30.400011716410518">
        <ele>10.7</ele>
      </trkpt>
      <trkpt lat="59.85407360829413" lon="30.399835109710693">
        <ele>10.88</ele>
      </trkpt>
      <trkpt lat="59.85428818501532" lon="30.399609804153442">
        <ele>11.09</ele>
      </trkpt>
      <trkpt lat="59.85439547337592" lon="30.399523973464966">
        <ele>11.25</ele>
      </trkpt>
      <trkpt lat="59.85452421940863" lon="30.399588346481323">
        <ele>11.38</ele>
      </trkpt>
      <trkpt lat="59.85474449582398" lon="30.399652803316712">
        <ele>11.53</ele>
      </trkpt>
      <trkpt lat="59.854964101687074" lon="30.399717092514038">
        <ele>11.64</ele>
      </trkpt>
      <trkpt lat="59.85518437810242" lon="30.39966872893274">
        <ele>11.69</ele>
      </trkpt>
      <trkpt lat="59.855403983965516" lon="30.399620532989502">
        <ele>11.64</ele>
      </trkpt>
      <trkpt lat="59.85564395785332" lon="30.399595387279987">
        <ele>11.48</ele>
      </trkpt>
      <trkpt lat="59.85588393174112" lon="30.399570325389504">
        <ele>11.36</ele>
      </trkpt>
      <trkpt lat="59.85612281598151" lon="30.399545431137085">
        <ele>11.15</ele>
      </trkpt>
      <trkpt lat="59.85626229085028" lon="30.39945960044861">
        <ele>10.89</ele>
      </trkpt>
      <trkpt lat="59.856369495391846" lon="30.399277210235596">
        <ele>10.61</ele>
      </trkpt>
      <trkpt lat="59.85644459724426" lon="30.399523973464966">
        <ele>10.22</ele>
      </trkpt>
      <trkpt lat="59.856444681063294" lon="30.399523973464966">
        <ele>9.96</ele>
      </trkpt>
      <trkpt lat="59.85660963691771" lon="30.399984642863274">
        <ele>9.59</ele>
      </trkpt>
      <trkpt lat="59.85677375458181" lon="30.40044279769063">
        <ele>9.42</ele>
      </trkpt>
      <trkpt lat="59.85677375458181" lon="30.40044288150966">
        <ele>9.18</ele>
      </trkpt>
      <trkpt lat="59.85686696134508" lon="30.400702971965075">
        <ele>8.96</ele>
      </trkpt>
      <trkpt lat="59.856959665194154" lon="30.40096163749695">
        <ele>8.78</ele>
      </trkpt>
      <trkpt lat="59.857061840593815" lon="30.401273611932993">
        <ele>8.6</ele>
      </trkpt>
      <trkpt lat="59.857163513079286" lon="30.401583909988403">
        <ele>8.42</ele>
      </trkpt>
      <trkpt lat="59.857260240241885" lon="30.401858249679208">
        <ele>8.23</ele>
      </trkpt>
      <trkpt lat="59.857356548309326" lon="30.40213108062744">
        <ele>8.08</ele>
      </trkpt>
      <trkpt lat="59.85735663212836" lon="30.40213108062744">
        <ele>8.01</ele>
      </trkpt>
      <trkpt lat="59.85738881863654" lon="30.402259826660156">
        <ele>7.98</ele>
      </trkpt>
      <trkpt lat="59.857442462816834" lon="30.40241003036499">
        <ele>8.0</ele>
      </trkpt>
      <trkpt lat="59.857571544125676" lon="30.402791909873486">
        <ele>8.01</ele>
      </trkpt>
      <trkpt lat="59.857699954882264" lon="30.40317177772522">
        <ele>8.09</ele>
      </trkpt>
      <trkpt lat="59.857834400609136" lon="30.40357251651585">
        <ele>8.19</ele>
      </trkpt>
      <trkpt lat="59.85796893015504" lon="30.403973255306482">
        <ele>8.19</ele>
      </trkpt>
      <trkpt lat="59.85810337588191" lon="30.404374077916145">
        <ele>8.24</ele>
      </trkpt>
      <trkpt lat="59.85823639668524" lon="30.404770374298096">
        <ele>8.28</ele>
      </trkpt>
      <trkpt lat="59.858365058898926" lon="30.40514588356018">
        <ele>8.24</ele>
      </trkpt>
      <trkpt lat="59.85836514271796" lon="30.40514588356018">
        <ele>8.2</ele>
      </trkpt>
      <trkpt lat="59.858522890135646" lon="30.40559054352343">
        <ele>8.09</ele>
      </trkpt>
      <trkpt lat="59.858680721372366" lon="30.40603520348668">
        <ele>8.01</ele>
      </trkpt>
      <trkpt lat="59.85883721150458" lon="30.406476259231567">
        <ele>7.83</ele>
      </trkpt>
      <trkpt lat="59.85896595753729" lon="30.406819581985474">
        <ele>7.64</ele>
      </trkpt>
      <trkpt lat="59.8590087890625" lon="30.40690541267395">
        <ele>7.5</ele>
      </trkpt>
      <trkpt lat="59.85900887288153" lon="30.40690541267395">
        <ele>7.36</ele>
      </trkpt>
      <trkpt lat="59.85917734913528" lon="30.40728905238211">
        <ele>7.33</ele>
      </trkpt>
      <trkpt lat="59.85934590920806" lon="30.407672692090273">
        <ele>7.15</ele>
      </trkpt>
      <trkpt lat="59.85951312817633" lon="30.408053398132324">
        <ele>6.91</ele>
      </trkpt>
      <trkpt lat="59.85953458584845" lon="30.408096313476562">
        <ele>6.78</ele>
      </trkpt>
      <trkpt lat="59.85958814620972" lon="30.408214330673218">
        <ele>6.69</ele>
      </trkpt>
      <trkpt lat="59.85958823002875" lon="30.408214330673218">
        <ele>6.59</ele>
      </trkpt>
      <trkpt lat="59.85958814620972" lon="30.408214330673218">
        <ele>6.52</ele>
      </trkpt>
      <trkpt lat="59.859760059043765" lon="30.408230423927307">
        <ele>6.43</ele>
      </trkpt>
      <trkpt lat="59.859931552782655" lon="30.408246517181396">
        <ele>6.5</ele>
      </trkpt>
      <trkpt lat="59.85997438430786" lon="30.408225059509277">
        <ele>6.55</ele>
      </trkpt>
      <trkpt lat="59.85997446812689" lon="30.408225059509277">
        <ele>6.62</ele>
      </trkpt>
      <trkpt lat="59.860257524996996" lon="30.407988522201777">
        <ele>6.67</ele>
      </trkpt>
      <trkpt lat="59.8605405818671" lon="30.407752068713307">
        <ele>6.73</ele>
      </trkpt>
      <trkpt lat="59.8608220461756" lon="30.407516956329346">
        <ele>6.9</ele>
      </trkpt>
      <trkpt lat="59.86105799674988" lon="30.407345294952393">
        <ele>7.19</ele>
      </trkpt>
      <trkpt lat="59.86122999340296" lon="30.40712485089898">
        <ele>7.37</ele>
      </trkpt>
      <trkpt lat="59.861401319503784" lon="30.40690541267395">
        <ele>7.61</ele>
      </trkpt>
      <trkpt lat="59.86148715019226" lon="30.406776666641235">
        <ele>7.91</ele>
      </trkpt>
      <trkpt lat="59.86169150099158" lon="30.406464776024222">
        <ele>8.3</ele>
      </trkpt>
      <trkpt lat="59.861894929781556" lon="30.40615439414978">
        <ele>8.7</ele>
      </trkpt>
      <trkpt lat="59.862106489017606" lon="30.40588365867734">
        <ele>9.0</ele>
      </trkpt>
      <trkpt lat="59.86231729388237" lon="30.405614096671343">
        <ele>9.31</ele>
      </trkpt>
      <trkpt lat="59.86235626973212" lon="30.405564308166504">
        <ele>9.92</ele>
      </trkpt>
      <trkpt lat="59.862248646095395" lon="30.405187625437975">
        <ele>10.32</ele>
      </trkpt>
      <trkpt lat="59.862141693010926" lon="30.404813289642334">
        <ele>10.7</ele>
      </trkpt>
      <trkpt lat="59.86201286315918" lon="30.40441632270813">
        <ele>10.97</ele>
      </trkpt>
      <trkpt lat="59.86201294697821" lon="30.40441632270813">
        <ele>11.14</ele>
      </trkpt>
      <trkpt lat="59.861916387453675" lon="30.404083728790283">
        <ele>11.24</ele>
      </trkpt>
      <trkpt lat="59.86180867999792" lon="30.403728587552905">
        <ele>11.3</ele>
      </trkpt>
      <trkpt lat="59.86170172691345" lon="30.40337562561035">
        <ele>11.3</ele>
      </trkpt>
      <trkpt lat="59.861701810732484" lon="30.40337562561035">
        <ele>11.33</ele>
      </trkpt>
      <trkpt lat="59.86156543716788" lon="30.402898527681828">
        <ele>11.29</ele>
      </trkpt>
      <trkpt lat="59.861429147422314" lon="30.402421513572335">
        <ele>11.2</ele>
      </trkpt>
      <trkpt lat="59.86129411496222" lon="30.40194869041443">
        <ele>11.18</ele>
      </trkpt>
      <trkpt lat="59.86115958541632" lon="30.401485925540328">
        <ele>11.16</ele>
      </trkpt>
      <trkpt lat="59.861025055870414" lon="30.40102324448526">
        <ele>11.19</ele>
      </trkpt>
      <trkpt lat="59.86089061014354" lon="30.40056056343019">
        <ele>11.05</ele>
      </trkpt>
      <trkpt lat="59.86075767315924" lon="30.400103330612183">
        <ele>10.92</ele>
      </trkpt>
      <trkpt lat="59.86063655465841" lon="30.399656742811203">
        <ele>10.94</ele>
      </trkpt>
      <trkpt lat="59.860515436157584" lon="30.399210155010223">
        <ele>11.17</ele>
      </trkpt>
      <trkpt lat="59.86039440147579" lon="30.398763567209244">
        <ele>11.38</ele>
      </trkpt>
      <trkpt lat="59.86027479171753" lon="30.398322343826294">
        <ele>11.47</ele>
      </trkpt>
      <trkpt lat="59.86027487553656" lon="30.398322343826294">
        <ele>11.49</ele>
      </trkpt>
      <trkpt lat="59.86014931462705" lon="30.397863183170557">
        <ele>11.47</ele>
      </trkpt>
      <trkpt lat="59.86002375371754" lon="30.39740402251482">
        <ele>11.32</ele>
      </trkpt>
      <trkpt lat="59.859899366274476" lon="30.39694905281067">
        <ele>11.19</ele>
      </trkpt>
      <trkpt lat="59.85984572209418" lon="30.396766662597656">
        <ele>11.22</ele>
      </trkpt>
      <trkpt lat="59.85979207791388" lon="30.396541357040405">
        <ele>11.32</ele>
      </trkpt>
      <trkpt lat="59.85972762107849" lon="30.396337509155273">
        <ele>11.47</ele>
      </trkpt>
      <trkpt lat="59.85972770489752" lon="30.396337509155273">
        <ele>11.59</ele>
      </trkpt>
      <trkpt lat="59.8596200812608" lon="30.395928556099534">
        <ele>11.82</ele>
      </trkpt>
      <trkpt lat="59.85951245762408" lon="30.395519603043795">
        <ele>12.11</ele>
      </trkpt>
      <trkpt lat="59.859405839815736" lon="30.395114421844482">
        <ele>12.3</ele>
      </trkpt>
      <trkpt lat="59.85928782261908" lon="30.3946852684021">
        <ele>12.41</ele>
      </trkpt>
      <trkpt lat="59.85919117927551" lon="30.394331216812134">
        <ele>12.5</ele>
      </trkpt>
      <trkpt lat="59.859191263094544" lon="30.394331216812134">
        <ele>12.63</ele>
      </trkpt>
      <trkpt lat="59.859159076586366" lon="30.39419174194336">
        <ele>12.76</ele>
      </trkpt>
      <trkpt lat="59.85911616124213" lon="30.394052267074585">
        <ele>12.85</ele>
      </trkpt>
      <trkpt lat="59.85909386537969" lon="30.393963335081935">
        <ele>12.91</ele>
      </trkpt>
      <trkpt lat="59.85909386537969" lon="30.393963418900967">
        <ele>12.97</ele>
      </trkpt>
      <trkpt lat="59.85907324589789" lon="30.393880605697632">
        <ele>13.01</ele>
      </trkpt>
      <trkpt lat="59.85894441604614" lon="30.394009351730347">
        <ele>13.07</ele>
      </trkpt>
      <trkpt lat="59.85882639884949" lon="30.394127368927002">
        <ele>13.07</ele>
      </trkpt>
      <trkpt lat="59.858944499865174" lon="30.39441704750061">
        <ele>13.01</ele>
      </trkpt>
      <trkpt lat="59.85889060422778" lon="30.394872687757015">
        <ele>12.96</ele>
      </trkpt>
      <trkpt lat="59.85883679240942" lon="30.39532832801342">
        <ele>12.79</ele>
      </trkpt>
      <trkpt lat="59.85878348350525" lon="30.395779609680176">
        <ele>12.46</ele>
      </trkpt>
      <trkpt lat="59.85877434723079" lon="30.395860075950623">
        <ele>12.18</ele>
      </trkpt>
      <trkpt lat="59.85878348350525" lon="30.395779609680176">
        <ele>11.62</ele>
      </trkpt>
      <trkpt lat="59.858912313356996" lon="30.39615511894226">
        <ele>11.12</ele>
      </trkpt>
      <trkpt lat="59.85907316207886" lon="30.39665937423706">
        <ele>10.8</ele>
      </trkpt>
      <trkpt lat="59.85921272076666" lon="30.39713144302368">
        <ele>10.61</ele>
      </trkpt>
      <trkpt lat="59.859352111816406" lon="30.39763569831848">
        <ele>10.18</ele>
      </trkpt>
      <trkpt lat="59.85947406850755" lon="30.398058900609612">
        <ele>9.67</ele>
      </trkpt>
      <trkpt lat="59.8595960251987" lon="30.398482102900743">
        <ele>9.12</ele>
      </trkpt>
      <trkpt lat="59.85971697606146" lon="30.39890170097351">
        <ele>8.51</ele>
      </trkpt>
      <trkpt lat="59.85971689224243" lon="30.39890170097351">
        <ele>8.12</ele>
      </trkpt>
      <trkpt lat="59.859853181988" lon="30.39935356937349">
        <ele>7.57</ele>
      </trkpt>
      <trkpt lat="59.85998947173357" lon="30.399805521592498">
        <ele>7.28</ele>
      </trkpt>
      <trkpt lat="59.860124588012695" lon="30.400253534317017">
        <ele>7.11</ele>
      </trkpt>
      <trkpt lat="59.860146045684814" lon="30.400307178497314">
        <ele>6.96</ele>
      </trkpt>
      <trkpt lat="59.860156774520874" lon="30.40038228034973">
        <ele>6.89</ele>
      </trkpt>
      <trkpt lat="59.86023196019232" lon="30.4006290435791">
        <ele>6.87</ele>
      </trkpt>
      <trkpt lat="59.86029624938965" lon="30.400832891464233">
        <ele>6.94</ele>
      </trkpt>
      <trkpt lat="59.86029633320868" lon="30.400832891464233">
        <ele>7.07</ele>
      </trkpt>
      <trkpt lat="59.860392808914185" lon="30.40114402770996">
        <ele>7.33</ele>
      </trkpt>
      <trkpt lat="59.860414266586304" lon="30.40120840072632">
        <ele>7.59</ele>
      </trkpt>
      <trkpt lat="59.86042499542236" lon="30.401262044906616">
        <ele>7.87</ele>
      </trkpt>
      <trkpt lat="59.86047872342169" lon="30.401476621627808">
        <ele>8.21</ele>
      </trkpt>
      <trkpt lat="59.860586263239384" lon="30.401835283264518">
        <ele>8.66</ele>
      </trkpt>
      <trkpt lat="59.860693886876106" lon="30.402193944901228">
        <ele>9.03</ele>
      </trkpt>
      <trkpt lat="59.86080058850348" lon="30.402549505233765">
        <ele>9.37</ele>
      </trkpt>
      <trkpt lat="59.860875606536865" lon="30.402785539627075">
        <ele>9.68</ele>
      </trkpt>
      <trkpt lat="59.86098675057292" lon="30.403154930099845">
        <ele>9.99</ele>
      </trkpt>
      <trkpt lat="59.861097978428006" lon="30.403524320572615">
        <ele>10.17</ele>
      </trkpt>
      <trkpt lat="59.861208284273744" lon="30.40389060974121">
        <ele>10.27</ele>
      </trkpt>
      <trkpt lat="59.861315824091434" lon="30.404240218922496">
        <ele>10.31</ele>
      </trkpt>
      <trkpt lat="59.8614227771759" lon="30.404587984085083">
        <ele>10.33</ele>
      </trkpt>
      <trkpt lat="59.861422860994935" lon="30.404587984085083">
        <ele>10.33</ele>
      </trkpt>
      <trkpt lat="59.8615681193769" lon="30.4050774872303">
        <ele>10.31</ele>
      </trkpt>
      <trkpt lat="59.86171253956854" lon="30.405564308166504">
        <ele>10.22</ele>
      </trkpt>
      <trkpt lat="59.86171245574951" lon="30.405564308166504">
        <ele>10.06</ele>
      </trkpt>
      <trkpt lat="59.86171253956854" lon="30.405564308166504">
        <ele>9.61</ele>
      </trkpt>
      <trkpt lat="59.86163710244" lon="30.40586555376649">
        <ele>9.24</ele>
      </trkpt>
      <trkpt lat="59.86156225204468" lon="30.40616512298584">
        <ele>8.86</ele>
      </trkpt>
      <trkpt lat="59.86156233586371" lon="30.40616512298584">
        <ele>7.88</ele>
      </trkpt>
      <trkpt lat="59.861390674486756" lon="30.4061758518219">
        <ele>7.47</ele>
      </trkpt>
      <trkpt lat="59.86129411496222" lon="30.40614366531372">
        <ele>7.13</ele>
      </trkpt>
      <trkpt lat="59.86100384965539" lon="30.40593939833343">
        <ele>6.76</ele>
      </trkpt>
      <trkpt lat="59.86071467399597" lon="30.405735969543457">
        <ele>6.51</ele>
      </trkpt>
      <trkpt lat="59.8605318646878" lon="30.40549222379923">
        <ele>6.42</ele>
      </trkpt>
      <trkpt lat="59.86034905537963" lon="30.405248478055">
        <ele>6.33</ele>
      </trkpt>
      <trkpt lat="59.860167503356934" lon="30.405006408691406">
        <ele>6.23</ele>
      </trkpt>
      <trkpt lat="59.860167587175965" lon="30.405006408691406">
        <ele>6.16</ele>
      </trkpt>
      <trkpt lat="59.86007605679333" lon="30.404635090380907">
        <ele>6.1</ele>
      </trkpt>
      <trkpt lat="59.85998519696295" lon="30.404266119003296">
        <ele>6.03</ele>
      </trkpt>
      <trkpt lat="59.859877824783325" lon="30.403772592544556">
        <ele>5.92</ele>
      </trkpt>
      <trkpt lat="59.859867012128234" lon="30.403401190415025">
        <ele>5.99</ele>
      </trkpt>
      <trkpt lat="59.859856367111206" lon="30.403032302856445">
        <ele>6.23</ele>
      </trkpt>
      <trkpt lat="59.85993230715394" lon="30.402637515217066">
        <ele>6.49</ele>
      </trkpt>
      <trkpt lat="59.86001738347113" lon="30.4021954536438">
        <ele>6.88</ele>
      </trkpt>
      <trkpt lat="59.85999584197998" lon="30.401852130889893">
        <ele>7.05</ele>
      </trkpt>
      <trkpt lat="59.85988863743842" lon="30.40142297744751">
        <ele>7.19</ele>
      </trkpt>
      <trkpt lat="59.85983499325812" lon="30.40119767189026">
        <ele>7.35</ele>
      </trkpt>
      <trkpt lat="59.85979207791388" lon="30.401036739349365">
        <ele>7.51</ele>
      </trkpt>
      <trkpt lat="59.85965754836798" lon="30.400622421875596">
        <ele>7.69</ele>
      </trkpt>
      <trkpt lat="59.85952385701239" lon="30.40021061897278">
        <ele>7.7</ele>
      </trkpt>
      <trkpt lat="59.85931942239404" lon="30.399850364774466">
        <ele>7.81</ele>
      </trkpt>
      <trkpt lat="59.85911498777568" lon="30.399490194395185">
        <ele>7.98</ele>
      </trkpt>
      <trkpt lat="59.85891063697636" lon="30.39912994019687">
        <ele>8.11</ele>
      </trkpt>
      <trkpt lat="59.85870821401477" lon="30.398773290216923">
        <ele>8.29</ele>
      </trkpt>
      <trkpt lat="59.85870821401477" lon="30.39877320639789">
        <ele>8.34</ele>
      </trkpt>
      <trkpt lat="59.858665466308594" lon="30.39869785308838">
        <ele>8.39</ele>
      </trkpt>
      <trkpt lat="59.85851534642279" lon="30.398837327957153">
        <ele>8.33</ele>
      </trkpt>
      <trkpt lat="59.85825785435736" lon="30.398783683776855">
        <ele>8.31</ele>
      </trkpt>
      <trkpt lat="59.85807538032532" lon="30.398612022399902">
        <ele>8.3</ele>
      </trkpt>
      <trkpt lat="59.85802173614502" lon="30.398751497268677">
        <ele>8.26</ele>
      </trkpt>
      <trkpt lat="59.85802181996405" lon="30.398751497268677">
        <ele>8.24</ele>
      </trkpt>
      <trkpt lat="59.857850074768066" lon="30.39918065071106">
        <ele>8.14</ele>
      </trkpt>
      <trkpt lat="59.85782870091498" lon="30.399245023727417">
        <ele>8.11</ele>
      </trkpt>
      <trkpt lat="59.85780724324286" lon="30.399309396743774">
        <ele>8.1</ele>
      </trkpt>
      <trkpt lat="59.8577428702265" lon="30.39970636367798">
        <ele>8.19</ele>
      </trkpt>
      <trkpt lat="59.85774278640747" lon="30.39970636367798">
        <ele>8.18</ele>
      </trkpt>
      <trkpt lat="59.8577428702265" lon="30.39970636367798">
        <ele>8.16</ele>
      </trkpt>
      <trkpt lat="59.85778578557074" lon="30.399749279022217">
        <ele>8.16</ele>
      </trkpt>
      <trkpt lat="59.857914531603456" lon="30.39992094039917">
        <ele>8.16</ele>
      </trkpt>
      <trkpt lat="59.858172023668885" lon="30.400221347808838">
        <ele>8.01</ele>
      </trkpt>
      <trkpt lat="59.85831141471863" lon="30.400371551513672">
        <ele>7.97</ele>
      </trkpt>
      <trkpt lat="59.8584458604455" lon="30.400704983621836">
        <ele>7.93</ele>
      </trkpt>
      <trkpt lat="59.85857971943915" lon="30.401036739349365">
        <ele>7.89</ele>
      </trkpt>
      <trkpt lat="59.85857963562012" lon="30.401036739349365">
        <ele>7.82</ele>
      </trkpt>
      <trkpt lat="59.85873562283814" lon="30.40148315951228">
        <ele>7.98</ele>
      </trkpt>
      <trkpt lat="59.858890771865845" lon="30.40192723274231">
        <ele>7.91</ele>
      </trkpt>
      <trkpt lat="59.858955228701234" lon="30.402506589889526">
        <ele>7.65</ele>
      </trkpt>
      <trkpt lat="59.8589551448822" lon="30.402506589889526">
        <ele>7.47</ele>
      </trkpt>
      <trkpt lat="59.858923042193055" lon="30.402967929840088">
        <ele>7.1</ele>
      </trkpt>
      <trkpt lat="59.858912229537964" lon="30.403495403006673">
        <ele>6.76</ele>
      </trkpt>
      <trkpt lat="59.858901584520936" lon="30.404019355773926">
        <ele>6.49</ele>
      </trkpt>
      <trkpt lat="59.858944583684206" lon="30.404336862266064">
        <ele>6.31</ele>
      </trkpt>
      <trkpt lat="59.85898741520941" lon="30.40465235710144">
        <ele>6.12</ele>
      </trkpt>
      <trkpt lat="59.85905279405415" lon="30.404902724549174">
        <ele>6.03</ele>
      </trkpt>
      <trkpt lat="59.859169805422425" lon="30.405349731445312">
        <ele>5.95</ele>
      </trkpt>
      <trkpt lat="59.859169721603394" lon="30.405349731445312">
        <ele>5.9</ele>
      </trkpt>
      <trkpt lat="59.8593092802912" lon="30.40588617324829">
        <ele>5.98</ele>
      </trkpt>
      <trkpt lat="59.85930919647217" lon="30.40588617324829">
        <ele>5.96</ele>
      </trkpt>
      <trkpt lat="59.85950231552124" lon="30.406304597854614">
        <ele>6.0</ele>
      </trkpt>
      <trkpt lat="59.859684789553285" lon="30.406508445739746">
        <ele>5.96</ele>
      </trkpt>
      <trkpt lat="59.85996415838599" lon="30.406728722155094">
        <ele>5.87</ele>
      </trkpt>
      <trkpt lat="59.86024260520935" lon="30.40694832801819">
        <ele>5.79</ele>
      </trkpt>
      <trkpt lat="59.86039850860834" lon="30.40719559416175">
        <ele>5.76</ele>
      </trkpt>
      <trkpt lat="59.86055382527411" lon="30.40744185447693">
        <ele>5.78</ele>
      </trkpt>
      <trkpt lat="59.86055374145508" lon="30.40744185447693">
        <ele>5.81</ele>
      </trkpt>
      <trkpt lat="59.86082196235657" lon="30.407516956329346">
        <ele>5.93</ele>
      </trkpt>
      <trkpt lat="59.86076446250081" lon="30.40756498463452">
        <ele>5.94</ele>
      </trkpt>
      <trkpt lat="59.8608220461756" lon="30.407516956329346">
        <ele>6.06</ele>
      </trkpt>
      <trkpt lat="59.86105799674988" lon="30.407345294952393">
        <ele>6.19</ele>
      </trkpt>
      <trkpt lat="59.86122999340296" lon="30.40712485089898">
        <ele>6.17</ele>
      </trkpt>
      <trkpt lat="59.861401403322816" lon="30.40690541267395">
        <ele>6.18</ele>
      </trkpt>
      <trkpt lat="59.86146577633917" lon="30.40666937828064">
        <ele>6.21</ele>
      </trkpt>
      <trkpt lat="59.86142344772816" lon="30.40639193728566">
        <ele>6.2</ele>
      </trkpt>
      <trkpt lat="59.86142344772816" lon="30.40639185346663">
        <ele>6.2</ele>
      </trkpt>
      <trkpt lat="59.861390674486756" lon="30.4061758518219">
        <ele>6.2</ele>
      </trkpt>
      <trkpt lat="59.86129411496222" lon="30.40614366531372">
        <ele>6.14</ele>
      </trkpt>
      <trkpt lat="59.86100384965539" lon="30.40593939833343">
        <ele>6.03</ele>
      </trkpt>
      <trkpt lat="59.86071467399597" lon="30.405735969543457">
        <ele>6.0</ele>
      </trkpt>
      <trkpt lat="59.8605318646878" lon="30.40549222379923">
        <ele>6.1</ele>
      </trkpt>
      <trkpt lat="59.86034905537963" lon="30.405248478055">
        <ele>6.17</ele>
      </trkpt>
      <trkpt lat="59.860167503356934" lon="30.405006408691406">
        <ele>6.2</ele>
      </trkpt>
      <trkpt lat="59.860167587175965" lon="30.405006408691406">
        <ele>6.22</ele>
      </trkpt>
      <trkpt lat="59.86007605679333" lon="30.404635090380907">
        <ele>6.24</ele>
      </trkpt>
      <trkpt lat="59.85998519696295" lon="30.404266119003296">
        <ele>6.21</ele>
      </trkpt>
      <trkpt lat="59.859877824783325" lon="30.403772592544556">
        <ele>6.13</ele>
      </trkpt>
      <trkpt lat="59.859867012128234" lon="30.403401190415025">
        <ele>6.21</ele>
      </trkpt>
      <trkpt lat="59.859856367111206" lon="30.403032302856445">
        <ele>6.44</ele>
      </trkpt>
      <trkpt lat="59.859859300777316" lon="30.40301696397364">
        <ele>6.57</ele>
      </trkpt>
      <trkpt lat="59.85993850976229" lon="30.40260490961373">
        <ele>6.98</ele>
      </trkpt>
      <trkpt lat="59.86001738347113" lon="30.4021954536438">
        <ele>7.18</ele>
      </trkpt>
      <trkpt lat="59.85999584197998" lon="30.401852130889893">
        <ele>7.32</ele>
      </trkpt>
      <trkpt lat="59.85988863743842" lon="30.40142297744751">
        <ele>7.43</ele>
      </trkpt>
      <trkpt lat="59.85983499325812" lon="30.40119767189026">
        <ele>7.56</ele>
      </trkpt>
      <trkpt lat="59.85979207791388" lon="30.401036739349365">
        <ele>7.69</ele>
      </trkpt>
      <trkpt lat="59.85965754836798" lon="30.400622421875596">
        <ele>7.82</ele>
      </trkpt>
      <trkpt lat="59.85952385701239" lon="30.40021061897278">
        <ele>7.8</ele>
      </trkpt>
      <trkpt lat="59.85930869355798" lon="30.39983150549233">
        <ele>7.88</ele>
      </trkpt>
      <trkpt lat="59.859093613922596" lon="30.39945239201188">
        <ele>8.01</ele>
      </trkpt>
      <trkpt lat="59.85887845046818" lon="30.399073278531432">
        <ele>8.12</ele>
      </trkpt>
      <trkpt lat="59.858665466308594" lon="30.39869785308838">
        <ele>8.27</ele>
      </trkpt>
      <trkpt lat="59.85851534642279" lon="30.398837327957153">
        <ele>8.23</ele>
      </trkpt>
      <trkpt lat="59.858467653393745" lon="30.39882743731141">
        <ele>8.24</ele>
      </trkpt>
      <trkpt lat="59.85825785435736" lon="30.398783683776855">
        <ele>8.24</ele>
      </trkpt>
      <trkpt lat="59.85807538032532" lon="30.398612022399902">
        <ele>8.23</ele>
      </trkpt>
      <trkpt lat="59.85802173614502" lon="30.398751497268677">
        <ele>8.2</ele>
      </trkpt>
      <trkpt lat="59.85802181996405" lon="30.398751497268677">
        <ele>8.19</ele>
      </trkpt>
      <trkpt lat="59.857850074768066" lon="30.39918065071106">
        <ele>8.09</ele>
      </trkpt>
      <trkpt lat="59.85782870091498" lon="30.399245023727417">
        <ele>8.07</ele>
      </trkpt>
      <trkpt lat="59.85780724324286" lon="30.399309396743774">
        <ele>8.05</ele>
      </trkpt>
      <trkpt lat="59.8577428702265" lon="30.39970636367798">
        <ele>8.14</ele>
      </trkpt>
      <trkpt lat="59.85778578557074" lon="30.399749279022217">
        <ele>8.14</ele>
      </trkpt>
      <trkpt lat="59.857914531603456" lon="30.39992094039917">
        <ele>8.14</ele>
      </trkpt>
      <trkpt lat="59.858172023668885" lon="30.400221347808838">
        <ele>7.99</ele>
      </trkpt>
      <trkpt lat="59.85831141471863" lon="30.400371551513672">
        <ele>7.95</ele>
      </trkpt>
      <trkpt lat="59.8584458604455" lon="30.400704983621836">
        <ele>7.9</ele>
      </trkpt>
      <trkpt lat="59.85857971943915" lon="30.401036739349365">
        <ele>7.86</ele>
      </trkpt>
      <trkpt lat="59.85857963562012" lon="30.401036739349365">
        <ele>7.78</ele>
      </trkpt>
      <trkpt lat="59.85873562283814" lon="30.40148315951228">
        <ele>7.94</ele>
      </trkpt>
      <trkpt lat="59.858890771865845" lon="30.40192723274231">
        <ele>7.86</ele>
      </trkpt>
      <trkpt lat="59.858955228701234" lon="30.402506589889526">
        <ele>7.59</ele>
      </trkpt>
      <trkpt lat="59.8589551448822" lon="30.402506589889526">
        <ele>7.4</ele>
      </trkpt>
      <trkpt lat="59.858923042193055" lon="30.402967929840088">
        <ele>7.01</ele>
      </trkpt>
      <trkpt lat="59.858912229537964" lon="30.403495403006673">
        <ele>6.65</ele>
      </trkpt>
      <trkpt lat="59.858901584520936" lon="30.404019355773926">
        <ele>6.37</ele>
      </trkpt>
      <trkpt lat="59.858901500701904" lon="30.404019355773926">
        <ele>6.18</ele>
      </trkpt>
      <trkpt lat="59.858901584520936" lon="30.404019355773926">
        <ele>5.86</ele>
      </trkpt>
      <trkpt lat="59.858944583684206" lon="30.404336862266064">
        <ele>5.74</ele>
      </trkpt>
      <trkpt lat="59.85898741520941" lon="30.40465235710144">
        <ele>5.62</ele>
      </trkpt>
      <trkpt lat="59.859078861773014" lon="30.405002050101757">
        <ele>5.62</ele>
      </trkpt>
      <trkpt lat="59.859169805422425" lon="30.405349731445312">
        <ele>5.66</ele>
      </trkpt>
      <trkpt lat="59.859169721603394" lon="30.405349731445312">
        <ele>5.65</ele>
      </trkpt>
      <trkpt lat="59.8593092802912" lon="30.40588617324829">
        <ele>5.77</ele>
      </trkpt>
      <trkpt lat="59.85930919647217" lon="30.40588617324829">
        <ele>5.78</ele>
      </trkpt>
      <trkpt lat="59.85950231552124" lon="30.406304597854614">
        <ele>5.84</ele>
      </trkpt>
      <trkpt lat="59.859684789553285" lon="30.406508445739746">
        <ele>5.82</ele>
      </trkpt>
      <trkpt lat="59.85996415838599" lon="30.406728722155094">
        <ele>5.75</ele>
      </trkpt>
      <trkpt lat="59.86024260520935" lon="30.40694832801819">
        <ele>5.68</ele>
      </trkpt>
      <trkpt lat="59.86039850860834" lon="30.40719559416175">
        <ele>5.65</ele>
      </trkpt>
      <trkpt lat="59.86055382527411" lon="30.40744185447693">
        <ele>5.67</ele>
      </trkpt>
      <trkpt lat="59.86055374145508" lon="30.40744185447693">
        <ele>5.7</ele>
      </trkpt>
      <trkpt lat="59.86060554161668" lon="30.407456355169415">
        <ele>5.73</ele>
      </trkpt>
      <trkpt lat="59.8608220461756" lon="30.407516956329346">
        <ele>5.88</ele>
      </trkpt>
      <trkpt lat="59.86105799674988" lon="30.407345294952393">
        <ele>6.01</ele>
      </trkpt>
      <trkpt lat="59.861268382519484" lon="30.407075732946396">
        <ele>5.97</ele>
      </trkpt>
      <trkpt lat="59.861401403322816" lon="30.40690541267395">
        <ele>5.98</ele>
      </trkpt>
      <trkpt lat="59.86146577633917" lon="30.40666937828064">
        <ele>6.0</ele>
      </trkpt>
      <trkpt lat="59.861390674486756" lon="30.4061758518219">
        <ele>5.99</ele>
      </trkpt>
      <trkpt lat="59.86129411496222" lon="30.40614366531372">
        <ele>5.93</ele>
      </trkpt>
      <trkpt lat="59.8611241299659" lon="30.406024055555463">
        <ele>5.86</ele>
      </trkpt>
      <trkpt lat="59.86095489934087" lon="30.405905032530427">
        <ele>5.79</ele>
      </trkpt>
      <trkpt lat="59.86071467399597" lon="30.405735969543457">
        <ele>5.81</ele>
      </trkpt>
      <trkpt lat="59.8605318646878" lon="30.40549222379923">
        <ele>5.95</ele>
      </trkpt>
      <trkpt lat="59.86034905537963" lon="30.405248478055">
        <ele>6.06</ele>
      </trkpt>
      <trkpt lat="59.860167503356934" lon="30.405006408691406">
        <ele>6.13</ele>
      </trkpt>
      <trkpt lat="59.860167587175965" lon="30.405006408691406">
        <ele>6.19</ele>
      </trkpt>
      <trkpt lat="59.86007605679333" lon="30.404635090380907">
        <ele>6.25</ele>
      </trkpt>
      <trkpt lat="59.85998519696295" lon="30.404266119003296">
        <ele>6.27</ele>
      </trkpt>
      <trkpt lat="59.859877824783325" lon="30.403772592544556">
        <ele>6.24</ele>
      </trkpt>
      <trkpt lat="59.859867012128234" lon="30.403401190415025">
        <ele>6.37</ele>
      </trkpt>
      <trkpt lat="59.859856367111206" lon="30.403032302856445">
        <ele>6.65</ele>
      </trkpt>
      <trkpt lat="59.85990799963474" lon="30.402763662859797">
        <ele>6.87</ele>
      </trkpt>
      <trkpt lat="59.85990799963474" lon="30.40276374667883">
        <ele>7.04</ele>
      </trkpt>
      <trkpt lat="59.86001738347113" lon="30.4021954536438">
        <ele>7.34</ele>
      </trkpt>
      <trkpt lat="59.85999584197998" lon="30.401852130889893">
        <ele>7.5</ele>
      </trkpt>
      <trkpt lat="59.85988863743842" lon="30.40142297744751">
        <ele>7.62</ele>
      </trkpt>
      <trkpt lat="59.85983499325812" lon="30.40119767189026">
        <ele>7.76</ele>
      </trkpt>
      <trkpt lat="59.85979207791388" lon="30.401036739349365">
        <ele>7.89</ele>
      </trkpt>
      <trkpt lat="59.85965754836798" lon="30.400622421875596">
        <ele>8.02</ele>
      </trkpt>
      <trkpt lat="59.85952385701239" lon="30.40021061897278">
        <ele>7.98</ele>
      </trkpt>
      <trkpt lat="59.85930869355798" lon="30.39983150549233">
        <ele>8.04</ele>
      </trkpt>
      <trkpt lat="59.859093613922596" lon="30.39945239201188">
        <ele>8.15</ele>
      </trkpt>
      <trkpt lat="59.85887845046818" lon="30.399073278531432">
        <ele>8.22</ele>
      </trkpt>
      <trkpt lat="59.858665466308594" lon="30.39869785308838">
        <ele>8.3</ele>
      </trkpt>
      <trkpt lat="59.85859975218773" lon="30.398758873343468">
        <ele>8.22</ele>
      </trkpt>
      <trkpt lat="59.85851534642279" lon="30.398837327957153">
        <ele>8.0</ele>
      </trkpt>
      <trkpt lat="59.85825785435736" lon="30.398783683776855">
        <ele>7.85</ele>
      </trkpt>
      <trkpt lat="59.85807538032532" lon="30.398612022399902">
        <ele>7.71</ele>
      </trkpt>
      <trkpt lat="59.85802173614502" lon="30.398751497268677">
        <ele>7.4</ele>
      </trkpt>
      <trkpt lat="59.85802181996405" lon="30.398751497268677">
        <ele>7.23</ele>
      </trkpt>
      <trkpt lat="59.857850074768066" lon="30.39918065071106">
        <ele>7.0</ele>
      </trkpt>
      <trkpt lat="59.85782870091498" lon="30.399245023727417">
        <ele>6.86</ele>
      </trkpt>
      <trkpt lat="59.85780715942383" lon="30.399309396743774">
        <ele>6.75</ele>
      </trkpt>
      <trkpt lat="59.85762485302985" lon="30.399588346481323">
        <ele>6.73</ele>
      </trkpt>
      <trkpt lat="59.857410276308656" lon="30.399363040924072">
        <ele>6.63</ele>
      </trkpt>
      <trkpt lat="59.857249008491635" lon="30.3992285951972">
        <ele>6.61</ele>
      </trkpt>
      <trkpt lat="59.85708841122687" lon="30.399094820022583">
        <ele>6.61</ele>
      </trkpt>
      <trkpt lat="59.85679873265326" lon="30.399094820022583">
        <ele>6.71</ele>
      </trkpt>
      <trkpt lat="59.85679864883423" lon="30.399094820022583">
        <ele>6.88</ele>
      </trkpt>
      <trkpt lat="59.85679873265326" lon="30.399094820022583">
        <ele>7.41</ele>
      </trkpt>
      <trkpt lat="59.85673427581787" lon="30.39913773536682">
        <ele>7.79</ele>
      </trkpt>
      <trkpt lat="59.8567343596369" lon="30.39913773536682">
        <ele>8.2</ele>
      </trkpt>
      <trkpt lat="59.85655163414776" lon="30.39920755662024">
        <ele>8.79</ele>
      </trkpt>
      <trkpt lat="59.85636957921088" lon="30.399277210235596">
        <ele>9.41</ele>
      </trkpt>
      <trkpt lat="59.85626229085028" lon="30.39945960044861">
        <ele>9.86</ele>
      </trkpt>
      <trkpt lat="59.85612281598151" lon="30.399545431137085">
        <ele>10.28</ele>
      </trkpt>
      <trkpt lat="59.855882758274674" lon="30.399570493027568">
        <ele>10.65</ele>
      </trkpt>
      <trkpt lat="59.85564270056784" lon="30.39959555491805">
        <ele>10.91</ele>
      </trkpt>
      <trkpt lat="59.855403900146484" lon="30.399620532989502">
        <ele>11.22</ele>
      </trkpt>
      <trkpt lat="59.85527515411377" lon="30.4001784324646">
        <ele>11.4</ele>
      </trkpt>
      <trkpt lat="59.855103492736816" lon="30.40039300918579">
        <ele>11.47</ele>
      </trkpt>
      <trkpt lat="59.85491012223065" lon="30.400373646989465">
        <ele>11.45</ele>
      </trkpt>
      <trkpt lat="59.85478171147406" lon="30.400360822677612">
        <ele>11.48</ele>
      </trkpt>
      <trkpt lat="59.85472806729376" lon="30.400296449661255">
        <ele>11.48</ele>
      </trkpt>
      <trkpt lat="59.8545777797699" lon="30.399996042251587">
        <ele>11.43</ele>
      </trkpt>
      <trkpt lat="59.854546934366226" lon="30.39976160041988">
        <ele>11.48</ele>
      </trkpt>
      <trkpt lat="59.85452421940863" lon="30.399588346481323">
        <ele>11.45</ele>
      </trkpt>
      <trkpt lat="59.85452421940863" lon="30.399470329284668">
        <ele>11.42</ele>
      </trkpt>
      <trkpt lat="59.85453494824469" lon="30.399341583251953">
        <ele>11.39</ele>
      </trkpt>
      <trkpt lat="59.85455632209778" lon="30.399223566055298">
        <ele>11.38</ele>
      </trkpt>
      <trkpt lat="59.85458859242499" lon="30.399105548858643">
        <ele>11.38</ele>
      </trkpt>
      <trkpt lat="59.85463150776923" lon="30.398966073989868">
        <ele>11.37</ele>
      </trkpt>
      <trkpt lat="59.854631423950195" lon="30.398966073989868">
        <ele>11.42</ele>
      </trkpt>
      <trkpt lat="59.854787327349186" lon="30.398826263844967">
        <ele>11.58</ele>
      </trkpt>
      <trkpt lat="59.854942644014955" lon="30.39868712425232">
        <ele>11.58</ele>
      </trkpt>
      <trkpt lat="59.85512478277087" lon="30.398820731788874">
        <ele>11.69</ele>
      </trkpt>
      <trkpt lat="59.85526442527771" lon="30.39892315864563">
        <ele>11.78</ele>
      </trkpt>
      <trkpt lat="59.85529669560492" lon="30.398488976061344">
        <ele>11.72</ele>
      </trkpt>
      <trkpt lat="59.85532904975116" lon="30.39805479347706">
        <ele>11.7</ele>
      </trkpt>
      <trkpt lat="59.85536106862128" lon="30.397624969482422">
        <ele>11.6</ele>
      </trkpt>
      <trkpt lat="59.855360984802246" lon="30.397624969482422">
        <ele>11.58</ele>
      </trkpt>
    </trkseg>
  </trk>
</gpx>
