<?xml version="1.0" encoding="UTF-8"?>
<gpx creator="Garmin Connect" version="1.1"
  xsi:schemaLocation="http://www.topografix.com/GPX/1/1 http://www.topografix.com/GPX/11.xsd"
  xmlns:ns3="http://www.garmin.com/xmlschemas/TrackPointExtension/v1"
  xmlns="http://www.topografix.com/GPX/1/1"
  xmlns:xsi="http://www.w3.org/2001/XMLSchema-instance" xmlns:ns2="http://www.garmin.com/xmlschemas/GpxExtensions/v3">
  <metadata>
    <name>Парк Героев-Пожарных и Интернационалистов
Купчино (м. Проспект Славы)  Бег 4,99 км</name>
    <link href="connect.garmin.com">
      <text>Garmin Connect</text>
    </link>
    <time>2026-09-25T22:41:25.000Z</time>
  </metadata>
  <trk>
    <name>Парк Героев-Пожарных и Интернационалистов
Купчино (м. Проспект Славы)  Бег 4,99 км</name>
    <trkseg>
      <trkpt lat="59.85535025596619" lon="30.397260189056396">
        <ele>10.85</ele>
      </trkpt>
      <trkpt lat="59.85525378026068" lon="30.39737820625305">
        <ele>10.74</ele>
      </trkpt>
      <trkpt lat="59.85526450909674" lon="30.397571325302124">
        <ele>10.8</ele>
      </trkpt>
      <trkpt lat="59.85528588294983" lon="30.397603511810303">
        <ele>10.9</ele>
      </trkpt>
      <trkpt lat="59.85517113469541" lon="30.397965693846345">
        <ele>11.01</ele>
      </trkpt>
      <trkpt lat="59.85505638644099" lon="30.39832795970142">
        <ele>11.08</ele>
      </trkpt>
      <trkpt lat="59.854942644014955" lon="30.39868712425232">
        <ele>11.19</ele>
      </trkpt>
      <trkpt lat="59.85478665679693" lon="30.39882685057819">
        <ele>11.29</ele>
      </trkpt>
      <trkpt lat="59.854631423950195" lon="30.398966073989868">
        <ele>11.19</ele>
      </trkpt>
      <trkpt lat="59.85463150776923" lon="30.398966073989868">
        <ele>11.16</ele>
      </trkpt>
      <trkpt lat="59.85458859242499" lon="30.399105548858643">
        <ele>11.17</ele>
      </trkpt>
      <trkpt lat="59.85455632209778" lon="30.399223566055298">
        <ele>11.15</ele>
      </trkpt>
      <trkpt lat="59.85453486442566" lon="30.399341583251953">
        <ele>11.11</ele>
      </trkpt>
      <trkpt lat="59.85453494824469" lon="30.399341583251953">
        <ele>10.98</ele>
      </trkpt>
      <trkpt lat="59.85452421940863" lon="30.399470329284668">
        <ele>10.92</ele>
      </trkpt>
      <trkpt lat="59.85452421940863" lon="30.399588346481323">
        <ele>10.86</ele>
      </trkpt>
      <trkpt lat="59.85439547337592" lon="30.399523973464966">
        <ele>10.79</ele>
      </trkpt>
      <trkpt lat="59.85428818501532" lon="30.399609804153442">
        <ele>10.71</ele>
      </trkpt>
      <trkpt lat="59.85407360829413" lon="30.399835109710693">
        <ele>10.59</ele>
      </trkpt>
      <trkpt lat="59.85389616340399" lon="30.400012470781803">
        <ele>10.52</ele>
      </trkpt>
      <trkpt lat="59.85371947288513" lon="30.40018916130066">
        <ele>10.35</ele>
      </trkpt>
      <trkpt lat="59.85371955670416" lon="30.40018916130066">
        <ele>10.24</ele>
      </trkpt>
      <trkpt lat="59.85355828888714" lon="30.400258982554078">
        <ele>10.05</ele>
      </trkpt>
      <trkpt lat="59.853397691622376" lon="30.400328636169434">
        <ele>9.9</ele>
      </trkpt>
      <trkpt lat="59.853140115737915" lon="30.400092601776123">
        <ele>9.85</ele>
      </trkpt>
      <trkpt lat="59.852957809343934" lon="30.400092601776123">
        <ele>9.77</ele>
      </trkpt>
      <trkpt lat="59.8527539614588" lon="30.40014624595642">
        <ele>9.64</ele>
      </trkpt>
      <trkpt lat="59.85255120322108" lon="30.40018681436777">
        <ele>9.59</ele>
      </trkpt>
      <trkpt lat="59.852432096377015" lon="30.40021061897278">
        <ele>9.51</ele>
      </trkpt>
      <trkpt lat="59.85224962234497" lon="30.400274991989136">
        <ele>9.5</ele>
      </trkpt>
      <trkpt lat="59.852163875475526" lon="30.400232076644897">
        <ele>9.44</ele>
      </trkpt>
      <trkpt lat="59.851906383410096" lon="30.400296449661255">
        <ele>9.33</ele>
      </trkpt>
      <trkpt lat="59.851895570755005" lon="30.400532484054565">
        <ele>9.25</ele>
      </trkpt>
      <trkpt lat="59.85189565457404" lon="30.400532484054565">
        <ele>9.15</ele>
      </trkpt>
      <trkpt lat="59.851906383410096" lon="30.40101150982082">
        <ele>9.05</ele>
      </trkpt>
      <trkpt lat="59.851917112246156" lon="30.401490535587072">
        <ele>8.94</ele>
      </trkpt>
      <trkpt lat="59.851927841082215" lon="30.401969561353326">
        <ele>8.78</ele>
      </trkpt>
      <trkpt lat="59.85193848609924" lon="30.40244221687317">
        <ele>8.57</ele>
      </trkpt>
      <trkpt lat="59.85203512944281" lon="30.40244221687317">
        <ele>8.24</ele>
      </trkpt>
      <trkpt lat="59.85203990712762" lon="30.40300313383341">
        <ele>8.08</ele>
      </trkpt>
      <trkpt lat="59.85204468481243" lon="30.40356413461268">
        <ele>8.02</ele>
      </trkpt>
      <trkpt lat="59.852049462497234" lon="30.40412505157292">
        <ele>7.72</ele>
      </trkpt>
      <trkpt lat="59.85205424018204" lon="30.40468605235219">
        <ele>7.5</ele>
      </trkpt>
      <trkpt lat="59.85205901786685" lon="30.40524696931243">
        <ele>7.54</ele>
      </trkpt>
      <trkpt lat="59.85206379555166" lon="30.4058079700917">
        <ele>7.52</ele>
      </trkpt>
      <trkpt lat="59.852068573236465" lon="30.40636888705194">
        <ele>7.43</ele>
      </trkpt>
      <trkpt lat="59.85207335092127" lon="30.40692988783121">
        <ele>7.35</ele>
      </trkpt>
      <trkpt lat="59.85207796096802" lon="30.407474040985107">
        <ele>7.27</ele>
      </trkpt>
      <trkpt lat="59.85223386436701" lon="30.40773211978376">
        <ele>7.16</ele>
      </trkpt>
      <trkpt lat="59.852389097213745" lon="30.407989025115967">
        <ele>7.09</ele>
      </trkpt>
      <trkpt lat="59.852453554049134" lon="30.40841817855835">
        <ele>7.15</ele>
      </trkpt>
      <trkpt lat="59.852496553212404" lon="30.40878413245082">
        <ele>7.07</ele>
      </trkpt>
      <trkpt lat="59.85253938473761" lon="30.4091477394104">
        <ele>7.09</ele>
      </trkpt>
      <trkpt lat="59.85253930091858" lon="30.4091477394104">
        <ele>7.2</ele>
      </trkpt>
      <trkpt lat="59.852635860443115" lon="30.40940523147583">
        <ele>7.44</ele>
      </trkpt>
      <trkpt lat="59.85279687680304" lon="30.409512519836426">
        <ele>7.69</ele>
      </trkpt>
      <trkpt lat="59.85279679298401" lon="30.409512519836426">
        <ele>7.93</ele>
      </trkpt>
      <trkpt lat="59.85279687680304" lon="30.409512519836426">
        <ele>8.5</ele>
      </trkpt>
      <trkpt lat="59.85301178880036" lon="30.409426521509886">
        <ele>8.84</ele>
      </trkpt>
      <trkpt lat="59.85322603024542" lon="30.409340858459473">
        <ele>9.22</ele>
      </trkpt>
      <trkpt lat="59.853387298062444" lon="30.408964343369007">
        <ele>9.66</ele>
      </trkpt>
      <trkpt lat="59.85354781150818" lon="30.408589839935303">
        <ele>10.05</ele>
      </trkpt>
      <trkpt lat="59.85376280732453" lon="30.408455478027463">
        <ele>10.51</ele>
      </trkpt>
      <trkpt lat="59.85397704876959" lon="30.408321619033813">
        <ele>10.9</ele>
      </trkpt>
      <trkpt lat="59.85397696495056" lon="30.408321619033813">
        <ele>11.17</ele>
      </trkpt>
      <trkpt lat="59.85397704876959" lon="30.408321619033813">
        <ele>11.59</ele>
      </trkpt>
      <trkpt lat="59.85404150560498" lon="30.408009476959705">
        <ele>11.65</ele>
      </trkpt>
      <trkpt lat="59.854105710983276" lon="30.40769934654236">
        <ele>11.65</ele>
      </trkpt>
      <trkpt lat="59.85421299934387" lon="30.407227277755737">
        <ele>11.65</ele>
      </trkpt>
      <trkpt lat="59.854363203048706" lon="30.407280921936035">
        <ele>11.78</ele>
      </trkpt>
      <trkpt lat="59.85451349057257" lon="30.40719509124756">
        <ele>11.93</ele>
      </trkpt>
      <trkpt lat="59.85455648973584" lon="30.40684523060918">
        <ele>12.01</ele>
      </trkpt>
      <trkpt lat="59.85459923744202" lon="30.406497716903687">
        <ele>12.1</ele>
      </trkpt>
      <trkpt lat="59.85470677725971" lon="30.40618029423058">
        <ele>12.15</ele>
      </trkpt>
      <trkpt lat="59.85481381416321" lon="30.405864715576172">
        <ele>12.21</ele>
      </trkpt>
      <trkpt lat="59.854910457506776" lon="30.405789613723755">
        <ele>12.18</ele>
      </trkpt>
      <trkpt lat="59.85496401786804" lon="30.40517807006836">
        <ele>12.05</ele>
      </trkpt>
      <trkpt lat="59.854921186342835" lon="30.40492057800293">
        <ele>11.99</ele>
      </trkpt>
      <trkpt lat="59.854921102523804" lon="30.40492057800293">
        <ele>11.9</ele>
      </trkpt>
      <trkpt lat="59.85482420772314" lon="30.404673144221306">
        <ele>11.8</ele>
      </trkpt>
      <trkpt lat="59.85472798347473" lon="30.40442705154419">
        <ele>11.57</ele>
      </trkpt>
      <trkpt lat="59.85469579696655" lon="30.404008626937866">
        <ele>11.55</ele>
      </trkpt>
      <trkpt lat="59.85461005009711" lon="30.403772592544556">
        <ele>11.42</ele>
      </trkpt>
      <trkpt lat="59.854491613805294" lon="30.403525158762932">
        <ele>11.35</ele>
      </trkpt>
      <trkpt lat="59.854373931884766" lon="30.403279066085815">
        <ele>11.21</ele>
      </trkpt>
      <trkpt lat="59.854239569976926" lon="30.403101621195674">
        <ele>11.07</ele>
      </trkpt>
      <trkpt lat="59.85410579480231" lon="30.40292501449585">
        <ele>10.94</ele>
      </trkpt>
      <trkpt lat="59.854105710983276" lon="30.40292501449585">
        <ele>10.86</ele>
      </trkpt>
      <trkpt lat="59.85409498214722" lon="30.40239930152893">
        <ele>10.84</ele>
      </trkpt>
      <trkpt lat="59.854073356837034" lon="30.402310453355312">
        <ele>10.78</ele>
      </trkpt>
      <trkpt lat="59.854073356837034" lon="30.402310537174344">
        <ele>10.75</ele>
      </trkpt>
      <trkpt lat="59.85398777760565" lon="30.40195941925049">
        <ele>10.73</ele>
      </trkpt>
      <trkpt lat="59.85398769378662" lon="30.40195941925049">
        <ele>10.73</ele>
      </trkpt>
      <trkpt lat="59.85409498214722" lon="30.40239930152893">
        <ele>10.82</ele>
      </trkpt>
      <trkpt lat="59.854105710983276" lon="30.40292501449585">
        <ele>10.84</ele>
      </trkpt>
      <trkpt lat="59.85410579480231" lon="30.40292501449585">
        <ele>10.92</ele>
      </trkpt>
      <trkpt lat="59.854240072891116" lon="30.40310237556696">
        <ele>11.06</ele>
      </trkpt>
      <trkpt lat="59.854373931884766" lon="30.403279066085815">
        <ele>11.21</ele>
      </trkpt>
      <trkpt lat="59.85449228435755" lon="30.403526416048408">
        <ele>11.36</ele>
      </trkpt>
      <trkpt lat="59.85461005009711" lon="30.403772592544556">
        <ele>11.45</ele>
      </trkpt>
      <trkpt lat="59.85469579696655" lon="30.404008626937866">
        <ele>11.6</ele>
      </trkpt>
      <trkpt lat="59.85472798347473" lon="30.40442705154419">
        <ele>11.65</ele>
      </trkpt>
      <trkpt lat="59.85482479445636" lon="30.40467440150678">
        <ele>11.91</ele>
      </trkpt>
      <trkpt lat="59.854921102523804" lon="30.40492057800293">
        <ele>12.05</ele>
      </trkpt>
      <trkpt lat="59.854921186342835" lon="30.40492057800293">
        <ele>12.17</ele>
      </trkpt>
      <trkpt lat="59.854964101687074" lon="30.40517807006836">
        <ele>12.29</ele>
      </trkpt>
      <trkpt lat="59.8550283908844" lon="30.405092239379883">
        <ele>12.38</ele>
      </trkpt>
      <trkpt lat="59.85510357655585" lon="30.40541410446167">
        <ele>12.51</ele>
      </trkpt>
      <trkpt lat="59.85520038753748" lon="30.40584987960756">
        <ele>12.6</ele>
      </trkpt>
      <trkpt lat="59.85529669560492" lon="30.406283140182495">
        <ele>12.67</ele>
      </trkpt>
      <trkpt lat="59.85539325512946" lon="30.40670156478882">
        <ele>12.67</ele>
      </trkpt>
      <trkpt lat="59.855457628145814" lon="30.407001972198486">
        <ele>12.57</ele>
      </trkpt>
      <trkpt lat="59.85545754432678" lon="30.407001972198486">
        <ele>12.51</ele>
      </trkpt>
      <trkpt lat="59.85556508414447" lon="30.407432382926345">
        <ele>12.37</ele>
      </trkpt>
      <trkpt lat="59.855672707781196" lon="30.407862793654203">
        <ele>12.23</ele>
      </trkpt>
      <trkpt lat="59.85577940940857" lon="30.408289432525635">
        <ele>12.07</ele>
      </trkpt>
      <trkpt lat="59.85590849071741" lon="30.40871975943446">
        <ele>11.98</ele>
      </trkpt>
      <trkpt lat="59.856037655845284" lon="30.40915017016232">
        <ele>11.85</ele>
      </trkpt>
      <trkpt lat="59.856165731325746" lon="30.409576892852783">
        <ele>11.67</ele>
      </trkpt>
      <trkpt lat="59.856165647506714" lon="30.409576892852783">
        <ele>11.54</ele>
      </trkpt>
      <trkpt lat="59.85632658004761" lon="30.410102605819702">
        <ele>11.39</ele>
      </trkpt>
      <trkpt lat="59.85648793168366" lon="30.41063519194722">
        <ele>11.28</ele>
      </trkpt>
      <trkpt lat="59.856648445129395" lon="30.4111647605896">
        <ele>11.11</ele>
      </trkpt>
      <trkpt lat="59.856739891692996" lon="30.411466006189585">
        <ele>11.04</ele>
      </trkpt>
      <trkpt lat="59.85683091916144" lon="30.411765575408936">
        <ele>11.03</ele>
      </trkpt>
      <trkpt lat="59.85683083534241" lon="30.411765575408936">
        <ele>11.0</ele>
      </trkpt>
      <trkpt lat="59.85694918781519" lon="30.412271339446306">
        <ele>11.0</ele>
      </trkpt>
      <trkpt lat="59.85706695355475" lon="30.412774085998535">
        <ele>11.04</ele>
      </trkpt>
      <trkpt lat="59.857184970751405" lon="30.413289070129395">
        <ele>10.97</ele>
      </trkpt>
      <trkpt lat="59.85727080143988" lon="30.413728952407837">
        <ele>11.04</ele>
      </trkpt>
      <trkpt lat="59.85732444562018" lon="30.414018630981445">
        <ele>11.11</ele>
      </trkpt>
      <trkpt lat="59.85743743367493" lon="30.414556665346026">
        <ele>11.17</ele>
      </trkpt>
      <trkpt lat="59.85754975117743" lon="30.415091514587402">
        <ele>11.21</ele>
      </trkpt>
      <trkpt lat="59.8575496673584" lon="30.415091514587402">
        <ele>11.21</ele>
      </trkpt>
      <trkpt lat="59.85758193768561" lon="30.415252447128296">
        <ele>11.2</ele>
      </trkpt>
      <trkpt lat="59.85760339535773" lon="30.415327548980713">
        <ele>11.16</ele>
      </trkpt>
      <trkpt lat="59.857603311538696" lon="30.415327548980713">
        <ele>11.1</ele>
      </trkpt>
      <trkpt lat="59.85760339535773" lon="30.415327548980713">
        <ele>10.89</ele>
      </trkpt>
      <trkpt lat="59.85758185386658" lon="30.415252447128296">
        <ele>10.75</ele>
      </trkpt>
      <trkpt lat="59.857292259112" lon="30.415252447128296">
        <ele>10.5</ele>
      </trkpt>
      <trkpt lat="59.85706695355475" lon="30.415048599243164">
        <ele>10.27</ele>
      </trkpt>
      <trkpt lat="59.85688959248364" lon="30.415037786588073">
        <ele>10.06</ele>
      </trkpt>
      <trkpt lat="59.85671281814575" lon="30.415027141571045">
        <ele>9.85</ele>
      </trkpt>
      <trkpt lat="59.856712901964784" lon="30.415027141571045">
        <ele>9.71</ele>
      </trkpt>
      <trkpt lat="59.856449542567134" lon="30.414962600916624">
        <ele>9.55</ele>
      </trkpt>
      <trkpt lat="59.856186183169484" lon="30.414898144081235">
        <ele>9.51</ele>
      </trkpt>
      <trkpt lat="59.855922907590866" lon="30.414833687245846">
        <ele>9.49</ele>
      </trkpt>
      <trkpt lat="59.855661392211914" lon="30.414769649505615">
        <ele>9.42</ele>
      </trkpt>
      <trkpt lat="59.85552191734314" lon="30.41460871696472">
        <ele>9.3</ele>
      </trkpt>
      <trkpt lat="59.85552200116217" lon="30.414479970932007">
        <ele>9.24</ele>
      </trkpt>
      <trkpt lat="59.8552424646914" lon="30.414383243769407">
        <ele>9.13</ele>
      </trkpt>
      <trkpt lat="59.85496401786804" lon="30.414286851882935">
        <ele>9.15</ele>
      </trkpt>
      <trkpt lat="59.8547865729779" lon="30.414561023935676">
        <ele>9.23</ele>
      </trkpt>
      <trkpt lat="59.854609966278076" lon="30.414834022521973">
        <ele>9.23</ele>
      </trkpt>
      <trkpt lat="59.85459923744202" lon="30.414973497390747">
        <ele>9.28</ele>
      </trkpt>
      <trkpt lat="59.85454559326172" lon="30.41487693786621">
        <ele>9.26</ele>
      </trkpt>
      <trkpt lat="59.85439857468009" lon="30.415188828483224">
        <ele>9.21</ele>
      </trkpt>
      <trkpt lat="59.85425155609846" lon="30.41550080291927">
        <ele>9.13</ele>
      </trkpt>
      <trkpt lat="59.854105710983276" lon="30.415810346603394">
        <ele>9.24</ele>
      </trkpt>
      <trkpt lat="59.85392642207444" lon="30.416104216128588">
        <ele>9.32</ele>
      </trkpt>
      <trkpt lat="59.85374721698463" lon="30.416398169472814">
        <ele>9.3</ele>
      </trkpt>
      <trkpt lat="59.8535692691803" lon="30.41669011116028">
        <ele>9.18</ele>
      </trkpt>
      <trkpt lat="59.85338285565376" lon="30.41693016886711">
        <ele>9.06</ele>
      </trkpt>
      <trkpt lat="59.85319652594626" lon="30.417170310392976">
        <ele>8.94</ele>
      </trkpt>
      <trkpt lat="59.8530113697052" lon="30.41740894317627">
        <ele>8.9</ele>
      </trkpt>
      <trkpt lat="59.85279679298401" lon="30.41744112968445">
        <ele>8.8</ele>
      </trkpt>
      <trkpt lat="59.85281825065613" lon="30.417054891586304">
        <ele>8.2</ele>
      </trkpt>
      <trkpt lat="59.85279344022274" lon="30.416765548288822">
        <ele>8.1</ele>
      </trkpt>
      <trkpt lat="59.85279344022274" lon="30.41676546446979">
        <ele>8.1</ele>
      </trkpt>
      <trkpt lat="59.85278614796698" lon="30.41667938232422">
        <ele>8.15</ele>
      </trkpt>
      <trkpt lat="59.852614402770996" lon="30.41691541671753">
        <ele>8.34</ele>
      </trkpt>
      <trkpt lat="59.85248574055731" lon="30.416958332061768">
        <ele>8.57</ele>
      </trkpt>
      <trkpt lat="59.85233545303345" lon="30.41686177253723">
        <ele>8.83</ele>
      </trkpt>
      <trkpt lat="59.85233553685248" lon="30.41686177253723">
        <ele>9.29</ele>
      </trkpt>
      <trkpt lat="59.85233545303345" lon="30.41686177253723">
        <ele>9.44</ele>
      </trkpt>
      <trkpt lat="59.85222824849188" lon="30.417033433914185">
        <ele>9.61</ele>
      </trkpt>
      <trkpt lat="59.852174604311585" lon="30.4171085357666">
        <ele>9.74</ele>
      </trkpt>
      <trkpt lat="59.85211023129523" lon="30.41717290878296">
        <ele>9.85</ele>
      </trkpt>
      <trkpt lat="59.85211023129523" lon="30.416743755340576">
        <ele>9.92</ele>
      </trkpt>
      <trkpt lat="59.85211023129523" lon="30.4166042804718">
        <ele>9.97</ele>
      </trkpt>
      <trkpt lat="59.85209950245917" lon="30.416239500045776">
        <ele>9.99</ele>
      </trkpt>
      <trkpt lat="59.852093467488885" lon="30.415641451254487">
        <ele>9.94</ele>
      </trkpt>
      <trkpt lat="59.85208751633763" lon="30.415043402463198">
        <ele>9.82</ele>
      </trkpt>
      <trkpt lat="59.85208156518638" lon="30.41444535367191">
        <ele>9.77</ele>
      </trkpt>
      <trkpt lat="59.85207561403513" lon="30.41384730488062">
        <ele>9.91</ele>
      </trkpt>
      <trkpt lat="59.852069579064846" lon="30.41324925608933">
        <ele>9.87</ele>
      </trkpt>
      <trkpt lat="59.852063627913594" lon="30.41265120729804">
        <ele>9.67</ele>
      </trkpt>
      <trkpt lat="59.85205767676234" lon="30.41205315850675">
        <ele>9.65</ele>
      </trkpt>
      <trkpt lat="59.85205172561109" lon="30.41145510971546">
        <ele>9.62</ele>
      </trkpt>
      <trkpt lat="59.85204585827887" lon="30.41087508201599">
        <ele>9.65</ele>
      </trkpt>
      <trkpt lat="59.852163875475526" lon="30.41089653968811">
        <ele>9.64</ele>
      </trkpt>
      <trkpt lat="59.852163791656494" lon="30.41089653968811">
        <ele>9.62</ele>
      </trkpt>
      <trkpt lat="59.852163875475526" lon="30.41089653968811">
        <ele>9.59</ele>
      </trkpt>
      <trkpt lat="59.852163791656494" lon="30.41089653968811">
        <ele>9.6</ele>
      </trkpt>
      <trkpt lat="59.85244274139404" lon="30.410757064819336">
        <ele>9.64</ele>
      </trkpt>
      <trkpt lat="59.85260400921106" lon="30.410558078438044">
        <ele>9.65</ele>
      </trkpt>
      <trkpt lat="59.85276460647583" lon="30.410360097885132">
        <ele>9.54</ele>
      </trkpt>
      <trkpt lat="59.852918749675155" lon="30.41001945734024">
        <ele>9.61</ele>
      </trkpt>
      <trkpt lat="59.85307297669351" lon="30.40967881679535">
        <ele>9.77</ele>
      </trkpt>
      <trkpt lat="59.85322603024542" lon="30.409340858459473">
        <ele>9.96</ele>
      </trkpt>
      <trkpt lat="59.85339785926044" lon="30.40934077464044">
        <ele>10.22</ele>
      </trkpt>
      <trkpt lat="59.8535692691803" lon="30.409340858459473">
        <ele>10.5</ele>
      </trkpt>
      <trkpt lat="59.853731375187635" lon="30.40924354456365">
        <ele>10.8</ele>
      </trkpt>
      <trkpt lat="59.853731375187635" lon="30.409243628382683">
        <ele>10.96</ele>
      </trkpt>
      <trkpt lat="59.85378384590149" lon="30.409212112426758">
        <ele>11.11</ele>
      </trkpt>
      <trkpt lat="59.85388074070215" lon="30.408765440806746">
        <ele>11.31</ele>
      </trkpt>
      <trkpt lat="59.85397704876959" lon="30.408321619033813">
        <ele>11.41</ele>
      </trkpt>
      <trkpt lat="59.854041589424014" lon="30.408009476959705">
        <ele>11.42</ele>
      </trkpt>
      <trkpt lat="59.85410579480231" lon="30.40769934654236">
        <ele>11.38</ele>
      </trkpt>
      <trkpt lat="59.85429564490914" lon="30.407536486163735">
        <ele>11.47</ele>
      </trkpt>
      <trkpt lat="59.85448490828276" lon="30.407374380156398">
        <ele>11.57</ele>
      </trkpt>
      <trkpt lat="59.85448490828276" lon="30.407374296337366">
        <ele>11.65</ele>
      </trkpt>
      <trkpt lat="59.85455640591681" lon="30.407313108444214">
        <ele>11.77</ele>
      </trkpt>
      <trkpt lat="59.85466931015253" lon="30.406941873952746">
        <ele>11.88</ele>
      </trkpt>
      <trkpt lat="59.85478171147406" lon="30.406572818756104">
        <ele>12.0</ele>
      </trkpt>
      <trkpt lat="59.85478162765503" lon="30.406572818756104">
        <ele>12.06</ele>
      </trkpt>
      <trkpt lat="59.85484222881496" lon="30.406204015016556">
        <ele>12.17</ele>
      </trkpt>
      <trkpt lat="59.85484222881496" lon="30.406203931197524">
        <ele>12.22</ele>
      </trkpt>
      <trkpt lat="59.854910457506776" lon="30.405789613723755">
        <ele>12.29</ele>
      </trkpt>
      <trkpt lat="59.85496401786804" lon="30.40517807006836">
        <ele>12.25</ele>
      </trkpt>
      <trkpt lat="59.854921102523804" lon="30.40492057800293">
        <ele>12.27</ele>
      </trkpt>
      <trkpt lat="59.85498547554016" lon="30.40488839149475">
        <ele>12.33</ele>
      </trkpt>
      <trkpt lat="59.85498555935919" lon="30.40488839149475">
        <ele>12.34</ele>
      </trkpt>
      <trkpt lat="59.85487785190344" lon="30.404361002147198">
        <ele>12.28</ele>
      </trkpt>
      <trkpt lat="59.85477089881897" lon="30.403836965560913">
        <ele>12.27</ele>
      </trkpt>
      <trkpt lat="59.854674339294434" lon="30.40337562561035">
        <ele>12.31</ele>
      </trkpt>
      <trkpt lat="59.85463150776923" lon="30.40313959121704">
        <ele>12.32</ele>
      </trkpt>
      <trkpt lat="59.854631423950195" lon="30.40313959121704">
        <ele>12.29</ele>
      </trkpt>
      <trkpt lat="59.85458859242499" lon="30.40292501449585">
        <ele>12.25</ele>
      </trkpt>
      <trkpt lat="59.85458850860596" lon="30.40292501449585">
        <ele>12.19</ele>
      </trkpt>
      <trkpt lat="59.85450427047908" lon="30.402493430301547">
        <ele>12.16</ele>
      </trkpt>
      <trkpt lat="59.85450276173651" lon="30.402485132217407">
        <ele>11.92</ele>
      </trkpt>
      <trkpt lat="59.85450267791748" lon="30.402485132217407">
        <ele>11.75</ele>
      </trkpt>
      <trkpt lat="59.854427659884095" lon="30.40239930152893">
        <ele>11.51</ele>
      </trkpt>
      <trkpt lat="59.85433110035956" lon="30.402302742004395">
        <ele>11.24</ele>
      </trkpt>
      <trkpt lat="59.85433101654053" lon="30.402302742004395">
        <ele>11.0</ele>
      </trkpt>
      <trkpt lat="59.85415901988745" lon="30.402130661532283">
        <ele>10.72</ele>
      </trkpt>
      <trkpt lat="59.85398777760565" lon="30.40195941925049">
        <ele>10.46</ele>
      </trkpt>
      <trkpt lat="59.85398769378662" lon="30.40195941925049">
        <ele>10.2</ele>
      </trkpt>
      <trkpt lat="59.85376238822937" lon="30.40168046951294">
        <ele>9.81</ele>
      </trkpt>
      <trkpt lat="59.85359022393823" lon="30.401250142604113">
        <ele>9.55</ele>
      </trkpt>
      <trkpt lat="59.853419065475464" lon="30.400822162628174">
        <ele>9.34</ele>
      </trkpt>
      <trkpt lat="59.85319702886045" lon="30.40068461559713">
        <ele>9.13</ele>
      </trkpt>
      <trkpt lat="59.852974992245436" lon="30.400547068566084">
        <ele>8.96</ele>
      </trkpt>
      <trkpt lat="59.8527542129159" lon="30.400410275906324">
        <ele>8.87</ele>
      </trkpt>
      <trkpt lat="59.852592861279845" lon="30.400310195982456">
        <ele>8.81</ele>
      </trkpt>
      <trkpt lat="59.852432096377015" lon="30.40021061897278">
        <ele>8.87</ele>
      </trkpt>
      <trkpt lat="59.852593280375004" lon="30.400178348645568">
        <ele>8.86</ele>
      </trkpt>
      <trkpt lat="59.8527539614588" lon="30.40014624595642">
        <ele>8.93</ele>
      </trkpt>
      <trkpt lat="59.852957809343934" lon="30.400092601776123">
        <ele>9.07</ele>
      </trkpt>
      <trkpt lat="59.853140115737915" lon="30.400092601776123">
        <ele>9.19</ele>
      </trkpt>
      <trkpt lat="59.853397691622376" lon="30.400328636169434">
        <ele>9.29</ele>
      </trkpt>
      <trkpt lat="59.853558875620365" lon="30.400258731096983">
        <ele>9.49</ele>
      </trkpt>
      <trkpt lat="59.85371955670416" lon="30.40018916130066">
        <ele>9.72</ele>
      </trkpt>
      <trkpt lat="59.85371947288513" lon="30.40018916130066">
        <ele>9.89</ele>
      </trkpt>
      <trkpt lat="59.85389683395624" lon="30.400011716410518">
        <ele>10.12</ele>
      </trkpt>
      <trkpt lat="59.85407360829413" lon="30.399835109710693">
        <ele>10.26</ele>
      </trkpt>
      <trkpt lat="59.85428818501532" lon="30.399609804153442">
        <ele>10.44</ele>
      </trkpt>
      <trkpt lat="59.85439547337592" lon="30.399523973464966">
        <ele>10.58</ele>
      </trkpt>
      <trkpt lat="59.85452421940863" lon="30.399588346481323">
        <ele>10.7</ele>
      </trkpt>
      <trkpt lat="59.8545241355896" lon="30.399588346481323">
        <ele>10.82</ele>
      </trkpt>
      <trkpt lat="59.85452421940863" lon="30.399588346481323">
        <ele>11.0</ele>
      </trkpt>
      <trkpt lat="59.85452421940863" lon="30.399470329284668">
        <ele>11.07</ele>
      </trkpt>
      <trkpt lat="59.85453494824469" lon="30.399341583251953">
        <ele>11.13</ele>
      </trkpt>
      <trkpt lat="59.85455632209778" lon="30.399223566055298">
        <ele>11.19</ele>
      </trkpt>
      <trkpt lat="59.85458859242499" lon="30.399105548858643">
        <ele>11.22</ele>
      </trkpt>
      <trkpt lat="59.85463150776923" lon="30.398966073989868">
        <ele>11.23</ele>
      </trkpt>
      <trkpt lat="59.854631423950195" lon="30.398966073989868">
        <ele>11.26</ele>
      </trkpt>
      <trkpt lat="59.854787243530154" lon="30.398826263844967">
        <ele>11.37</ele>
      </trkpt>
      <trkpt lat="59.85494256019592" lon="30.39868712425232">
        <ele>11.34</ele>
      </trkpt>
      <trkpt lat="59.85505730845034" lon="30.398324858397245">
        <ele>11.31</ele>
      </trkpt>
      <trkpt lat="59.85517205670476" lon="30.39796259254217">
        <ele>11.32</ele>
      </trkpt>
      <trkpt lat="59.85528588294983" lon="30.397603511810303">
        <ele>11.3</ele>
      </trkpt>
      <trkpt lat="59.85536106862128" lon="30.397624969482422">
        <ele>11.36</ele>
      </trkpt>
      <trkpt lat="59.855393171310425" lon="30.397592782974243">
        <ele>11.34</ele>
      </trkpt>
      <trkpt lat="59.85540255904198" lon="30.39752715267241">
        <ele>11.3</ele>
      </trkpt>
      <trkpt lat="59.85541043803096" lon="30.397471748292446">
        <ele>11.25</ele>
      </trkpt>
      <trkpt lat="59.85541043803096" lon="30.397471832111478">
        <ele>11.22</ele>
      </trkpt>
      <trkpt lat="59.85542359761894" lon="30.397379966452718">
        <ele>11.21</ele>
      </trkpt>
      <trkpt lat="59.8554253578186" lon="30.397367477416992">
        <ele>11.16</ele>
      </trkpt>
      <trkpt lat="59.85540021210909" lon="30.397331519052386">
        <ele>11.12</ele>
      </trkpt>
      <trkpt lat="59.85540021210909" lon="30.397331602871418">
        <ele>11.06</ele>
      </trkpt>
      <trkpt lat="59.85537892207503" lon="30.397301176562905">
        <ele>11.01</ele>
      </trkpt>
      <trkpt lat="59.85535025596619" lon="30.397260189056396">
        <ele>10.9</ele>
      </trkpt>
    </trkseg>
  </trk>
</gpx>
