<?xml version="1.0" encoding="UTF-8"?>
<gpx creator="Garmin Connect" version="1.1"
  xsi:schemaLocation="http://www.topografix.com/GPX/1/1 http://www.topografix.com/GPX/11.xsd"
  xmlns:ns3="http://www.garmin.com/xmlschemas/TrackPointExtension/v1"
  xmlns="http://www.topografix.com/GPX/1/1"
  xmlns:xsi="http://www.w3.org/2001/XMLSchema-instance" xmlns:ns2="http://www.garmin.com/xmlschemas/GpxExtensions/v3">
  <metadata>
    <name>ГМЗ «Петергоф» (Нижний и Александрия)
г. Петергоф Бег 5 км</name>
    <link href="connect.garmin.com">
      <text>Garmin Connect</text>
    </link>
    <time>2026-09-26T21:00:24.000Z</time>
  </metadata>
  <trk>
    <name>ГМЗ «Петергоф» (Нижний и Александрия)
г. Петергоф Бег 5 км</name>
    <trkseg>
      <trkpt lat="59.87776421941817" lon="29.930542493239045">
        <ele>22.42</ele>
      </trkpt>
      <trkpt lat="59.87781643867493" lon="29.930877685546875">
        <ele>22.51</ele>
      </trkpt>
      <trkpt lat="59.87781652249396" lon="29.930877685546875">
        <ele>22.61</ele>
      </trkpt>
      <trkpt lat="59.87784879282117" lon="29.93148042820394">
        <ele>22.68</ele>
      </trkpt>
      <trkpt lat="59.87788106314838" lon="29.932083254680037">
        <ele>22.97</ele>
      </trkpt>
      <trkpt lat="59.877913082018495" lon="29.932680130004883">
        <ele>23.17</ele>
      </trkpt>
      <trkpt lat="59.877880895510316" lon="29.933066368103027">
        <ele>23.26</ele>
      </trkpt>
      <trkpt lat="59.87775885500014" lon="29.933622339740396">
        <ele>23.41</ele>
      </trkpt>
      <trkpt lat="59.87763689830899" lon="29.934178395196795">
        <ele>23.53</ele>
      </trkpt>
      <trkpt lat="59.87751603126526" lon="29.93472933769226">
        <ele>23.6</ele>
      </trkpt>
      <trkpt lat="59.877316961064935" lon="29.93515145033598">
        <ele>23.4</ele>
      </trkpt>
      <trkpt lat="59.87711797468364" lon="29.93557364679873">
        <ele>23.1</ele>
      </trkpt>
      <trkpt lat="59.87691898830235" lon="29.93599584326148">
        <ele>23.01</ele>
      </trkpt>
      <trkpt lat="59.87672209739685" lon="29.936413764953613">
        <ele>23.04</ele>
      </trkpt>
      <trkpt lat="59.87659653648734" lon="29.93687284179032">
        <ele>23.1</ele>
      </trkpt>
      <trkpt lat="59.87647097557783" lon="29.937332002446055">
        <ele>23.06</ele>
      </trkpt>
      <trkpt lat="59.876346588134766" lon="29.93778705596924">
        <ele>22.86</ele>
      </trkpt>
      <trkpt lat="59.87625505775213" lon="29.93835208006203">
        <ele>22.55</ele>
      </trkpt>
      <trkpt lat="59.87616361118853" lon="29.938917187973857">
        <ele>22.39</ele>
      </trkpt>
      <trkpt lat="59.8760720808059" lon="29.93948221206665">
        <ele>22.36</ele>
      </trkpt>
      <trkpt lat="59.87598180770874" lon="29.940040111541748">
        <ele>22.2</ele>
      </trkpt>
      <trkpt lat="59.87592254765332" lon="29.940594406798482">
        <ele>21.83</ele>
      </trkpt>
      <trkpt lat="59.875863790512085" lon="29.941145181655884">
        <ele>21.6</ele>
      </trkpt>
      <trkpt lat="59.87583143636584" lon="29.94175873696804">
        <ele>21.56</ele>
      </trkpt>
      <trkpt lat="59.87579916603863" lon="29.942372292280197">
        <ele>21.46</ele>
      </trkpt>
      <trkpt lat="59.87576723098755" lon="29.94297981262207">
        <ele>21.3</ele>
      </trkpt>
      <trkpt lat="59.87583713606" lon="29.943571742624044">
        <ele>21.34</ele>
      </trkpt>
      <trkpt lat="59.87590670585632" lon="29.944159984588623">
        <ele>21.55</ele>
      </trkpt>
      <trkpt lat="59.87609177827835" lon="29.944608164951205">
        <ele>21.86</ele>
      </trkpt>
      <trkpt lat="59.87627601251006" lon="29.94505408219993">
        <ele>22.09</ele>
      </trkpt>
      <trkpt lat="59.87631440162659" lon="29.945147037506104">
        <ele>22.56</ele>
      </trkpt>
      <trkpt lat="59.876389587298036" lon="29.94521141052246">
        <ele>22.79</ele>
      </trkpt>
      <trkpt lat="59.876609863713384" lon="29.94540486484766">
        <ele>23.0</ele>
      </trkpt>
      <trkpt lat="59.876829385757446" lon="29.945597648620605">
        <ele>23.27</ele>
      </trkpt>
      <trkpt lat="59.87682946957648" lon="29.945597648620605">
        <ele>23.5</ele>
      </trkpt>
      <trkpt lat="59.87700146622956" lon="29.94585924781859">
        <ele>23.82</ele>
      </trkpt>
      <trkpt lat="59.87717354670167" lon="29.946120930835605">
        <ele>24.03</ele>
      </trkpt>
      <trkpt lat="59.87734445370734" lon="29.946380853652954">
        <ele>24.18</ele>
      </trkpt>
      <trkpt lat="59.877376640215516" lon="29.946391582489014">
        <ele>24.28</ele>
      </trkpt>
      <trkpt lat="59.87758048810065" lon="29.946413040161133">
        <ele>24.29</ele>
      </trkpt>
      <trkpt lat="59.877747036516666" lon="29.946343135088682">
        <ele>24.27</ele>
      </trkpt>
      <trkpt lat="59.877913082018495" lon="29.94627356529236">
        <ele>24.18</ele>
      </trkpt>
      <trkpt lat="59.87791299819946" lon="29.94627356529236">
        <ele>24.06</ele>
      </trkpt>
      <trkpt lat="59.878116929903626" lon="29.946144819259644">
        <ele>23.82</ele>
      </trkpt>
      <trkpt lat="59.878138303756714" lon="29.94601607322693">
        <ele>23.57</ele>
      </trkpt>
      <trkpt lat="59.87818121910095" lon="29.946187734603882">
        <ele>23.25</ele>
      </trkpt>
      <trkpt lat="59.878428066149354" lon="29.946434497833252">
        <ele>22.92</ele>
      </trkpt>
      <trkpt lat="59.87842798233032" lon="29.946434497833252">
        <ele>22.47</ele>
      </trkpt>
      <trkpt lat="59.87847098149359" lon="29.94649887084961">
        <ele>21.93</ele>
      </trkpt>
      <trkpt lat="59.878664100542665" lon="29.946777820587158">
        <ele>21.17</ele>
      </trkpt>
      <trkpt lat="59.87869628705084" lon="29.946852922439575">
        <ele>20.48</ele>
      </trkpt>
      <trkpt lat="59.87869620323181" lon="29.946852922439575">
        <ele>19.74</ele>
      </trkpt>
      <trkpt lat="59.87883064895868" lon="29.94715408422053">
        <ele>18.85</ele>
      </trkpt>
      <trkpt lat="59.87896450795233" lon="29.94745373725891">
        <ele>17.88</ele>
      </trkpt>
      <trkpt lat="59.8789644241333" lon="29.94745373725891">
        <ele>16.99</ele>
      </trkpt>
      <trkpt lat="59.87908252514899" lon="29.947679042816162">
        <ele>15.96</ele>
      </trkpt>
      <trkpt lat="59.879082441329956" lon="29.947679042816162">
        <ele>15.01</ele>
      </trkpt>
      <trkpt lat="59.87923834472895" lon="29.947926308959723">
        <ele>13.9</ele>
      </trkpt>
      <trkpt lat="59.879393661394715" lon="29.948172569274902">
        <ele>12.83</ele>
      </trkpt>
      <trkpt lat="59.87965106964111" lon="29.948322772979736">
        <ele>11.68</ele>
      </trkpt>
      <trkpt lat="59.87977989949286" lon="29.948279857635498">
        <ele>10.72</ele>
      </trkpt>
      <trkpt lat="59.879919374361634" lon="29.948140382766724">
        <ele>9.86</ele>
      </trkpt>
      <trkpt lat="59.8800643812865" lon="29.948011385276914">
        <ele>9.07</ele>
      </trkpt>
      <trkpt lat="59.88020896911621" lon="29.947882890701294">
        <ele>8.36</ele>
      </trkpt>
      <trkpt lat="59.88020905293524" lon="29.947882890701294">
        <ele>7.76</ele>
      </trkpt>
      <trkpt lat="59.88039596937597" lon="29.947625817731023">
        <ele>7.17</ele>
      </trkpt>
      <trkpt lat="59.88055229187012" lon="29.947410821914673">
        <ele>6.28</ele>
      </trkpt>
      <trkpt lat="59.88071892410517" lon="29.947738805785775">
        <ele>5.82</ele>
      </trkpt>
      <trkpt lat="59.880884885787964" lon="29.948065280914307">
        <ele>5.68</ele>
      </trkpt>
      <trkpt lat="59.88102444447577" lon="29.94850516319275">
        <ele>5.67</ele>
      </trkpt>
      <trkpt lat="59.88102436065674" lon="29.94850516319275">
        <ele>5.62</ele>
      </trkpt>
      <trkpt lat="59.8811748996377" lon="29.948919313028455">
        <ele>5.6</ele>
      </trkpt>
      <trkpt lat="59.881324768066406" lon="29.949331283569336">
        <ele>5.62</ele>
      </trkpt>
      <trkpt lat="59.88145921379328" lon="29.949546279385686">
        <ele>5.63</ele>
      </trkpt>
      <trkpt lat="59.88159307278693" lon="29.94976043701172">
        <ele>5.63</ele>
      </trkpt>
      <trkpt lat="59.881592988967896" lon="29.94976043701172">
        <ele>5.65</ele>
      </trkpt>
      <trkpt lat="59.88181829452515" lon="29.94995355606079">
        <ele>5.59</ele>
      </trkpt>
      <trkpt lat="59.88209053874016" lon="29.95002874173224">
        <ele>5.51</ele>
      </trkpt>
      <trkpt lat="59.88236278295517" lon="29.95010392740369">
        <ele>5.55</ele>
      </trkpt>
      <trkpt lat="59.882633686065674" lon="29.950178861618042">
        <ele>5.59</ele>
      </trkpt>
      <trkpt lat="59.88290777429938" lon="29.95039913803339">
        <ele>5.45</ele>
      </trkpt>
      <trkpt lat="59.883180940523744" lon="29.950618743896484">
        <ele>5.44</ele>
      </trkpt>
      <trkpt lat="59.88320239819586" lon="29.950629472732544">
        <ele>5.36</ele>
      </trkpt>
      <trkpt lat="59.88320231437683" lon="29.950629472732544">
        <ele>5.26</ele>
      </trkpt>
      <trkpt lat="59.88336358219385" lon="29.95043048635125">
        <ele>5.08</ele>
      </trkpt>
      <trkpt lat="59.88352417945862" lon="29.95023250579834">
        <ele>4.89</ele>
      </trkpt>
      <trkpt lat="59.883787455037236" lon="29.95010887272656">
        <ele>4.78</ele>
      </trkpt>
      <trkpt lat="59.88404989242554" lon="29.94998574256897">
        <ele>4.69</ele>
      </trkpt>
      <trkpt lat="59.88428592681885" lon="29.94976043701172">
        <ele>4.6</ele>
      </trkpt>
      <trkpt lat="59.88443646579981" lon="29.949470004066825">
        <ele>4.47</ele>
      </trkpt>
      <trkpt lat="59.884586334228516" lon="29.949181079864502">
        <ele>4.38</ele>
      </trkpt>
      <trkpt lat="59.884618604555726" lon="29.948978070169687">
        <ele>4.3</ele>
      </trkpt>
      <trkpt lat="59.884618604555726" lon="29.94897815398872">
        <ele>4.34</ele>
      </trkpt>
      <trkpt lat="59.88466143608093" lon="29.94870901107788">
        <ele>4.39</ele>
      </trkpt>
      <trkpt lat="59.88463184796274" lon="29.94816267862916">
        <ele>4.58</ele>
      </trkpt>
      <trkpt lat="59.88460225984454" lon="29.94761634618044">
        <ele>4.84</ele>
      </trkpt>
      <trkpt lat="59.884572671726346" lon="29.947070013731718">
        <ele>5.09</ele>
      </trkpt>
      <trkpt lat="59.88454350270331" lon="29.946531057357788">
        <ele>5.39</ele>
      </trkpt>
      <trkpt lat="59.884583819657564" lon="29.945990089327097">
        <ele>5.71</ele>
      </trkpt>
      <trkpt lat="59.88462422043085" lon="29.945449205115438">
        <ele>6.11</ele>
      </trkpt>
      <trkpt lat="59.884664537385106" lon="29.944908320903778">
        <ele>6.68</ele>
      </trkpt>
      <trkpt lat="59.8847044352442" lon="29.944374561309814">
        <ele>7.12</ele>
      </trkpt>
      <trkpt lat="59.88470435142517" lon="29.944374561309814">
        <ele>7.54</ele>
      </trkpt>
      <trkpt lat="59.88467736169696" lon="29.943841639906168">
        <ele>7.91</ele>
      </trkpt>
      <trkpt lat="59.88465070724487" lon="29.943312406539917">
        <ele>8.33</ele>
      </trkpt>
      <trkpt lat="59.88459153100848" lon="29.942935639992356">
        <ele>8.88</ele>
      </trkpt>
      <trkpt lat="59.88453277386725" lon="29.942561388015747">
        <ele>9.35</ele>
      </trkpt>
      <trkpt lat="59.88452204503119" lon="29.94219660758972">
        <ele>9.79</ele>
      </trkpt>
      <trkpt lat="59.88452196121216" lon="29.94219660758972">
        <ele>10.08</ele>
      </trkpt>
      <trkpt lat="59.88451659679413" lon="29.941706769168377">
        <ele>10.37</ele>
      </trkpt>
      <trkpt lat="59.88451131619513" lon="29.9412202835083">
        <ele>10.56</ele>
      </trkpt>
      <trkpt lat="59.88447896204889" lon="29.94088651612401">
        <ele>10.64</ele>
      </trkpt>
      <trkpt lat="59.88444694317877" lon="29.940555095672607">
        <ele>10.71</ele>
      </trkpt>
      <trkpt lat="59.88443621434271" lon="29.940179586410522">
        <ele>10.74</ele>
      </trkpt>
      <trkpt lat="59.88445406779647" lon="29.93969871662557">
        <ele>10.77</ele>
      </trkpt>
      <trkpt lat="59.884472005069256" lon="29.93921793065965">
        <ele>10.85</ele>
      </trkpt>
      <trkpt lat="59.88448977470398" lon="29.93874192237854">
        <ele>10.89</ele>
      </trkpt>
      <trkpt lat="59.88454358652234" lon="29.938336489722133">
        <ele>10.86</ele>
      </trkpt>
      <trkpt lat="59.8845973983407" lon="29.937931057065725">
        <ele>10.81</ele>
      </trkpt>
      <trkpt lat="59.884650791063905" lon="29.93752956390381">
        <ele>10.76</ele>
      </trkpt>
      <trkpt lat="59.8847044352442" lon="29.937057495117188">
        <ele>10.78</ele>
      </trkpt>
      <trkpt lat="59.88477568142116" lon="29.936498422175646">
        <ele>10.77</ele>
      </trkpt>
      <trkpt lat="59.88484692759812" lon="29.935939349234104">
        <ele>10.87</ele>
      </trkpt>
      <trkpt lat="59.88491817377508" lon="29.935380276292562">
        <ele>10.98</ele>
      </trkpt>
      <trkpt lat="59.884989419952035" lon="29.934821287170053">
        <ele>11.12</ele>
      </trkpt>
      <trkpt lat="59.88505949266255" lon="29.934271266683936">
        <ele>11.22</ele>
      </trkpt>
      <trkpt lat="59.885122859850526" lon="29.93377447128296">
        <ele>11.68</ele>
      </trkpt>
      <trkpt lat="59.885101318359375" lon="29.9332594871521">
        <ele>12.0</ele>
      </trkpt>
      <trkpt lat="59.88491892814636" lon="29.932830333709717">
        <ele>12.38</ele>
      </trkpt>
      <trkpt lat="59.884667387232184" lon="29.932656157761812">
        <ele>12.72</ele>
      </trkpt>
      <trkpt lat="59.88441584631801" lon="29.93248206563294">
        <ele>12.91</ele>
      </trkpt>
      <trkpt lat="59.88416430540383" lon="29.932307889685035">
        <ele>13.02</ele>
      </trkpt>
      <trkpt lat="59.88391284830868" lon="29.932133797556162">
        <ele>13.15</ele>
      </trkpt>
      <trkpt lat="59.88366365432739" lon="29.93196129798889">
        <ele>13.32</ele>
      </trkpt>
      <trkpt lat="59.88345578312874" lon="29.931728281080723">
        <ele>13.54</ele>
      </trkpt>
      <trkpt lat="59.883247911930084" lon="29.931495347991586">
        <ele>13.74</ele>
      </trkpt>
      <trkpt lat="59.88304138183594" lon="29.93126392364502">
        <ele>13.88</ele>
      </trkpt>
      <trkpt lat="59.88279956392944" lon="29.93116719648242">
        <ele>14.02</ele>
      </trkpt>
      <trkpt lat="59.88255866803229" lon="29.931070804595947">
        <ele>14.11</ele>
      </trkpt>
      <trkpt lat="59.88255858421326" lon="29.931070804595947">
        <ele>14.12</ele>
      </trkpt>
      <trkpt lat="59.88231492228806" lon="29.931113719940186">
        <ele>14.08</ele>
      </trkpt>
      <trkpt lat="59.882071344181895" lon="29.931156719103456">
        <ele>13.87</ele>
      </trkpt>
      <trkpt lat="59.881829023361206" lon="29.931199550628662">
        <ele>13.7</ele>
      </trkpt>
      <trkpt lat="59.88180773332715" lon="29.931372636929154">
        <ele>13.67</ele>
      </trkpt>
      <trkpt lat="59.881734140217304" lon="29.93197152391076">
        <ele>13.76</ele>
      </trkpt>
      <trkpt lat="59.88166054710746" lon="29.9325704947114">
        <ele>13.88</ele>
      </trkpt>
      <trkpt lat="59.881587037816644" lon="29.933169465512037">
        <ele>13.82</ele>
      </trkpt>
      <trkpt lat="59.8815134447068" lon="29.933768436312675">
        <ele>13.65</ele>
      </trkpt>
      <trkpt lat="59.88143985159695" lon="29.934367323294282">
        <ele>13.56</ele>
      </trkpt>
      <trkpt lat="59.881367767229676" lon="29.93495464324951">
        <ele>13.56</ele>
      </trkpt>
      <trkpt lat="59.881367683410645" lon="29.93495464324951">
        <ele>13.61</ele>
      </trkpt>
      <trkpt lat="59.88130305893719" lon="29.93549636565149">
        <ele>13.77</ele>
      </trkpt>
      <trkpt lat="59.88123851828277" lon="29.936038171872497">
        <ele>13.97</ele>
      </trkpt>
      <trkpt lat="59.881174648180604" lon="29.936574697494507">
        <ele>14.17</ele>
      </trkpt>
      <trkpt lat="59.88117456436157" lon="29.936574697494507">
        <ele>14.24</ele>
      </trkpt>
      <trkpt lat="59.8811056651175" lon="29.93713871575892">
        <ele>14.39</ele>
      </trkpt>
      <trkpt lat="59.88103676587343" lon="29.937702734023333">
        <ele>14.41</ele>
      </trkpt>
      <trkpt lat="59.880967950448394" lon="29.938266752287745">
        <ele>14.46</ele>
      </trkpt>
      <trkpt lat="59.880899051204324" lon="29.93883077055216">
        <ele>14.47</ele>
      </trkpt>
      <trkpt lat="59.880830151960254" lon="29.939394872635603">
        <ele>14.45</ele>
      </trkpt>
      <trkpt lat="59.880761336535215" lon="29.939958890900016">
        <ele>14.43</ele>
      </trkpt>
      <trkpt lat="59.880692437291145" lon="29.94052290916443">
        <ele>14.46</ele>
      </trkpt>
      <trkpt lat="59.880623538047075" lon="29.94108692742884">
        <ele>14.58</ele>
      </trkpt>
      <trkpt lat="59.88055472262204" lon="29.941650945693254">
        <ele>14.72</ele>
      </trkpt>
      <trkpt lat="59.88048800267279" lon="29.94219660758972">
        <ele>14.87</ele>
      </trkpt>
      <trkpt lat="59.88045581616461" lon="29.942582845687866">
        <ele>15.06</ele>
      </trkpt>
      <trkpt lat="59.88044508732855" lon="29.942668676376343">
        <ele>15.33</ele>
      </trkpt>
      <trkpt lat="59.88041281700134" lon="29.942797422409058">
        <ele>15.67</ele>
      </trkpt>
      <trkpt lat="59.88020855002105" lon="29.942958606407046">
        <ele>16.12</ele>
      </trkpt>
      <trkpt lat="59.88000512123108" lon="29.943119287490845">
        <ele>16.68</ele>
      </trkpt>
      <trkpt lat="59.87977989949286" lon="29.943140745162964">
        <ele>17.42</ele>
      </trkpt>
      <trkpt lat="59.879618966951966" lon="29.943140745162964">
        <ele>18.2</ele>
      </trkpt>
      <trkpt lat="59.87959750927985" lon="29.943140745162964">
        <ele>18.9</ele>
      </trkpt>
      <trkpt lat="59.87941478379071" lon="29.943124568089843">
        <ele>19.73</ele>
      </trkpt>
      <trkpt lat="59.87923272885382" lon="29.943108558654785">
        <ele>20.52</ele>
      </trkpt>
      <trkpt lat="59.87905528396368" lon="29.943151473999023">
        <ele>21.31</ele>
      </trkpt>
      <trkpt lat="59.878878593444824" lon="29.94319438934326">
        <ele>22.02</ele>
      </trkpt>
      <trkpt lat="59.87871372140944" lon="29.9434704054147">
        <ele>22.63</ele>
      </trkpt>
      <trkpt lat="59.878548849374056" lon="29.94374642148614">
        <ele>23.1</ele>
      </trkpt>
      <trkpt lat="59.878385150805116" lon="29.94402050971985">
        <ele>23.4</ele>
      </trkpt>
      <trkpt lat="59.878385066986084" lon="29.94402050971985">
        <ele>23.64</ele>
      </trkpt>
      <trkpt lat="59.878342151641846" lon="29.944117069244385">
        <ele>23.77</ele>
      </trkpt>
      <trkpt lat="59.87829932011664" lon="29.94351625442505">
        <ele>23.86</ele>
      </trkpt>
      <trkpt lat="59.87829923629761" lon="29.94351625442505">
        <ele>23.83</ele>
      </trkpt>
      <trkpt lat="59.878283059224486" lon="29.943150216713548">
        <ele>23.66</ele>
      </trkpt>
      <trkpt lat="59.87826713360846" lon="29.942786693572998">
        <ele>23.32</ele>
      </trkpt>
      <trkpt lat="59.87832077778876" lon="29.942185878753662">
        <ele>23.13</ele>
      </trkpt>
      <trkpt lat="59.87829932011664" lon="29.941928386688232">
        <ele>22.91</ele>
      </trkpt>
      <trkpt lat="59.878295212984085" lon="29.941862588748336">
        <ele>22.75</ele>
      </trkpt>
      <trkpt lat="59.87826428376138" lon="29.94135707616806">
        <ele>22.53</ele>
      </trkpt>
      <trkpt lat="59.87823335453868" lon="29.940851647406816">
        <ele>22.54</ele>
      </trkpt>
      <trkpt lat="59.8782027605921" lon="29.940351247787476">
        <ele>22.66</ele>
      </trkpt>
      <trkpt lat="59.878112990409136" lon="29.93986325338483">
        <ele>22.87</ele>
      </trkpt>
      <trkpt lat="59.8780233040452" lon="29.939375342801213">
        <ele>23.07</ele>
      </trkpt>
      <trkpt lat="59.877934539690614" lon="29.938892126083374">
        <ele>23.28</ele>
      </trkpt>
      <trkpt lat="59.87793445587158" lon="29.938892126083374">
        <ele>23.48</ele>
      </trkpt>
      <trkpt lat="59.87778433598578" lon="29.938355684280396">
        <ele>23.83</ele>
      </trkpt>
      <trkpt lat="59.87768207676709" lon="29.93808670900762">
        <ele>24.06</ele>
      </trkpt>
      <trkpt lat="59.87758048810065" lon="29.937819242477417">
        <ele>24.29</ele>
      </trkpt>
      <trkpt lat="59.877488957718015" lon="29.93748564273119">
        <ele>24.41</ele>
      </trkpt>
      <trkpt lat="59.8773980140686" lon="29.937154054641724">
        <ele>24.41</ele>
      </trkpt>
      <trkpt lat="59.87737102434039" lon="29.936588862910867">
        <ele>24.14</ele>
      </trkpt>
      <trkpt lat="59.877344369888306" lon="29.93602752685547">
        <ele>24.05</ele>
      </trkpt>
      <trkpt lat="59.87740178592503" lon="29.935593344271183">
        <ele>24.1</ele>
      </trkpt>
      <trkpt lat="59.877459201961756" lon="29.93515924550593">
        <ele>24.12</ele>
      </trkpt>
      <trkpt lat="59.87751611508429" lon="29.93472933769226">
        <ele>24.17</ele>
      </trkpt>
      <trkpt lat="59.87763371318579" lon="29.93419281207025">
        <ele>24.07</ele>
      </trkpt>
      <trkpt lat="59.87775072455406" lon="29.93365963920951">
        <ele>23.96</ele>
      </trkpt>
      <trkpt lat="59.87775072455406" lon="29.933659555390477">
        <ele>23.87</ele>
      </trkpt>
      <trkpt lat="59.87781593576074" lon="29.933361997827888">
        <ele>23.67</ele>
      </trkpt>
      <trkpt lat="59.877880811691284" lon="29.933066368103027">
        <ele>23.63</ele>
      </trkpt>
      <trkpt lat="59.877913082018495" lon="29.932680130004883">
        <ele>23.56</ele>
      </trkpt>
      <trkpt lat="59.87791299819946" lon="29.932680130004883">
        <ele>23.43</ele>
      </trkpt>
      <trkpt lat="59.877913082018495" lon="29.932680130004883">
        <ele>23.09</ele>
      </trkpt>
      <trkpt lat="59.87788072787225" lon="29.932077303528786">
        <ele>22.83</ele>
      </trkpt>
      <trkpt lat="59.87784845754504" lon="29.93147447705269">
        <ele>22.5</ele>
      </trkpt>
      <trkpt lat="59.87781652249396" lon="29.930877685546875">
        <ele>22.4</ele>
      </trkpt>
      <trkpt lat="59.87781643867493" lon="29.930877685546875">
        <ele>22.29</ele>
      </trkpt>
    </trkseg>
  </trk>
</gpx>
