<?xml version="1.0" encoding="UTF-8"?>
<gpx creator="Garmin Connect" version="1.1"
  xsi:schemaLocation="http://www.topografix.com/GPX/1/1 http://www.topografix.com/GPX/11.xsd"
  xmlns:ns3="http://www.garmin.com/xmlschemas/TrackPointExtension/v1"
  xmlns="http://www.topografix.com/GPX/1/1"
  xmlns:xsi="http://www.w3.org/2001/XMLSchema-instance" xmlns:ns2="http://www.garmin.com/xmlschemas/GpxExtensions/v3">
  <metadata>
    <name>Александровский и Екатерининский парки
г. Пушкин (Царское Село) Бег 10 км</name>
    <link href="connect.garmin.com">
      <text>Garmin Connect</text>
    </link>
    <time>2026-09-26T20:31:08.000Z</time>
  </metadata>
  <trk>
    <name>Александровский и Екатерининский парки
г. Пушкин (Царское Село) Бег 10 км</name>
    <trkseg>
      <trkpt lat="59.724958688020706" lon="30.385631639510393">
        <ele>69.87</ele>
      </trkpt>
      <trkpt lat="59.72496271133423" lon="30.385555028915405">
        <ele>70.36</ele>
      </trkpt>
      <trkpt lat="59.724769592285156" lon="30.385801792144775">
        <ele>71.39</ele>
      </trkpt>
      <trkpt lat="59.72461913712323" lon="30.385941518470645">
        <ele>72.17</ele>
      </trkpt>
      <trkpt lat="59.72446926869452" lon="30.386080741882324">
        <ele>72.98</ele>
      </trkpt>
      <trkpt lat="59.72417363896966" lon="30.386241925880313">
        <ele>73.58</ele>
      </trkpt>
      <trkpt lat="59.72387909889221" lon="30.38640260696411">
        <ele>74.03</ele>
      </trkpt>
      <trkpt lat="59.72364264540374" lon="30.38644552230835">
        <ele>74.35</ele>
      </trkpt>
      <trkpt lat="59.72340711392462" lon="30.386488437652588">
        <ele>74.56</ele>
      </trkpt>
      <trkpt lat="59.72331013530493" lon="30.385944871231914">
        <ele>74.73</ele>
      </trkpt>
      <trkpt lat="59.72321391105652" lon="30.38540482521057">
        <ele>74.86</ele>
      </trkpt>
      <trkpt lat="59.723238972947" lon="30.38495622575283">
        <ele>74.94</ele>
      </trkpt>
      <trkpt lat="59.723264118656516" lon="30.38450771011412">
        <ele>74.86</ele>
      </trkpt>
      <trkpt lat="59.723289012908936" lon="30.384063720703125">
        <ele>74.86</ele>
      </trkpt>
      <trkpt lat="59.723238721489906" lon="30.38350749760866">
        <ele>74.91</ele>
      </trkpt>
      <trkpt lat="59.72318851388991" lon="30.38295135833323">
        <ele>75.05</ele>
      </trkpt>
      <trkpt lat="59.7231388092041" lon="30.38240075111389">
        <ele>75.13</ele>
      </trkpt>
      <trkpt lat="59.723020792007446" lon="30.381853580474854">
        <ele>75.1</ele>
      </trkpt>
      <trkpt lat="59.72288089804351" lon="30.381487794220448">
        <ele>75.07</ele>
      </trkpt>
      <trkpt lat="59.7227418422699" lon="30.381124019622803">
        <ele>74.91</ele>
      </trkpt>
      <trkpt lat="59.72272038459778" lon="30.380587577819824">
        <ele>74.69</ele>
      </trkpt>
      <trkpt lat="59.72273111343384" lon="30.380269987508655">
        <ele>74.42</ele>
      </trkpt>
      <trkpt lat="59.7227418422699" lon="30.37995457649231">
        <ele>74.22</ele>
      </trkpt>
      <trkpt lat="59.7229300159961" lon="30.379535062238574">
        <ele>73.99</ele>
      </trkpt>
      <trkpt lat="59.72311735153198" lon="30.379117727279663">
        <ele>73.84</ele>
      </trkpt>
      <trkpt lat="59.723187340423465" lon="30.378816397860646">
        <ele>73.68</ele>
      </trkpt>
      <trkpt lat="59.72325691021979" lon="30.378516912460327">
        <ele>73.53</ele>
      </trkpt>
      <trkpt lat="59.72325682640076" lon="30.378516912460327">
        <ele>73.39</ele>
      </trkpt>
      <trkpt lat="59.723241655156016" lon="30.37832010537386">
        <ele>73.29</ele>
      </trkpt>
      <trkpt lat="59.72322463989258" lon="30.378098487854004">
        <ele>73.01</ele>
      </trkpt>
      <trkpt lat="59.723025653511286" lon="30.377630526199937">
        <ele>72.8</ele>
      </trkpt>
      <trkpt lat="59.722827756777406" lon="30.37716507911682">
        <ele>72.57</ele>
      </trkpt>
      <trkpt lat="59.722827672958374" lon="30.37716507911682">
        <ele>72.39</ele>
      </trkpt>
      <trkpt lat="59.722795486450195" lon="30.377100706100464">
        <ele>72.17</ele>
      </trkpt>
      <trkpt lat="59.72249994054437" lon="30.37719734944403">
        <ele>71.99</ele>
      </trkpt>
      <trkpt lat="59.72220548428595" lon="30.377293825149536">
        <ele>71.77</ele>
      </trkpt>
      <trkpt lat="59.72215175628662" lon="30.376875400543213">
        <ele>71.48</ele>
      </trkpt>
      <trkpt lat="59.72215184010565" lon="30.376875400543213">
        <ele>71.21</ele>
      </trkpt>
      <trkpt lat="59.72210884094238" lon="30.376542806625366">
        <ele>70.91</ele>
      </trkpt>
      <trkpt lat="59.722108924761415" lon="30.376542806625366">
        <ele>70.6</ele>
      </trkpt>
      <trkpt lat="59.72207657061517" lon="30.376230580732226">
        <ele>70.25</ele>
      </trkpt>
      <trkpt lat="59.72204455174506" lon="30.37592053413391">
        <ele>69.89</ele>
      </trkpt>
      <trkpt lat="59.72201228141785" lon="30.37545919418335">
        <ele>69.49</ele>
      </trkpt>
      <trkpt lat="59.72201236523688" lon="30.37545919418335">
        <ele>69.11</ele>
      </trkpt>
      <trkpt lat="59.72199082374573" lon="30.375298261642456">
        <ele>68.67</ele>
      </trkpt>
      <trkpt lat="59.72199090756476" lon="30.375298261642456">
        <ele>68.29</ele>
      </trkpt>
      <trkpt lat="59.72205008380115" lon="30.37475461140275">
        <ele>67.79</ele>
      </trkpt>
      <trkpt lat="59.722108924761415" lon="30.37421464920044">
        <ele>67.44</ele>
      </trkpt>
      <trkpt lat="59.72219475544989" lon="30.37374258041382">
        <ele>67.14</ele>
      </trkpt>
      <trkpt lat="59.7222375869751" lon="30.373570919036865">
        <ele>66.85</ele>
      </trkpt>
      <trkpt lat="59.72223767079413" lon="30.373570919036865">
        <ele>66.66</ele>
      </trkpt>
      <trkpt lat="59.722312772646546" lon="30.37322759628296">
        <ele>66.44</ele>
      </trkpt>
      <trkpt lat="59.72241997718811" lon="30.372755527496338">
        <ele>66.21</ele>
      </trkpt>
      <trkpt lat="59.72249507904053" lon="30.37245512008667">
        <ele>66.19</ele>
      </trkpt>
      <trkpt lat="59.72254880703986" lon="30.37224054336548">
        <ele>66.35</ele>
      </trkpt>
      <trkpt lat="59.72264293581247" lon="30.371888922527432">
        <ele>66.71</ele>
      </trkpt>
      <trkpt lat="59.7227365616709" lon="30.37153948098421">
        <ele>67.15</ele>
      </trkpt>
      <trkpt lat="59.722862876951694" lon="30.37106783129275">
        <ele>68.31</ele>
      </trkpt>
      <trkpt lat="59.72298860549927" lon="30.370599031448364">
        <ele>69.05</ele>
      </trkpt>
      <trkpt lat="59.72287377342582" lon="30.3701757453382">
        <ele>69.7</ele>
      </trkpt>
      <trkpt lat="59.7227590251714" lon="30.36975245922804">
        <ele>70.27</ele>
      </trkpt>
      <trkpt lat="59.72264528274536" lon="30.369333028793335">
        <ele>70.81</ele>
      </trkpt>
      <trkpt lat="59.72247848287225" lon="30.36896724253893">
        <ele>71.32</ele>
      </trkpt>
      <trkpt lat="59.722311766818166" lon="30.368601540103555">
        <ele>71.7</ele>
      </trkpt>
      <trkpt lat="59.722145050764084" lon="30.36823583766818">
        <ele>72.07</ele>
      </trkpt>
      <trkpt lat="59.72198009490967" lon="30.367873907089233">
        <ele>72.32</ele>
      </trkpt>
      <trkpt lat="59.72178295254707" lon="30.367662431672215">
        <ele>72.5</ele>
      </trkpt>
      <trkpt lat="59.72158589400351" lon="30.36745104007423">
        <ele>72.53</ele>
      </trkpt>
      <trkpt lat="59.72139000892639" lon="30.36724090576172">
        <ele>72.56</ele>
      </trkpt>
      <trkpt lat="59.72111055627465" lon="30.367128001525998">
        <ele>72.57</ele>
      </trkpt>
      <trkpt lat="59.720832109451294" lon="30.367015600204468">
        <ele>72.53</ele>
      </trkpt>
      <trkpt lat="59.72066044807434" lon="30.367090702056885">
        <ele>72.48</ele>
      </trkpt>
      <trkpt lat="59.72066053189337" lon="30.367090702056885">
        <ele>72.32</ele>
      </trkpt>
      <trkpt lat="59.72049565985799" lon="30.367349116131663">
        <ele>72.13</ele>
      </trkpt>
      <trkpt lat="59.72033154219389" lon="30.36760644055903">
        <ele>71.88</ele>
      </trkpt>
      <trkpt lat="59.72018837928772" lon="30.367830991744995">
        <ele>71.21</ele>
      </trkpt>
      <trkpt lat="59.720080755651" lon="30.368207590654492">
        <ele>70.75</ele>
      </trkpt>
      <trkpt lat="59.71997380256653" lon="30.368582010269165">
        <ele>70.31</ele>
      </trkpt>
      <trkpt lat="59.71981605514884" lon="30.36887596361339">
        <ele>69.9</ele>
      </trkpt>
      <trkpt lat="59.71965830773115" lon="30.369169916957617">
        <ele>69.42</ele>
      </trkpt>
      <trkpt lat="59.71950173377991" lon="30.36946177482605">
        <ele>69.04</ele>
      </trkpt>
      <trkpt lat="59.719421016052365" lon="30.369730750098825">
        <ele>68.66</ele>
      </trkpt>
      <trkpt lat="59.719340801239014" lon="30.36999821662903">
        <ele>68.29</ele>
      </trkpt>
      <trkpt lat="59.719297885894775" lon="30.370513200759888">
        <ele>67.9</ele>
      </trkpt>
      <trkpt lat="59.71956300549209" lon="30.370767591521144">
        <ele>67.31</ele>
      </trkpt>
      <trkpt lat="59.71982820890844" lon="30.3710219822824">
        <ele>67.1</ele>
      </trkpt>
      <trkpt lat="59.720091819763184" lon="30.371274948120117">
        <ele>66.91</ele>
      </trkpt>
      <trkpt lat="59.720368506386876" lon="30.371404197067022">
        <ele>66.64</ele>
      </trkpt>
      <trkpt lat="59.72064435482025" lon="30.3715331107378">
        <ele>66.3</ele>
      </trkpt>
      <trkpt lat="59.720942582935095" lon="30.37167241796851">
        <ele>65.91</ele>
      </trkpt>
      <trkpt lat="59.72123980522156" lon="30.371811389923096">
        <ele>65.66</ele>
      </trkpt>
      <trkpt lat="59.721465446054935" lon="30.371848940849304">
        <ele>65.47</ele>
      </trkpt>
      <trkpt lat="59.72169041633606" lon="30.371886491775513">
        <ele>65.35</ele>
      </trkpt>
      <trkpt lat="59.72195905633271" lon="30.371848857030272">
        <ele>65.24</ele>
      </trkpt>
      <trkpt lat="59.72222685813904" lon="30.371811389923096">
        <ele>65.23</ele>
      </trkpt>
      <trkpt lat="59.72238812595606" lon="30.372026385739446">
        <ele>65.16</ele>
      </trkpt>
      <trkpt lat="59.72254880703986" lon="30.37224054336548">
        <ele>65.17</ele>
      </trkpt>
      <trkpt lat="59.72249507904053" lon="30.37245512008667">
        <ele>65.32</ele>
      </trkpt>
      <trkpt lat="59.72241997718811" lon="30.372755527496338">
        <ele>65.61</ele>
      </trkpt>
      <trkpt lat="59.722312772646546" lon="30.37322759628296">
        <ele>66.07</ele>
      </trkpt>
      <trkpt lat="59.72223767079413" lon="30.373570919036865">
        <ele>66.47</ele>
      </trkpt>
      <trkpt lat="59.7222375869751" lon="30.373570919036865">
        <ele>66.8</ele>
      </trkpt>
      <trkpt lat="59.72219475544989" lon="30.37374258041382">
        <ele>67.18</ele>
      </trkpt>
      <trkpt lat="59.722108924761415" lon="30.37421464920044">
        <ele>67.54</ele>
      </trkpt>
      <trkpt lat="59.72204966470599" lon="30.374758215621114">
        <ele>67.89</ele>
      </trkpt>
      <trkpt lat="59.72199082374573" lon="30.375298261642456">
        <ele>68.37</ele>
      </trkpt>
      <trkpt lat="59.721872387453914" lon="30.375793213024735">
        <ele>68.69</ele>
      </trkpt>
      <trkpt lat="59.72175478935242" lon="30.376285314559937">
        <ele>68.99</ele>
      </trkpt>
      <trkpt lat="59.72175487317145" lon="30.376285314559937">
        <ele>69.29</ele>
      </trkpt>
      <trkpt lat="59.721598802134395" lon="30.376667194068432">
        <ele>69.58</ele>
      </trkpt>
      <trkpt lat="59.72144365310669" lon="30.377047061920166">
        <ele>69.9</ele>
      </trkpt>
      <trkpt lat="59.72144373692572" lon="30.377047061920166">
        <ele>70.13</ele>
      </trkpt>
      <trkpt lat="59.72140073776245" lon="30.377647876739502">
        <ele>70.35</ele>
      </trkpt>
      <trkpt lat="59.72115975804627" lon="30.377756590023637">
        <ele>70.53</ele>
      </trkpt>
      <trkpt lat="59.720919616520405" lon="30.377864968031645">
        <ele>70.68</ele>
      </trkpt>
      <trkpt lat="59.72062658518553" lon="30.37799715064466">
        <ele>70.93</ele>
      </trkpt>
      <trkpt lat="59.72033363766968" lon="30.378129333257675">
        <ele>71.04</ele>
      </trkpt>
      <trkpt lat="59.72004069015384" lon="30.37826151587069">
        <ele>71.26</ele>
      </trkpt>
      <trkpt lat="59.71974774263799" lon="30.378393698483706">
        <ele>71.55</ele>
      </trkpt>
      <trkpt lat="59.71945479512215" lon="30.37852588109672">
        <ele>71.85</ele>
      </trkpt>
      <trkpt lat="59.7191618476063" lon="30.378657979890704">
        <ele>72.13</ele>
      </trkpt>
      <trkpt lat="59.718868816271424" lon="30.37879016250372">
        <ele>72.5</ele>
      </trkpt>
      <trkpt lat="59.71857586875558" lon="30.378922345116735">
        <ele>72.79</ele>
      </trkpt>
      <trkpt lat="59.718282921239734" lon="30.37905452772975">
        <ele>73.02</ele>
      </trkpt>
      <trkpt lat="59.71798997372389" lon="30.379186710342765">
        <ele>73.2</ele>
      </trkpt>
      <trkpt lat="59.71769702620804" lon="30.37931889295578">
        <ele>73.38</ele>
      </trkpt>
      <trkpt lat="59.7174040786922" lon="30.379451075568795">
        <ele>73.47</ele>
      </trkpt>
      <trkpt lat="59.71711104735732" lon="30.37958325818181">
        <ele>73.42</ele>
      </trkpt>
      <trkpt lat="59.716818099841475" lon="30.379715440794826">
        <ele>73.3</ele>
      </trkpt>
      <trkpt lat="59.71652515232563" lon="30.37984762340784">
        <ele>73.05</ele>
      </trkpt>
      <trkpt lat="59.71624025143683" lon="30.37997603416443">
        <ele>72.86</ele>
      </trkpt>
      <trkpt lat="59.71616506576538" lon="30.379868745803833">
        <ele>72.74</ele>
      </trkpt>
      <trkpt lat="59.71616514958441" lon="30.379868745803833">
        <ele>72.6</ele>
      </trkpt>
      <trkpt lat="59.71595048904419" lon="30.37969708442688">
        <ele>72.45</ele>
      </trkpt>
      <trkpt lat="59.71571939997375" lon="30.37963254377246">
        <ele>72.29</ele>
      </trkpt>
      <trkpt lat="59.71548914909363" lon="30.379568338394165">
        <ele>72.19</ele>
      </trkpt>
      <trkpt lat="59.7154248598963" lon="30.379761457443237">
        <ele>72.07</ele>
      </trkpt>
      <trkpt lat="59.71542477607727" lon="30.379761457443237">
        <ele>71.94</ele>
      </trkpt>
      <trkpt lat="59.71540340222418" lon="30.379825830459595">
        <ele>71.84</ele>
      </trkpt>
      <trkpt lat="59.71540331840515" lon="30.379825830459595">
        <ele>71.72</ele>
      </trkpt>
      <trkpt lat="59.715371215716004" lon="30.37991166114807">
        <ele>71.65</ele>
      </trkpt>
      <trkpt lat="59.715328300371766" lon="30.380051136016846">
        <ele>71.55</ele>
      </trkpt>
      <trkpt lat="59.71527457237244" lon="30.38019061088562">
        <ele>71.41</ele>
      </trkpt>
      <trkpt lat="59.71509067341685" lon="30.380680952221155">
        <ele>71.17</ele>
      </trkpt>
      <trkpt lat="59.715049266815186" lon="30.380791425704956">
        <ele>71.0</ele>
      </trkpt>
      <trkpt lat="59.714834270998836" lon="30.380583554506302">
        <ele>71.01</ele>
      </trkpt>
      <trkpt lat="59.714619275182486" lon="30.380375683307648">
        <ele>71.08</ele>
      </trkpt>
      <trkpt lat="59.71440562047064" lon="30.3801691532135">
        <ele>71.14</ele>
      </trkpt>
      <trkpt lat="59.71417620778084" lon="30.379946948960423">
        <ele>71.12</ele>
      </trkpt>
      <trkpt lat="59.713946878910065" lon="30.379724744707346">
        <ele>71.06</ele>
      </trkpt>
      <trkpt lat="59.71371897496283" lon="30.379503965377808">
        <ele>70.97</ele>
      </trkpt>
      <trkpt lat="59.7137188911438" lon="30.379503965377808">
        <ele>71.01</ele>
      </trkpt>
      <trkpt lat="59.71356835216284" lon="30.379353426396847">
        <ele>71.06</ele>
      </trkpt>
      <trkpt lat="59.71341848373413" lon="30.37920355796814">
        <ele>71.19</ele>
      </trkpt>
      <trkpt lat="59.71318244934082" lon="30.37898898124695">
        <ele>71.38</ele>
      </trkpt>
      <trkpt lat="59.713075244799256" lon="30.378892421722412">
        <ele>71.52</ele>
      </trkpt>
      <trkpt lat="59.713075160980225" lon="30.378892421722412">
        <ele>71.66</ele>
      </trkpt>
      <trkpt lat="59.712865529581904" lon="30.37867734208703">
        <ele>71.77</ele>
      </trkpt>
      <trkpt lat="59.7126567363739" lon="30.37846326828003">
        <ele>71.97</ele>
      </trkpt>
      <trkpt lat="59.712549448013306" lon="30.3786563873291">
        <ele>72.22</ele>
      </trkpt>
      <trkpt lat="59.71247434616089" lon="30.3786563873291">
        <ele>72.45</ele>
      </trkpt>
      <trkpt lat="59.71231307834387" lon="30.378608023747802">
        <ele>72.69</ele>
      </trkpt>
      <trkpt lat="59.7121524810791" lon="30.378559827804565">
        <ele>72.88</ele>
      </trkpt>
      <trkpt lat="59.71193463541567" lon="30.378936259076">
        <ele>73.11</ele>
      </trkpt>
      <trkpt lat="59.71171687357128" lon="30.3793126065284">
        <ele>73.34</ele>
      </trkpt>
      <trkpt lat="59.71149911172688" lon="30.379689037799835">
        <ele>73.54</ele>
      </trkpt>
      <trkpt lat="59.71128134988248" lon="30.38006546907127">
        <ele>73.7</ele>
      </trkpt>
      <trkpt lat="59.71106358803809" lon="30.380441900342703">
        <ele>73.97</ele>
      </trkpt>
      <trkpt lat="59.71084582619369" lon="30.380818331614137">
        <ele>74.34</ele>
      </trkpt>
      <trkpt lat="59.710628064349294" lon="30.38119476288557">
        <ele>74.63</ele>
      </trkpt>
      <trkpt lat="59.7104103025049" lon="30.381571194157004">
        <ele>74.76</ele>
      </trkpt>
      <trkpt lat="59.71019245684147" lon="30.381947625428438">
        <ele>74.8</ele>
      </trkpt>
      <trkpt lat="59.70997469499707" lon="30.38232397288084">
        <ele>74.75</ele>
      </trkpt>
      <trkpt lat="59.709756933152676" lon="30.382700404152274">
        <ele>74.7</ele>
      </trkpt>
      <trkpt lat="59.709545373916626" lon="30.383065938949585">
        <ele>74.65</ele>
      </trkpt>
      <trkpt lat="59.70954545773566" lon="30.383065938949585">
        <ele>74.15</ele>
      </trkpt>
      <trkpt lat="59.70936298370361" lon="30.383495092391968">
        <ele>73.95</ele>
      </trkpt>
      <trkpt lat="59.70927681773901" lon="30.384029606357217">
        <ele>73.69</ele>
      </trkpt>
      <trkpt lat="59.70919073559344" lon="30.384564204141498">
        <ele>73.27</ele>
      </trkpt>
      <trkpt lat="59.709105491638184" lon="30.385093688964844">
        <ele>72.72</ele>
      </trkpt>
      <trkpt lat="59.709043549373746" lon="30.385634573176503">
        <ele>72.21</ele>
      </trkpt>
      <trkpt lat="59.70898169092834" lon="30.386175457388163">
        <ele>71.75</ele>
      </trkpt>
      <trkpt lat="59.7089197486639" lon="30.386716341599822">
        <ele>71.35</ele>
      </trkpt>
      <trkpt lat="59.70885872840881" lon="30.387250185012817">
        <ele>70.89</ele>
      </trkpt>
      <trkpt lat="59.708858812227845" lon="30.387250185012817">
        <ele>70.5</ele>
      </trkpt>
      <trkpt lat="59.7087833750993" lon="30.387829206883907">
        <ele>70.09</ele>
      </trkpt>
      <trkpt lat="59.70870802178979" lon="30.38840831257403">
        <ele>69.71</ele>
      </trkpt>
      <trkpt lat="59.70863266848028" lon="30.38898741826415">
        <ele>69.44</ele>
      </trkpt>
      <trkpt lat="59.708557315170765" lon="30.389566523954272">
        <ele>69.2</ele>
      </trkpt>
      <trkpt lat="59.70848321914673" lon="30.390136241912842">
        <ele>69.01</ele>
      </trkpt>
      <trkpt lat="59.70851548947394" lon="30.390747785568237">
        <ele>68.89</ele>
      </trkpt>
      <trkpt lat="59.70857466571033" lon="30.391332590952516">
        <ele>68.76</ele>
      </trkpt>
      <trkpt lat="59.70863384194672" lon="30.391917396336794">
        <ele>68.62</ele>
      </trkpt>
      <trkpt lat="59.70869301818311" lon="30.392502285540104">
        <ele>68.65</ele>
      </trkpt>
      <trkpt lat="59.7087521944195" lon="30.393087090924382">
        <ele>68.58</ele>
      </trkpt>
      <trkpt lat="59.708811454474926" lon="30.39367189630866">
        <ele>68.69</ele>
      </trkpt>
      <trkpt lat="59.70886945724487" lon="30.394245386123657">
        <ele>68.95</ele>
      </trkpt>
      <trkpt lat="59.708966268226504" lon="30.39475659839809">
        <ele>69.08</ele>
      </trkpt>
      <trkpt lat="59.709062576293945" lon="30.395264625549316">
        <ele>69.19</ele>
      </trkpt>
      <trkpt lat="59.70906266011298" lon="30.395264625549316">
        <ele>69.32</ele>
      </trkpt>
      <trkpt lat="59.709209678694606" lon="30.395759493112564">
        <ele>69.55</ele>
      </trkpt>
      <trkpt lat="59.709356697276235" lon="30.396254444494843">
        <ele>69.76</ele>
      </trkpt>
      <trkpt lat="59.709503799676895" lon="30.396749395877123">
        <ele>69.86</ele>
      </trkpt>
      <trkpt lat="59.709650818258524" lon="30.397244347259402">
        <ele>69.86</ele>
      </trkpt>
      <trkpt lat="59.709797920659184" lon="30.39773929864168">
        <ele>69.91</ele>
      </trkpt>
      <trkpt lat="59.70994242466986" lon="30.398225784301758">
        <ele>69.87</ele>
      </trkpt>
      <trkpt lat="59.71003915183246" lon="30.398510852828622">
        <ele>69.83</ele>
      </trkpt>
      <trkpt lat="59.7101354598999" lon="30.398794412612915">
        <ele>69.76</ele>
      </trkpt>
      <trkpt lat="59.710135543718934" lon="30.398794412612915">
        <ele>69.76</ele>
      </trkpt>
      <trkpt lat="59.71021064557135" lon="30.398998260498047">
        <ele>69.74</ele>
      </trkpt>
      <trkpt lat="59.710289519280195" lon="30.39939279668033">
        <ele>69.74</ele>
      </trkpt>
      <trkpt lat="59.71036839298904" lon="30.399787416681647">
        <ele>69.72</ele>
      </trkpt>
      <trkpt lat="59.71044659614563" lon="30.4001784324646">
        <ele>69.74</ele>
      </trkpt>
      <trkpt lat="59.71044667996466" lon="30.4001784324646">
        <ele>69.71</ele>
      </trkpt>
      <trkpt lat="59.7104724124074" lon="30.400317069143057">
        <ele>69.69</ele>
      </trkpt>
      <trkpt lat="59.710561679676175" lon="30.400796346366405">
        <ele>69.67</ele>
      </trkpt>
      <trkpt lat="59.71065052784979" lon="30.401272773742676">
        <ele>69.48</ele>
      </trkpt>
      <trkpt lat="59.71066117286682" lon="30.401583909988403">
        <ele>69.21</ele>
      </trkpt>
      <trkpt lat="59.71074507571757" lon="30.402057403698564">
        <ele>68.88</ele>
      </trkpt>
      <trkpt lat="59.71082906238735" lon="30.402530981227756">
        <ele>68.56</ele>
      </trkpt>
      <trkpt lat="59.710912965238094" lon="30.403004558756948">
        <ele>68.35</ele>
      </trkpt>
      <trkpt lat="59.71099695190787" lon="30.403478052467108">
        <ele>68.02</ele>
      </trkpt>
      <trkpt lat="59.711079597473145" lon="30.40394425392151">
        <ele>67.56</ele>
      </trkpt>
      <trkpt lat="59.71116928383708" lon="30.40445001795888">
        <ele>67.04</ele>
      </trkpt>
      <trkpt lat="59.711258970201015" lon="30.404955865815282">
        <ele>66.42</ele>
      </trkpt>
      <trkpt lat="59.711347902193666" lon="30.405457019805908">
        <ele>65.76</ele>
      </trkpt>
      <trkpt lat="59.711423171684146" lon="30.40591978468001">
        <ele>65.06</ele>
      </trkpt>
      <trkpt lat="59.71149852499366" lon="30.40638254955411">
        <ele>64.35</ele>
      </trkpt>
      <trkpt lat="59.711573123931885" lon="30.406841039657593">
        <ele>63.74</ele>
      </trkpt>
      <trkpt lat="59.71165199764073" lon="30.40730020031333">
        <ele>63.27</ele>
      </trkpt>
      <trkpt lat="59.711730955168605" lon="30.4077594447881">
        <ele>62.72</ele>
      </trkpt>
      <trkpt lat="59.71180924214423" lon="30.408214330673218">
        <ele>62.19</ele>
      </trkpt>
      <trkpt lat="59.71189255826175" lon="30.408660918474197">
        <ele>61.65</ele>
      </trkpt>
      <trkpt lat="59.71197595819831" lon="30.40910759009421">
        <ele>61.33</ele>
      </trkpt>
      <trkpt lat="59.712059358134866" lon="30.40955417789519">
        <ele>60.99</ele>
      </trkpt>
      <trkpt lat="59.71214175224304" lon="30.409995317459106">
        <ele>60.66</ele>
      </trkpt>
      <trkpt lat="59.712345600128174" lon="30.409855842590332">
        <ele>60.49</ele>
      </trkpt>
      <trkpt lat="59.71253603696823" lon="30.409557865932584">
        <ele>60.39</ele>
      </trkpt>
      <trkpt lat="59.712725719437" lon="30.409261314198375">
        <ele>60.24</ele>
      </trkpt>
      <trkpt lat="59.71276410855353" lon="30.4092013835907">
        <ele>60.25</ele>
      </trkpt>
      <trkpt lat="59.71294675022364" lon="30.409174477681518">
        <ele>60.23</ele>
      </trkpt>
      <trkpt lat="59.71312880516052" lon="30.4091477394104">
        <ele>60.33</ele>
      </trkpt>
      <trkpt lat="59.71317172050476" lon="30.409051179885864">
        <ele>60.59</ele>
      </trkpt>
      <trkpt lat="59.712933003902435" lon="30.408647172152996">
        <ele>61.15</ele>
      </trkpt>
      <trkpt lat="59.71269428730011" lon="30.40824324823916">
        <ele>61.66</ele>
      </trkpt>
      <trkpt lat="59.71245733089745" lon="30.4078421741724">
        <ele>62.11</ele>
      </trkpt>
      <trkpt lat="59.71225616522133" lon="30.407501701265574">
        <ele>62.95</ele>
      </trkpt>
      <trkpt lat="59.7120560053736" lon="30.40716290473938">
        <ele>63.4</ele>
      </trkpt>
      <trkpt lat="59.712055921554565" lon="30.40716290473938">
        <ele>63.79</ele>
      </trkpt>
      <trkpt lat="59.71217184327543" lon="30.4069063346833">
        <ele>64.15</ele>
      </trkpt>
      <trkpt lat="59.71217184327543" lon="30.406906250864267">
        <ele>64.48</ele>
      </trkpt>
      <trkpt lat="59.712356412783265" lon="30.406497716903687">
        <ele>64.78</ele>
      </trkpt>
      <trkpt lat="59.7124529723078" lon="30.406508445739746">
        <ele>65.04</ele>
      </trkpt>
      <trkpt lat="59.71247434616089" lon="30.406519174575806">
        <ele>65.27</ele>
      </trkpt>
      <trkpt lat="59.71273234114051" lon="30.40682377293706">
        <ele>65.49</ele>
      </trkpt>
      <trkpt lat="59.71299041993916" lon="30.407128371298313">
        <ele>65.68</ele>
      </trkpt>
      <trkpt lat="59.71324690617621" lon="30.40743112564087">
        <ele>65.81</ele>
      </trkpt>
      <trkpt lat="59.71324682235718" lon="30.40743112564087">
        <ele>65.87</ele>
      </trkpt>
      <trkpt lat="59.71338629722595" lon="30.407592058181763">
        <ele>65.85</ele>
      </trkpt>
      <trkpt lat="59.713536500930786" lon="30.407774448394775">
        <ele>65.67</ele>
      </trkpt>
      <trkpt lat="59.71366558223963" lon="30.407368261367083">
        <ele>65.72</ele>
      </trkpt>
      <trkpt lat="59.71379466354847" lon="30.40696207433939">
        <ele>65.79</ele>
      </trkpt>
      <trkpt lat="59.71392382867634" lon="30.406555887311697">
        <ele>65.77</ele>
      </trkpt>
      <trkpt lat="59.714051485061646" lon="30.40615439414978">
        <ele>65.64</ele>
      </trkpt>
      <trkpt lat="59.714209232479334" lon="30.40564863011241">
        <ele>65.52</ele>
      </trkpt>
      <trkpt lat="59.714367063716054" lon="30.40514294989407">
        <ele>65.28</ele>
      </trkpt>
      <trkpt lat="59.71452355384827" lon="30.40464162826538">
        <ele>65.15</ele>
      </trkpt>
      <trkpt lat="59.714598655700684" lon="30.40441632270813">
        <ele>65.1</ele>
      </trkpt>
      <trkpt lat="59.714598739519715" lon="30.40441632270813">
        <ele>65.12</ele>
      </trkpt>
      <trkpt lat="59.71476009115577" lon="30.40391055867076">
        <ele>65.28</ele>
      </trkpt>
      <trkpt lat="59.7149206046015" lon="30.40340781211853">
        <ele>65.52</ele>
      </trkpt>
      <trkpt lat="59.71506577916443" lon="30.40293976664543">
        <ele>65.7</ele>
      </trkpt>
      <trkpt lat="59.71521028317511" lon="30.402474403381348">
        <ele>65.85</ele>
      </trkpt>
      <trkpt lat="59.7152316570282" lon="30.40239930152893">
        <ele>66.04</ele>
      </trkpt>
      <trkpt lat="59.71527457237244" lon="30.402227640151978">
        <ele>66.29</ele>
      </trkpt>
      <trkpt lat="59.715296030044556" lon="30.40216326713562">
        <ele>66.6</ele>
      </trkpt>
      <trkpt lat="59.71543584018946" lon="30.40173285640776">
        <ele>66.97</ele>
      </trkpt>
      <trkpt lat="59.715574979782104" lon="30.401304960250854">
        <ele>67.44</ele>
      </trkpt>
      <trkpt lat="59.715575063601136" lon="30.401304960250854">
        <ele>67.89</ele>
      </trkpt>
      <trkpt lat="59.71570950932801" lon="30.400879913941026">
        <ele>68.5</ele>
      </trkpt>
      <trkpt lat="59.715843200683594" lon="30.40045738220215">
        <ele>69.08</ele>
      </trkpt>
      <trkpt lat="59.715843284502625" lon="30.40045738220215">
        <ele>69.61</ele>
      </trkpt>
      <trkpt lat="59.7159777302295" lon="30.4000592418015">
        <ele>70.22</ele>
      </trkpt>
      <trkpt lat="59.71611142158508" lon="30.39966344833374">
        <ele>70.75</ele>
      </trkpt>
      <trkpt lat="59.716111505404115" lon="30.39966344833374">
        <ele>71.3</ele>
      </trkpt>
      <trkpt lat="59.71616506576538" lon="30.399502515792847">
        <ele>71.84</ele>
      </trkpt>
      <trkpt lat="59.71616514958441" lon="30.399502515792847">
        <ele>72.37</ele>
      </trkpt>
      <trkpt lat="59.716311413794756" lon="30.399031871929765">
        <ele>72.86</ele>
      </trkpt>
      <trkpt lat="59.7164576780051" lon="30.398561311885715">
        <ele>73.41</ele>
      </trkpt>
      <trkpt lat="59.71660268492997" lon="30.398094775155187">
        <ele>74.01</ele>
      </trkpt>
      <trkpt lat="59.71670603379607" lon="30.397762348875403">
        <ele>75.04</ele>
      </trkpt>
      <trkpt lat="59.716808795928955" lon="30.39743185043335">
        <ele>75.58</ele>
      </trkpt>
      <trkpt lat="59.71700191497803" lon="30.39766788482666">
        <ele>75.7</ele>
      </trkpt>
      <trkpt lat="59.71702345646918" lon="30.39767861366272">
        <ele>75.87</ele>
      </trkpt>
      <trkpt lat="59.717120015993714" lon="30.397367477416992">
        <ele>76.16</ele>
      </trkpt>
      <trkpt lat="59.71716293133795" lon="30.397228002548218">
        <ele>76.2</ele>
      </trkpt>
      <trkpt lat="59.71725949086249" lon="30.39688467979431">
        <ele>76.06</ele>
      </trkpt>
      <trkpt lat="59.71729167737067" lon="30.396788120269775">
        <ele>75.88</ele>
      </trkpt>
      <trkpt lat="59.71742067486048" lon="30.396379251033068">
        <ele>75.45</ele>
      </trkpt>
      <trkpt lat="59.717549085617065" lon="30.395972728729248">
        <ele>74.92</ele>
      </trkpt>
      <trkpt lat="59.7175491694361" lon="30.395972728729248">
        <ele>74.59</ele>
      </trkpt>
      <trkpt lat="59.71761345863342" lon="30.395983457565308">
        <ele>74.26</ele>
      </trkpt>
      <trkpt lat="59.717871034517884" lon="30.395629405975342">
        <ele>73.82</ele>
      </trkpt>
      <trkpt lat="59.71787095069885" lon="30.395629405975342">
        <ele>73.47</ele>
      </trkpt>
      <trkpt lat="59.71798896789551" lon="30.395479202270508">
        <ele>73.16</ele>
      </trkpt>
      <trkpt lat="59.71814495511353" lon="30.39503269828856">
        <ele>72.79</ele>
      </trkpt>
      <trkpt lat="59.718300104141235" lon="30.394588708877563">
        <ele>72.51</ele>
      </trkpt>
      <trkpt lat="59.718498922884464" lon="30.394594073295593">
        <ele>72.34</ele>
      </trkpt>
      <trkpt lat="59.71869715489447" lon="30.394599437713623">
        <ele>72.14</ele>
      </trkpt>
      <trkpt lat="59.71871852874756" lon="30.394524335861206">
        <ele>71.92</ele>
      </trkpt>
      <trkpt lat="59.71875071525574" lon="30.39443850517273">
        <ele>71.74</ele>
      </trkpt>
      <trkpt lat="59.718863451853395" lon="30.394100211560726">
        <ele>71.57</ele>
      </trkpt>
      <trkpt lat="59.71897560171783" lon="30.393763929605484">
        <ele>71.48</ele>
      </trkpt>
      <trkpt lat="59.71900820732117" lon="30.39366602897644">
        <ele>71.42</ele>
      </trkpt>
      <trkpt lat="59.718804359436035" lon="30.39338707923889">
        <ele>71.47</ele>
      </trkpt>
      <trkpt lat="59.71880444325507" lon="30.39338707923889">
        <ele>71.5</ele>
      </trkpt>
      <trkpt lat="59.71872934140265" lon="30.393322706222534">
        <ele>71.57</ele>
      </trkpt>
      <trkpt lat="59.71867561340332" lon="30.393269062042236">
        <ele>71.64</ele>
      </trkpt>
      <trkpt lat="59.71862196922302" lon="30.393236875534058">
        <ele>71.72</ele>
      </trkpt>
      <trkpt lat="59.718611324205995" lon="30.393258333206177">
        <ele>71.79</ele>
      </trkpt>
      <trkpt lat="59.71840747632086" lon="30.39338707923889">
        <ele>71.82</ele>
      </trkpt>
      <trkpt lat="59.71840739250183" lon="30.39338707923889">
        <ele>71.86</ele>
      </trkpt>
      <trkpt lat="59.71823581494391" lon="30.393494367599487">
        <ele>71.87</ele>
      </trkpt>
      <trkpt lat="59.71823573112488" lon="30.393494367599487">
        <ele>71.87</ele>
      </trkpt>
      <trkpt lat="59.717988381162286" lon="30.393177112564445">
        <ele>71.87</ele>
      </trkpt>
      <trkpt lat="59.717741115018725" lon="30.392859941348433">
        <ele>71.9</ele>
      </trkpt>
      <trkpt lat="59.717493848875165" lon="30.392542770132422">
        <ele>71.92</ele>
      </trkpt>
      <trkpt lat="59.71724876202643" lon="30.392228364944458">
        <ele>71.74</ele>
      </trkpt>
      <trkpt lat="59.7172486782074" lon="30.392228364944458">
        <ele>71.59</ele>
      </trkpt>
      <trkpt lat="59.717130744829774" lon="30.392088890075684">
        <ele>71.33</ele>
      </trkpt>
      <trkpt lat="59.71700199879706" lon="30.39193868637085">
        <ele>71.03</ele>
      </trkpt>
      <trkpt lat="59.71676898188889" lon="30.391644733026624">
        <ele>70.78</ele>
      </trkpt>
      <trkpt lat="59.71653596498072" lon="30.39135086350143">
        <ele>70.62</ele>
      </trkpt>
      <trkpt lat="59.716304540634155" lon="30.391058921813965">
        <ele>70.38</ele>
      </trkpt>
      <trkpt lat="59.71608585678041" lon="30.39078650996089">
        <ele>70.18</ele>
      </trkpt>
      <trkpt lat="59.715867256745696" lon="30.390514098107815">
        <ele>69.99</ele>
      </trkpt>
      <trkpt lat="59.71565008163452" lon="30.390243530273438">
        <ele>69.94</ele>
      </trkpt>
      <trkpt lat="59.71561152487993" lon="30.390282087028027">
        <ele>69.85</ele>
      </trkpt>
      <trkpt lat="59.71565008163452" lon="30.390243530273438">
        <ele>69.79</ele>
      </trkpt>
      <trkpt lat="59.71569299697876" lon="30.390082597732544">
        <ele>69.81</ele>
      </trkpt>
      <trkpt lat="59.71583280712366" lon="30.389659395441413">
        <ele>69.88</ele>
      </trkpt>
      <trkpt lat="59.715972701087594" lon="30.389236193150282">
        <ele>69.99</ele>
      </trkpt>
      <trkpt lat="59.71611142158508" lon="30.388816595077515">
        <ele>70.07</ele>
      </trkpt>
      <trkpt lat="59.71624410711229" lon="30.38837897591293">
        <ele>70.25</ele>
      </trkpt>
      <trkpt lat="59.716376792639494" lon="30.387941440567374">
        <ele>70.5</ele>
      </trkpt>
      <trkpt lat="59.71650838851929" lon="30.387507677078247">
        <ele>70.98</ele>
      </trkpt>
      <trkpt lat="59.71650847233832" lon="30.387507677078247">
        <ele>71.26</ele>
      </trkpt>
      <trkpt lat="59.7165406588465" lon="30.38742184638977">
        <ele>71.59</ele>
      </trkpt>
      <trkpt lat="59.71663202159107" lon="30.387152871116996">
        <ele>71.93</ele>
      </trkpt>
      <trkpt lat="59.71672296524048" lon="30.386885404586792">
        <ele>72.31</ele>
      </trkpt>
      <trkpt lat="59.716886496171355" lon="30.386364636942744">
        <ele>72.58</ele>
      </trkpt>
      <trkpt lat="59.71705002710223" lon="30.385843869298697">
        <ele>72.92</ele>
      </trkpt>
      <trkpt lat="59.71721355803311" lon="30.38532310165465">
        <ele>73.17</ele>
      </trkpt>
      <trkpt lat="59.717377088963985" lon="30.3848023340106">
        <ele>73.39</ele>
      </trkpt>
      <trkpt lat="59.717538356781006" lon="30.384289026260376">
        <ele>73.68</ele>
      </trkpt>
      <trkpt lat="59.71753844060004" lon="30.384289026260376">
        <ele>73.94</ele>
      </trkpt>
      <trkpt lat="59.71761345863342" lon="30.384063720703125">
        <ele>74.16</ele>
      </trkpt>
      <trkpt lat="59.717842787504196" lon="30.38435038179159">
        <ele>75.23</ele>
      </trkpt>
      <trkpt lat="59.71807211637497" lon="30.38463704288006">
        <ele>75.44</ele>
      </trkpt>
      <trkpt lat="59.718301529064775" lon="30.384923787787557">
        <ele>75.67</ele>
      </trkpt>
      <trkpt lat="59.71853085793555" lon="30.385210448876023">
        <ele>75.88</ele>
      </trkpt>
      <trkpt lat="59.71876027062535" lon="30.38549719378352">
        <ele>75.95</ele>
      </trkpt>
      <trkpt lat="59.71898674964905" lon="30.385780334472656">
        <ele>75.93</ele>
      </trkpt>
      <trkpt lat="59.719104850664735" lon="30.38594126701355">
        <ele>75.9</ele>
      </trkpt>
      <trkpt lat="59.719158411026" lon="30.385780334472656">
        <ele>75.85</ele>
      </trkpt>
      <trkpt lat="59.71923351287842" lon="30.385565757751465">
        <ele>75.75</ele>
      </trkpt>
      <trkpt lat="59.71928724087775" lon="30.38541555404663">
        <ele>75.65</ele>
      </trkpt>
      <trkpt lat="59.719287157058716" lon="30.38541555404663">
        <ele>75.49</ele>
      </trkpt>
      <trkpt lat="59.71928724087775" lon="30.38541555404663">
        <ele>75.08</ele>
      </trkpt>
      <trkpt lat="59.71941095776856" lon="30.385044319555163">
        <ele>74.81</ele>
      </trkpt>
      <trkpt lat="59.71953400410712" lon="30.38467526435852">
        <ele>74.45</ele>
      </trkpt>
      <trkpt lat="59.719676496461034" lon="30.384225994348526">
        <ele>74.06</ele>
      </trkpt>
      <trkpt lat="59.71981907263398" lon="30.383776808157563">
        <ele>73.77</ele>
      </trkpt>
      <trkpt lat="59.7199615649879" lon="30.3833276219666">
        <ele>73.51</ele>
      </trkpt>
      <trkpt lat="59.72010254859924" lon="30.382883548736572">
        <ele>73.22</ele>
      </trkpt>
      <trkpt lat="59.72024956718087" lon="30.382413659244776">
        <ele>72.93</ele>
      </trkpt>
      <trkpt lat="59.72039666958153" lon="30.38194385357201">
        <ele>72.54</ele>
      </trkpt>
      <trkpt lat="59.72054368816316" lon="30.381474047899246">
        <ele>72.09</ele>
      </trkpt>
      <trkpt lat="59.72069079056382" lon="30.38100424222648">
        <ele>71.68</ele>
      </trkpt>
      <trkpt lat="59.72083780914545" lon="30.380534352734685">
        <ele>71.37</ele>
      </trkpt>
      <trkpt lat="59.72098239697516" lon="30.380072593688965">
        <ele>71.1</ele>
      </trkpt>
      <trkpt lat="59.72098231315613" lon="30.380072593688965">
        <ele>70.88</ele>
      </trkpt>
      <trkpt lat="59.721124805510044" lon="30.37961795926094">
        <ele>70.68</ele>
      </trkpt>
      <trkpt lat="59.72126738168299" lon="30.379163408651948">
        <ele>70.52</ele>
      </trkpt>
      <trkpt lat="59.72140995785594" lon="30.378708774223924">
        <ele>70.44</ele>
      </trkpt>
      <trkpt lat="59.721550941467285" lon="30.378259420394897">
        <ele>70.47</ele>
      </trkpt>
      <trkpt lat="59.721561670303345" lon="30.378331672400236">
        <ele>70.48</ele>
      </trkpt>
      <trkpt lat="59.721561670303345" lon="30.378331756219268">
        <ele>70.62</ele>
      </trkpt>
      <trkpt lat="59.72159385681152" lon="30.378549098968506">
        <ele>70.77</ele>
      </trkpt>
      <trkpt lat="59.721593940630555" lon="30.378549098968506">
        <ele>70.92</ele>
      </trkpt>
      <trkpt lat="59.721653033047915" lon="30.378855792805552">
        <ele>71.14</ele>
      </trkpt>
      <trkpt lat="59.72171187400818" lon="30.3791606426239">
        <ele>71.38</ele>
      </trkpt>
      <trkpt lat="59.721904657781124" lon="30.37958761677146">
        <ele>71.65</ele>
      </trkpt>
      <trkpt lat="59.721904657781124" lon="30.379587532952428">
        <ele>71.87</ele>
      </trkpt>
      <trkpt lat="59.72201228141785" lon="30.379825830459595">
        <ele>72.12</ele>
      </trkpt>
      <trkpt lat="59.72209291532636" lon="30.38011634722352">
        <ele>72.3</ele>
      </trkpt>
      <trkpt lat="59.72217321395874" lon="30.38040518760681">
        <ele>72.49</ele>
      </trkpt>
      <trkpt lat="59.72222157754004" lon="30.38072805851698">
        <ele>72.7</ele>
      </trkpt>
      <trkpt lat="59.722269773483276" lon="30.381048917770386">
        <ele>72.98</ele>
      </trkpt>
      <trkpt lat="59.722412349656224" lon="30.381576139479876">
        <ele>73.28</ele>
      </trkpt>
      <trkpt lat="59.72255492582917" lon="30.382103361189365">
        <ele>73.5</ele>
      </trkpt>
      <trkpt lat="59.72269750200212" lon="30.382630666717887">
        <ele>73.59</ele>
      </trkpt>
      <trkpt lat="59.722838401794434" lon="30.38315176963806">
        <ele>73.64</ele>
      </trkpt>
      <trkpt lat="59.72288131713867" lon="30.38372039794922">
        <ele>73.69</ele>
      </trkpt>
      <trkpt lat="59.72285868600011" lon="30.384206799790263">
        <ele>73.72</ele>
      </trkpt>
      <trkpt lat="59.72283630631864" lon="30.384690100327134">
        <ele>73.85</ele>
      </trkpt>
      <trkpt lat="59.72281040623784" lon="30.385247748345137">
        <ele>74.04</ele>
      </trkpt>
      <trkpt lat="59.722784757614136" lon="30.385801792144775">
        <ele>74.06</ele>
      </trkpt>
      <trkpt lat="59.722816944122314" lon="30.3862202167511">
        <ele>74.04</ele>
      </trkpt>
      <trkpt lat="59.722817027941346" lon="30.3862202167511">
        <ele>74.02</ele>
      </trkpt>
      <trkpt lat="59.722860027104616" lon="30.38668306544423">
        <ele>73.96</ele>
      </trkpt>
      <trkpt lat="59.72290311008692" lon="30.387145914137363">
        <ele>73.84</ele>
      </trkpt>
      <trkpt lat="59.72294577397406" lon="30.387604236602783">
        <ele>73.74</ele>
      </trkpt>
      <trkpt lat="59.72296714782715" lon="30.387979745864868">
        <ele>73.56</ele>
      </trkpt>
      <trkpt lat="59.72296723164618" lon="30.387979745864868">
        <ele>73.49</ele>
      </trkpt>
      <trkpt lat="59.72290260717273" lon="30.388571759685874">
        <ele>73.44</ele>
      </trkpt>
      <trkpt lat="59.722838401794434" lon="30.38915991783142">
        <ele>73.47</ele>
      </trkpt>
      <trkpt lat="59.722838485613465" lon="30.38915991783142">
        <ele>73.31</ele>
      </trkpt>
      <trkpt lat="59.722816944122314" lon="30.389277935028076">
        <ele>73.11</ele>
      </trkpt>
      <trkpt lat="59.722817027941346" lon="30.389277935028076">
        <ele>72.89</ele>
      </trkpt>
      <trkpt lat="59.722774028778076" lon="30.389846563339233">
        <ele>72.58</ele>
      </trkpt>
      <trkpt lat="59.72277411259711" lon="30.389846563339233">
        <ele>72.31</ele>
      </trkpt>
      <trkpt lat="59.7227883618325" lon="30.39029147475958">
        <ele>71.92</ele>
      </trkpt>
      <trkpt lat="59.72280269488692" lon="30.390736386179924">
        <ele>71.55</ele>
      </trkpt>
      <trkpt lat="59.722816944122314" lon="30.39117693901062">
        <ele>71.18</ele>
      </trkpt>
      <trkpt lat="59.722817027941346" lon="30.39117693901062">
        <ele>70.91</ele>
      </trkpt>
      <trkpt lat="59.722816944122314" lon="30.39117693901062">
        <ele>70.64</ele>
      </trkpt>
      <trkpt lat="59.722817027941346" lon="30.39117693901062">
        <ele>69.91</ele>
      </trkpt>
      <trkpt lat="59.72302129492164" lon="30.391464522108436">
        <ele>69.7</ele>
      </trkpt>
      <trkpt lat="59.72322556190193" lon="30.39175210520625">
        <ele>69.46</ele>
      </trkpt>
      <trkpt lat="59.72342982888222" lon="30.3920397721231">
        <ele>69.24</ele>
      </trkpt>
      <trkpt lat="59.72363233566284" lon="30.392324924468994">
        <ele>69.01</ele>
      </trkpt>
      <trkpt lat="59.72363241948187" lon="30.392324924468994">
        <ele>68.92</ele>
      </trkpt>
      <trkpt lat="59.72366460599005" lon="30.392367839813232">
        <ele>68.85</ele>
      </trkpt>
      <trkpt lat="59.72366452217102" lon="30.392367839813232">
        <ele>68.83</ele>
      </trkpt>
      <trkpt lat="59.72372897900641" lon="30.39219617843628">
        <ele>68.9</ele>
      </trkpt>
      <trkpt lat="59.72377189435065" lon="30.392067432403564">
        <ele>68.94</ele>
      </trkpt>
      <trkpt lat="59.72386870533228" lon="30.39177691563964">
        <ele>68.99</ele>
      </trkpt>
      <trkpt lat="59.72396501339972" lon="30.391488075256348">
        <ele>68.96</ele>
      </trkpt>
      <trkpt lat="59.72406182438135" lon="30.39116520434618">
        <ele>68.89</ele>
      </trkpt>
      <trkpt lat="59.72415813244879" lon="30.390844345092773">
        <ele>68.85</ele>
      </trkpt>
      <trkpt lat="59.72419601865113" lon="30.390720460563898">
        <ele>68.89</ele>
      </trkpt>
      <trkpt lat="59.724318981170654" lon="30.390318632125854">
        <ele>68.93</ele>
      </trkpt>
      <trkpt lat="59.724405063316226" lon="30.38977506570518">
        <ele>69.03</ele>
      </trkpt>
      <trkpt lat="59.72449072636664" lon="30.389235019683838">
        <ele>69.19</ele>
      </trkpt>
      <trkpt lat="59.724544538185" lon="30.388890523463488">
        <ele>69.06</ele>
      </trkpt>
      <trkpt lat="59.724598014727235" lon="30.388548374176025">
        <ele>68.77</ele>
      </trkpt>
      <trkpt lat="59.7245979309082" lon="30.388548374176025">
        <ele>68.41</ele>
      </trkpt>
      <trkpt lat="59.724671775475144" lon="30.38804822601378">
        <ele>67.73</ele>
      </trkpt>
      <trkpt lat="59.72474570386112" lon="30.387548077851534">
        <ele>67.1</ele>
      </trkpt>
      <trkpt lat="59.724818877875805" lon="30.387052791193128">
        <ele>67.09</ele>
      </trkpt>
    </trkseg>
  </trk>
</gpx>
