<?xml version="1.0" encoding="UTF-8"?>
<gpx creator="Garmin Connect" version="1.1"
  xsi:schemaLocation="http://www.topografix.com/GPX/1/1 http://www.topografix.com/GPX/11.xsd"
  xmlns:ns3="http://www.garmin.com/xmlschemas/TrackPointExtension/v1"
  xmlns="http://www.topografix.com/GPX/1/1"
  xmlns:xsi="http://www.w3.org/2001/XMLSchema-instance" xmlns:ns2="http://www.garmin.com/xmlschemas/GpxExtensions/v3">
  <metadata>
    <name>Екатерининский парк г. Пушкин (Царское Село)Бег 5 км</name>
    <link href="connect.garmin.com">
      <text>Garmin Connect</text>
    </link>
    <time>2026-09-26T20:43:42.000Z</time>
  </metadata>
  <trk>
    <name>Екатерининский парк г. Пушкин (Царское Село)Бег 5 км</name>
    <trkseg>
      <trkpt lat="59.716808795928955" lon="30.39743185043335">
        <ele>76.23</ele>
      </trkpt>
      <trkpt lat="59.71700191497803" lon="30.39766788482666">
        <ele>74.48</ele>
      </trkpt>
      <trkpt lat="59.71702345646918" lon="30.39767861366272">
        <ele>73.52</ele>
      </trkpt>
      <trkpt lat="59.71702337265015" lon="30.39767861366272">
        <ele>72.62</ele>
      </trkpt>
      <trkpt lat="59.716873755678535" lon="30.398156298324466">
        <ele>70.95</ele>
      </trkpt>
      <trkpt lat="59.716724222525954" lon="30.398634066805243">
        <ele>69.6</ele>
      </trkpt>
      <trkpt lat="59.716574689373374" lon="30.39911183528602">
        <ele>68.43</ele>
      </trkpt>
      <trkpt lat="59.716425156220794" lon="30.3995896037668">
        <ele>67.43</ele>
      </trkpt>
      <trkpt lat="59.71627562306821" lon="30.400067288428545">
        <ele>66.65</ele>
      </trkpt>
      <trkpt lat="59.71612608991563" lon="30.400545056909323">
        <ele>65.86</ele>
      </trkpt>
      <trkpt lat="59.71597655676305" lon="30.4010228253901">
        <ele>65.18</ele>
      </trkpt>
      <trkpt lat="59.71582693979144" lon="30.401500510051847">
        <ele>64.52</ele>
      </trkpt>
      <trkpt lat="59.71567740663886" lon="30.401978278532624">
        <ele>64.01</ele>
      </trkpt>
      <trkpt lat="59.7155321482569" lon="30.40244221687317">
        <ele>63.61</ele>
      </trkpt>
      <trkpt lat="59.715532064437866" lon="30.40244221687317">
        <ele>63.38</ele>
      </trkpt>
      <trkpt lat="59.71537280827761" lon="30.402937084436417">
        <ele>63.27</ele>
      </trkpt>
      <trkpt lat="59.71521355211735" lon="30.403432035818696">
        <ele>63.19</ele>
      </trkpt>
      <trkpt lat="59.71505437977612" lon="30.403926987200975">
        <ele>63.04</ele>
      </trkpt>
      <trkpt lat="59.71489512361586" lon="30.404421938583255">
        <ele>63.03</ele>
      </trkpt>
      <trkpt lat="59.71473821438849" lon="30.40490984916687">
        <ele>63.27</ele>
      </trkpt>
      <trkpt lat="59.714630926027894" lon="30.404781103134155">
        <ele>63.64</ele>
      </trkpt>
      <trkpt lat="59.71456655301154" lon="30.40470600128174">
        <ele>64.05</ele>
      </trkpt>
      <trkpt lat="59.71452355384827" lon="30.40464162826538">
        <ele>64.48</ele>
      </trkpt>
      <trkpt lat="59.71436572261155" lon="30.40514730848372">
        <ele>64.97</ele>
      </trkpt>
      <trkpt lat="59.714207891374826" lon="30.40565298870206">
        <ele>65.57</ele>
      </trkpt>
      <trkpt lat="59.714051485061646" lon="30.40615439414978">
        <ele>66.0</ele>
      </trkpt>
      <trkpt lat="59.71392231993377" lon="30.40656049735844">
        <ele>66.39</ele>
      </trkpt>
      <trkpt lat="59.71379323862493" lon="30.406966684386134">
        <ele>66.58</ele>
      </trkpt>
      <trkpt lat="59.71366407349706" lon="30.407372871413827">
        <ele>66.59</ele>
      </trkpt>
      <trkpt lat="59.713536500930786" lon="30.407774448394775">
        <ele>66.44</ele>
      </trkpt>
      <trkpt lat="59.71338629722595" lon="30.407592058181763">
        <ele>66.6</ele>
      </trkpt>
      <trkpt lat="59.71324682235718" lon="30.40743112564087">
        <ele>66.57</ele>
      </trkpt>
      <trkpt lat="59.71324690617621" lon="30.40743112564087">
        <ele>66.43</ele>
      </trkpt>
      <trkpt lat="59.71298882737756" lon="30.407126443460584">
        <ele>66.2</ele>
      </trkpt>
      <trkpt lat="59.71273083239794" lon="30.40682184509933">
        <ele>65.86</ele>
      </trkpt>
      <trkpt lat="59.71247442997992" lon="30.406519174575806">
        <ele>65.49</ele>
      </trkpt>
      <trkpt lat="59.7124529723078" lon="30.406508445739746">
        <ele>65.11</ele>
      </trkpt>
      <trkpt lat="59.712356412783265" lon="30.406497716903687">
        <ele>64.68</ele>
      </trkpt>
      <trkpt lat="59.71220570616424" lon="30.40683114901185">
        <ele>64.21</ele>
      </trkpt>
      <trkpt lat="59.712055921554565" lon="30.40716290473938">
        <ele>63.74</ele>
      </trkpt>
      <trkpt lat="59.712264547124505" lon="30.407515950500965">
        <ele>62.7</ele>
      </trkpt>
      <trkpt lat="59.712473172694445" lon="30.407869080081582">
        <ele>62.16</ele>
      </trkpt>
      <trkpt lat="59.712681882083416" lon="30.408222125843167">
        <ele>61.64</ele>
      </trkpt>
      <trkpt lat="59.712890507653356" lon="30.408575255423784">
        <ele>61.08</ele>
      </trkpt>
      <trkpt lat="59.71309678629041" lon="30.408924277871847">
        <ele>60.45</ele>
      </trkpt>
      <trkpt lat="59.71317180432379" lon="30.409051179885864">
        <ele>59.74</ele>
      </trkpt>
      <trkpt lat="59.71312880516052" lon="30.4091477394104">
        <ele>59.54</ele>
      </trkpt>
      <trkpt lat="59.71294607967138" lon="30.40917456150055">
        <ele>59.53</ele>
      </trkpt>
      <trkpt lat="59.71276410855353" lon="30.4092013835907">
        <ele>59.66</ele>
      </trkpt>
      <trkpt lat="59.712554309517145" lon="30.40952928364277">
        <ele>59.83</ele>
      </trkpt>
      <trkpt lat="59.712345600128174" lon="30.409855842590332">
        <ele>59.93</ele>
      </trkpt>
      <trkpt lat="59.71214175224304" lon="30.409995317459106">
        <ele>60.1</ele>
      </trkpt>
      <trkpt lat="59.71205240115523" lon="30.409516878426075">
        <ele>60.44</ele>
      </trkpt>
      <trkpt lat="59.71196363680065" lon="30.409041456878185">
        <ele>60.76</ele>
      </trkpt>
      <trkpt lat="59.71196363680065" lon="30.409041540697217">
        <ele>61.15</ele>
      </trkpt>
      <trkpt lat="59.71188618801534" lon="30.408626552671194">
        <ele>61.53</ele>
      </trkpt>
      <trkpt lat="59.71180924214423" lon="30.408214330673218">
        <ele>62.11</ele>
      </trkpt>
      <trkpt lat="59.71173028461635" lon="30.40775508619845">
        <ele>62.68</ele>
      </trkpt>
      <trkpt lat="59.711651327088475" lon="30.40729584172368">
        <ele>63.27</ele>
      </trkpt>
      <trkpt lat="59.711573123931885" lon="30.406841039657593">
        <ele>63.76</ele>
      </trkpt>
      <trkpt lat="59.71149777062237" lon="30.40637819096446">
        <ele>64.38</ele>
      </trkpt>
      <trkpt lat="59.71142241731286" lon="30.405915342271328">
        <ele>65.09</ele>
      </trkpt>
      <trkpt lat="59.711347902193666" lon="30.405457019805908">
        <ele>65.8</ele>
      </trkpt>
      <trkpt lat="59.7112581320107" lon="30.404951088130474">
        <ele>66.46</ele>
      </trkpt>
      <trkpt lat="59.71116844564676" lon="30.40444524027407">
        <ele>67.09</ele>
      </trkpt>
      <trkpt lat="59.711079597473145" lon="30.40394425392151">
        <ele>67.61</ele>
      </trkpt>
      <trkpt lat="59.710995610803366" lon="30.403470676392317">
        <ele>68.07</ele>
      </trkpt>
      <trkpt lat="59.71091162413359" lon="30.402997098863125">
        <ele>68.4</ele>
      </trkpt>
      <trkpt lat="59.71082772128284" lon="30.402523521333933">
        <ele>68.62</ele>
      </trkpt>
      <trkpt lat="59.71074373461306" lon="30.40204994380474">
        <ele>68.94</ele>
      </trkpt>
      <trkpt lat="59.71066117286682" lon="30.401583909988403">
        <ele>69.27</ele>
      </trkpt>
      <trkpt lat="59.71065052784979" lon="30.401272773742676">
        <ele>69.54</ele>
      </trkpt>
      <trkpt lat="59.7105482686311" lon="30.40072384290397">
        <ele>69.72</ele>
      </trkpt>
      <trkpt lat="59.71044667996466" lon="30.4001784324646">
        <ele>69.67</ele>
      </trkpt>
      <trkpt lat="59.71044659614563" lon="30.4001784324646">
        <ele>69.76</ele>
      </trkpt>
      <trkpt lat="59.710367638617754" lon="30.399783812463284">
        <ele>69.77</ele>
      </trkpt>
      <trkpt lat="59.71028876490891" lon="30.399389192461967">
        <ele>69.82</ele>
      </trkpt>
      <trkpt lat="59.71021064557135" lon="30.398998260498047">
        <ele>69.85</ele>
      </trkpt>
      <trkpt lat="59.710135543718934" lon="30.398794412612915">
        <ele>69.88</ele>
      </trkpt>
      <trkpt lat="59.7101354598999" lon="30.398794412612915">
        <ele>69.88</ele>
      </trkpt>
      <trkpt lat="59.71003864891827" lon="30.39850926026702">
        <ele>69.95</ele>
      </trkpt>
      <trkpt lat="59.70994242466986" lon="30.398225784301758">
        <ele>69.99</ele>
      </trkpt>
      <trkpt lat="59.7097953222692" lon="30.397730749100447">
        <ele>70.02</ele>
      </trkpt>
      <trkpt lat="59.70964830368757" lon="30.397235797718167">
        <ele>69.97</ele>
      </trkpt>
      <trkpt lat="59.70950120128691" lon="30.396740846335888">
        <ele>69.97</ele>
      </trkpt>
      <trkpt lat="59.70935418270528" lon="30.39624589495361">
        <ele>69.87</ele>
      </trkpt>
      <trkpt lat="59.709207164123654" lon="30.395750859752297">
        <ele>69.67</ele>
      </trkpt>
      <trkpt lat="59.70906266011298" lon="30.395264625549316">
        <ele>69.46</ele>
      </trkpt>
      <trkpt lat="59.709062576293945" lon="30.395264625549316">
        <ele>69.33</ele>
      </trkpt>
      <trkpt lat="59.70896568149328" lon="30.394753329455853">
        <ele>69.24</ele>
      </trkpt>
      <trkpt lat="59.70886945724487" lon="30.394245386123657">
        <ele>69.12</ele>
      </trkpt>
      <trkpt lat="59.70881019718945" lon="30.393660496920347">
        <ele>68.87</ele>
      </trkpt>
      <trkpt lat="59.70875102095306" lon="30.393075607717037">
        <ele>68.8</ele>
      </trkpt>
      <trkpt lat="59.70869184471667" lon="30.39249080233276">
        <ele>68.89</ele>
      </trkpt>
      <trkpt lat="59.70863266848028" lon="30.39190591312945">
        <ele>68.87</ele>
      </trkpt>
      <trkpt lat="59.708573492243886" lon="30.39132110774517">
        <ele>69.02</ele>
      </trkpt>
      <trkpt lat="59.70851548947394" lon="30.390747785568237">
        <ele>69.16</ele>
      </trkpt>
      <trkpt lat="59.70848321914673" lon="30.390136241912842">
        <ele>69.28</ele>
      </trkpt>
      <trkpt lat="59.70855857245624" lon="30.38955713622272">
        <ele>69.46</ele>
      </trkpt>
      <trkpt lat="59.70863392576575" lon="30.3889780305326">
        <ele>69.69</ele>
      </trkpt>
      <trkpt lat="59.708709279075265" lon="30.38839900866151">
        <ele>69.94</ele>
      </trkpt>
      <trkpt lat="59.70878463238478" lon="30.387819902971387">
        <ele>70.28</ele>
      </trkpt>
      <trkpt lat="59.708858812227845" lon="30.387250185012817">
        <ele>70.65</ele>
      </trkpt>
      <trkpt lat="59.70885872840881" lon="30.387250185012817">
        <ele>70.98</ele>
      </trkpt>
      <trkpt lat="59.70892058685422" lon="30.386709300801158">
        <ele>71.36</ele>
      </trkpt>
      <trkpt lat="59.708982445299625" lon="30.3861684165895">
        <ele>71.68</ele>
      </trkpt>
      <trkpt lat="59.70904438756406" lon="30.38562753237784">
        <ele>72.04</ele>
      </trkpt>
      <trkpt lat="59.709105491638184" lon="30.385093688964844">
        <ele>72.44</ele>
      </trkpt>
      <trkpt lat="59.709191573783755" lon="30.384559091180563">
        <ele>72.86</ele>
      </trkpt>
      <trkpt lat="59.70927765592933" lon="30.384024493396282">
        <ele>73.14</ele>
      </trkpt>
      <trkpt lat="59.70936298370361" lon="30.383495092391968">
        <ele>73.26</ele>
      </trkpt>
      <trkpt lat="59.709545373916626" lon="30.383065938949585">
        <ele>73.31</ele>
      </trkpt>
      <trkpt lat="59.70969105139375" lon="30.383353354409337">
        <ele>73.41</ele>
      </trkpt>
      <trkpt lat="59.709817031398416" lon="30.38360179401934">
        <ele>73.39</ele>
      </trkpt>
      <trkpt lat="59.70994242466986" lon="30.383849143981934">
        <ele>73.24</ele>
      </trkpt>
      <trkpt lat="59.71004971303046" lon="30.384031534194946">
        <ele>73.02</ele>
      </trkpt>
      <trkpt lat="59.71017334610224" lon="30.384284248575568">
        <ele>72.82</ele>
      </trkpt>
      <trkpt lat="59.71029647625983" lon="30.384535789489746">
        <ele>72.67</ele>
      </trkpt>
      <trkpt lat="59.71031022258103" lon="30.384595887735486">
        <ele>72.55</ele>
      </trkpt>
      <trkpt lat="59.71031030640006" lon="30.384595887735486">
        <ele>72.41</ele>
      </trkpt>
      <trkpt lat="59.710296392440796" lon="30.384535789489746">
        <ele>72.27</ele>
      </trkpt>
      <trkpt lat="59.71052085980773" lon="30.384184923022985">
        <ele>72.23</ele>
      </trkpt>
      <trkpt lat="59.71074532717466" lon="30.383834140375257">
        <ele>72.13</ele>
      </trkpt>
      <trkpt lat="59.7109697945416" lon="30.383483273908496">
        <ele>71.97</ele>
      </trkpt>
      <trkpt lat="59.71119426190853" lon="30.383132491260767">
        <ele>71.84</ele>
      </trkpt>
      <trkpt lat="59.711418729275465" lon="30.382781708613038">
        <ele>71.88</ele>
      </trkpt>
      <trkpt lat="59.7116431966424" lon="30.382430842146277">
        <ele>71.89</ele>
      </trkpt>
      <trkpt lat="59.71186766400933" lon="30.38208005949855">
        <ele>71.99</ele>
      </trkpt>
      <trkpt lat="59.712088108062744" lon="30.3817355632782">
        <ele>72.24</ele>
      </trkpt>
      <trkpt lat="59.71233696676791" lon="30.38137262687087">
        <ele>72.45</ele>
      </trkpt>
      <trkpt lat="59.71258473582566" lon="30.381011366844177">
        <ele>72.66</ele>
      </trkpt>
      <trkpt lat="59.71258473582566" lon="30.381011283025146">
        <ele>72.77</ele>
      </trkpt>
      <trkpt lat="59.7126030921936" lon="30.38098454475403">
        <ele>72.85</ele>
      </trkpt>
      <trkpt lat="59.7127640247345" lon="30.381360054016113">
        <ele>72.97</ele>
      </trkpt>
      <trkpt lat="59.712828397750854" lon="30.38169264793396">
        <ele>73.01</ele>
      </trkpt>
      <trkpt lat="59.71282294951379" lon="30.382004790008068">
        <ele>72.98</ele>
      </trkpt>
      <trkpt lat="59.712817668914795" lon="30.382314920425415">
        <ele>72.96</ele>
      </trkpt>
      <trkpt lat="59.71281775273383" lon="30.382314920425415">
        <ele>72.97</ele>
      </trkpt>
      <trkpt lat="59.712796211242676" lon="30.382745498791337">
        <ele>72.84</ele>
      </trkpt>
      <trkpt lat="59.71277483738959" lon="30.38317322731018">
        <ele>72.81</ele>
      </trkpt>
      <trkpt lat="59.712753212079406" lon="30.38351227529347">
        <ele>72.8</ele>
      </trkpt>
      <trkpt lat="59.71273183822632" lon="30.383849143981934">
        <ele>72.81</ele>
      </trkpt>
      <trkpt lat="59.71279101446271" lon="30.38415047340095">
        <ele>72.91</ele>
      </trkpt>
      <trkpt lat="59.712849855422974" lon="30.38444995880127">
        <ele>72.96</ele>
      </trkpt>
      <trkpt lat="59.71298698335886" lon="30.384848015382886">
        <ele>72.96</ele>
      </trkpt>
      <trkpt lat="59.71312419511378" lon="30.385246071964502">
        <ele>72.96</ele>
      </trkpt>
      <trkpt lat="59.713261323049664" lon="30.38564412854612">
        <ele>73.0</ele>
      </trkpt>
      <trkpt lat="59.71339702606201" lon="30.386037826538086">
        <ele>73.02</ele>
      </trkpt>
      <trkpt lat="59.713622415438294" lon="30.386230945587158">
        <ele>73.01</ele>
      </trkpt>
      <trkpt lat="59.71365460194647" lon="30.386338233947754">
        <ele>72.98</ele>
      </trkpt>
      <trkpt lat="59.71365451812744" lon="30.386338233947754">
        <ele>72.95</ele>
      </trkpt>
      <trkpt lat="59.71368192695081" lon="30.386438900604844">
        <ele>72.91</ele>
      </trkpt>
      <trkpt lat="59.713682010769844" lon="30.386438900604844">
        <ele>72.88</ele>
      </trkpt>
      <trkpt lat="59.71371897496283" lon="30.386574268341064">
        <ele>72.83</ele>
      </trkpt>
      <trkpt lat="59.71383724361658" lon="30.387031584978104">
        <ele>72.71</ele>
      </trkpt>
      <trkpt lat="59.71395492553711" lon="30.387486219406128">
        <ele>72.62</ele>
      </trkpt>
      <trkpt lat="59.71385836601257" lon="30.388011932373047">
        <ele>72.67</ele>
      </trkpt>
      <trkpt lat="59.713847637176514" lon="30.38817286491394">
        <ele>72.77</ele>
      </trkpt>
      <trkpt lat="59.71380480565131" lon="30.388602018356323">
        <ele>72.98</ele>
      </trkpt>
      <trkpt lat="59.713912261649966" lon="30.388838639482856">
        <ele>73.12</ele>
      </trkpt>
      <trkpt lat="59.71401929855347" lon="30.389074087142944">
        <ele>73.24</ele>
      </trkpt>
      <trkpt lat="59.71415885724127" lon="30.38918137550354">
        <ele>73.39</ele>
      </trkpt>
      <trkpt lat="59.71415877342224" lon="30.38918137550354">
        <ele>73.56</ele>
      </trkpt>
      <trkpt lat="59.71429506316781" lon="30.389643972739577">
        <ele>73.78</ele>
      </trkpt>
      <trkpt lat="59.71443135291338" lon="30.390106653794646">
        <ele>73.96</ele>
      </trkpt>
      <trkpt lat="59.714566469192505" lon="30.390565395355225">
        <ele>74.18</ele>
      </trkpt>
      <trkpt lat="59.714630926027894" lon="30.391123294830322">
        <ele>74.5</ele>
      </trkpt>
      <trkpt lat="59.71463084220886" lon="30.391123294830322">
        <ele>74.78</ele>
      </trkpt>
      <trkpt lat="59.714630926027894" lon="30.391123294830322">
        <ele>75.72</ele>
      </trkpt>
      <trkpt lat="59.71463084220886" lon="30.391123294830322">
        <ele>76.05</ele>
      </trkpt>
      <trkpt lat="59.714679289609194" lon="30.391516154631972">
        <ele>76.5</ele>
      </trkpt>
      <trkpt lat="59.71472748555243" lon="30.39190649986267">
        <ele>76.9</ele>
      </trkpt>
      <trkpt lat="59.71473821438849" lon="30.391981601715088">
        <ele>77.18</ele>
      </trkpt>
      <trkpt lat="59.71482966095209" lon="30.392320482060313">
        <ele>77.43</ele>
      </trkpt>
      <trkpt lat="59.7149206046015" lon="30.39265751838684">
        <ele>77.67</ele>
      </trkpt>
      <trkpt lat="59.71500643528998" lon="30.393118858337402">
        <ele>77.81</ele>
      </trkpt>
      <trkpt lat="59.71501716412604" lon="30.393505096435547">
        <ele>77.9</ele>
      </trkpt>
      <trkpt lat="59.71501708030701" lon="30.393505096435547">
        <ele>77.95</ele>
      </trkpt>
      <trkpt lat="59.714914821088314" lon="30.393811706453562">
        <ele>77.96</ele>
      </trkpt>
      <trkpt lat="59.714813232421875" lon="30.394116640090942">
        <ele>77.9</ele>
      </trkpt>
      <trkpt lat="59.71471667289734" lon="30.39445996284485">
        <ele>77.67</ele>
      </trkpt>
      <trkpt lat="59.71471675671637" lon="30.39445996284485">
        <ele>77.44</ele>
      </trkpt>
      <trkpt lat="59.71468448638916" lon="30.394556522369385">
        <ele>77.15</ele>
      </trkpt>
      <trkpt lat="59.71464157104492" lon="30.39465308189392">
        <ele>76.77</ele>
      </trkpt>
      <trkpt lat="59.714641654863954" lon="30.39465308189392">
        <ele>76.35</ele>
      </trkpt>
      <trkpt lat="59.714598655700684" lon="30.394760370254517">
        <ele>75.84</ele>
      </trkpt>
      <trkpt lat="59.714598739519715" lon="30.394760370254517">
        <ele>75.31</ele>
      </trkpt>
      <trkpt lat="59.714473178610206" lon="30.395101010799408">
        <ele>74.65</ele>
      </trkpt>
      <trkpt lat="59.714347617700696" lon="30.39544173516333">
        <ele>73.87</ele>
      </trkpt>
      <trkpt lat="59.7142231464386" lon="30.395779609680176">
        <ele>73.16</ele>
      </trkpt>
      <trkpt lat="59.71414779312909" lon="30.396113209426403">
        <ele>72.4</ele>
      </trkpt>
      <trkpt lat="59.714072942733765" lon="30.39644479751587">
        <ele>71.72</ele>
      </trkpt>
      <trkpt lat="59.714073026552796" lon="30.39644479751587">
        <ele>71.13</ele>
      </trkpt>
      <trkpt lat="59.714072942733765" lon="30.39644479751587">
        <ele>70.56</ele>
      </trkpt>
      <trkpt lat="59.714073026552796" lon="30.39644479751587">
        <ele>68.99</ele>
      </trkpt>
      <trkpt lat="59.71410512924194" lon="30.396648645401">
        <ele>68.57</ele>
      </trkpt>
      <trkpt lat="59.714137399569154" lon="30.396852493286133">
        <ele>68.09</ele>
      </trkpt>
      <trkpt lat="59.714083671569824" lon="30.397024154663086">
        <ele>67.67</ele>
      </trkpt>
      <trkpt lat="59.71394914202392" lon="30.397438388317823">
        <ele>67.2</ele>
      </trkpt>
      <trkpt lat="59.71381553448737" lon="30.397850275039673">
        <ele>66.68</ele>
      </trkpt>
      <trkpt lat="59.713815450668335" lon="30.397850275039673">
        <ele>66.36</ele>
      </trkpt>
      <trkpt lat="59.71367605961859" lon="30.398279428482056">
        <ele>65.95</ele>
      </trkpt>
      <trkpt lat="59.713633144274354" lon="30.39841890335083">
        <ele>65.74</ele>
      </trkpt>
      <trkpt lat="59.71353658474982" lon="30.398730039596558">
        <ele>65.65</ele>
      </trkpt>
      <trkpt lat="59.713536500930786" lon="30.398730039596558">
        <ele>65.57</ele>
      </trkpt>
      <trkpt lat="59.71341856755316" lon="30.399073362350464">
        <ele>65.58</ele>
      </trkpt>
      <trkpt lat="59.71341848373413" lon="30.399073362350464">
        <ele>65.59</ele>
      </trkpt>
      <trkpt lat="59.71341856755316" lon="30.399084091186523">
        <ele>65.66</ele>
      </trkpt>
      <trkpt lat="59.71341848373413" lon="30.399084091186523">
        <ele>65.77</ele>
      </trkpt>
      <trkpt lat="59.71333240158856" lon="30.399353066459298">
        <ele>65.86</ele>
      </trkpt>
      <trkpt lat="59.71324682235718" lon="30.399620532989502">
        <ele>66.15</ele>
      </trkpt>
      <trkpt lat="59.71316107548773" lon="30.39987802505493">
        <ele>66.41</ele>
      </trkpt>
      <trkpt lat="59.7131609916687" lon="30.39987802505493">
        <ele>66.59</ele>
      </trkpt>
      <trkpt lat="59.71313953399658" lon="30.39995312690735">
        <ele>66.8</ele>
      </trkpt>
      <trkpt lat="59.7131609916687" lon="30.39987802505493">
        <ele>67.4</ele>
      </trkpt>
      <trkpt lat="59.71316107548773" lon="30.39987802505493">
        <ele>67.52</ele>
      </trkpt>
      <trkpt lat="59.71324682235718" lon="30.399620532989502">
        <ele>67.56</ele>
      </trkpt>
      <trkpt lat="59.71340775489807" lon="30.399824380874634">
        <ele>67.73</ele>
      </trkpt>
      <trkpt lat="59.713590145111084" lon="30.400049686431885">
        <ele>67.86</ele>
      </trkpt>
      <trkpt lat="59.713590228930116" lon="30.400049686431885">
        <ele>67.88</ele>
      </trkpt>
      <trkpt lat="59.713826682418585" lon="30.400350680574775">
        <ele>67.87</ele>
      </trkpt>
      <trkpt lat="59.714063219726086" lon="30.400651758536696">
        <ele>67.81</ele>
      </trkpt>
      <trkpt lat="59.714298248291016" lon="30.40095090866089">
        <ele>67.76</ele>
      </trkpt>
      <trkpt lat="59.71429833211005" lon="30.40095090866089">
        <ele>67.66</ele>
      </trkpt>
      <trkpt lat="59.71453838981688" lon="30.40124469436705">
        <ele>67.52</ele>
      </trkpt>
      <trkpt lat="59.714778531342745" lon="30.401538563892245">
        <ele>67.4</ele>
      </trkpt>
      <trkpt lat="59.71501716412604" lon="30.401830673217773">
        <ele>67.28</ele>
      </trkpt>
      <trkpt lat="59.71516736783087" lon="30.402013063430786">
        <ele>67.23</ele>
      </trkpt>
      <trkpt lat="59.715296030044556" lon="30.40216326713562">
        <ele>67.27</ele>
      </trkpt>
      <trkpt lat="59.71543584018946" lon="30.40173285640776">
        <ele>67.48</ele>
      </trkpt>
      <trkpt lat="59.715574979782104" lon="30.401304960250854">
        <ele>67.85</ele>
      </trkpt>
      <trkpt lat="59.715575063601136" lon="30.401304960250854">
        <ele>68.18</ele>
      </trkpt>
      <trkpt lat="59.71570950932801" lon="30.400879913941026">
        <ele>68.75</ele>
      </trkpt>
      <trkpt lat="59.715843200683594" lon="30.40045738220215">
        <ele>69.18</ele>
      </trkpt>
      <trkpt lat="59.715843284502625" lon="30.40045738220215">
        <ele>69.49</ele>
      </trkpt>
      <trkpt lat="59.7159777302295" lon="30.4000592418015">
        <ele>69.9</ele>
      </trkpt>
      <trkpt lat="59.71611142158508" lon="30.39966344833374">
        <ele>70.11</ele>
      </trkpt>
      <trkpt lat="59.716111505404115" lon="30.39966344833374">
        <ele>70.31</ele>
      </trkpt>
      <trkpt lat="59.71611142158508" lon="30.39966344833374">
        <ele>70.5</ele>
      </trkpt>
    </trkseg>
  </trk>
</gpx>
