<?xml version="1.0" encoding="UTF-8"?>
<gpx creator="Garmin Connect" version="1.1"
  xsi:schemaLocation="http://www.topografix.com/GPX/1/1 http://www.topografix.com/GPX/11.xsd"
  xmlns:ns3="http://www.garmin.com/xmlschemas/TrackPointExtension/v1"
  xmlns="http://www.topografix.com/GPX/1/1"
  xmlns:xsi="http://www.w3.org/2001/XMLSchema-instance" xmlns:ns2="http://www.garmin.com/xmlschemas/GpxExtensions/v3">
  <metadata>
    <name>Pavlovsk 10 Km 2026</name>
    <link href="connect.garmin.com">
      <text>Garmin Connect</text>
    </link>
    <time>2026-10-02T11:34:12.000Z</time>
  </metadata>
  <wpt lat="59.6877018" lon="30.4466962">
    <ele>0.0</ele>
    <name>FINISH</name>
    <cmt>FINISH</cmt>
    <type>GENERIC</type>
  </wpt>
  <trk>
    <name>Pavlovsk 10 Km 2026</name>
    <trkseg>
      <trkpt lat="59.687728034332395" lon="30.44672037474811">
        <ele>36.88</ele>
      </trkpt>
      <trkpt lat="59.68751672655344" lon="30.446956660598516">
        <ele>36.65</ele>
      </trkpt>
      <trkpt lat="59.68758461996913" lon="30.44748061336577">
        <ele>36.77</ele>
      </trkpt>
      <trkpt lat="59.68765242956579" lon="30.44800448231399">
        <ele>36.93</ele>
      </trkpt>
      <trkpt lat="59.68771956861019" lon="30.44852332212031">
        <ele>36.65</ele>
      </trkpt>
      <trkpt lat="59.687809171155095" lon="30.449072252959013">
        <ele>35.92</ele>
      </trkpt>
      <trkpt lat="59.68789827078581" lon="30.449617663398385">
        <ele>34.99</ele>
      </trkpt>
      <trkpt lat="59.688076972961426" lon="30.44986425898969">
        <ele>34.12</ele>
      </trkpt>
      <trkpt lat="59.68824779614806" lon="30.450012031942606">
        <ele>33.43</ele>
      </trkpt>
      <trkpt lat="59.688417948782444" lon="30.450159218162298">
        <ele>32.89</ele>
      </trkpt>
      <trkpt lat="59.68857259489596" lon="30.45022912323475">
        <ele>32.54</ele>
      </trkpt>
      <trkpt lat="59.68872665427625" lon="30.450298776850104">
        <ele>32.37</ele>
      </trkpt>
      <trkpt lat="59.68895137310028" lon="30.450540175661445">
        <ele>32.32</ele>
      </trkpt>
      <trkpt lat="59.68921129591763" lon="30.45086732134223">
        <ele>32.3</ele>
      </trkpt>
      <trkpt lat="59.689371306449175" lon="30.451036719605327">
        <ele>32.45</ele>
      </trkpt>
      <trkpt lat="59.689530646428466" lon="30.451205363497138">
        <ele>32.74</ele>
      </trkpt>
      <trkpt lat="59.68965536914766" lon="30.451570143923163">
        <ele>33.22</ele>
      </trkpt>
      <trkpt lat="59.68973114155233" lon="30.452036848291755">
        <ele>33.83</ele>
      </trkpt>
      <trkpt lat="59.689863827079535" lon="30.452551832422614">
        <ele>34.65</ele>
      </trkpt>
      <trkpt lat="59.689984526485205" lon="30.452772360295057">
        <ele>35.36</ele>
      </trkpt>
      <trkpt lat="59.69010463915765" lon="30.452991798520088">
        <ele>35.9</ele>
      </trkpt>
      <trkpt lat="59.69029457308352" lon="30.453206710517406">
        <ele>36.28</ele>
      </trkpt>
      <trkpt lat="59.69048366881907" lon="30.45342086814344">
        <ele>36.45</ele>
      </trkpt>
      <trkpt lat="59.69066547229886" lon="30.45370040461421">
        <ele>36.53</ele>
      </trkpt>
      <trkpt lat="59.690846437588334" lon="30.453978767618537">
        <ele>36.66</ele>
      </trkpt>
      <trkpt lat="59.69096453860402" lon="30.45423156581819">
        <ele>36.72</ele>
      </trkpt>
      <trkpt lat="59.691082052886486" lon="30.454483022913337">
        <ele>36.87</ele>
      </trkpt>
      <trkpt lat="59.69115539453924" lon="30.454768175259233">
        <ele>36.99</ele>
      </trkpt>
      <trkpt lat="59.6912282332778" lon="30.455051651224494">
        <ele>37.19</ele>
      </trkpt>
      <trkpt lat="59.69132864847779" lon="30.45527142472565">
        <ele>37.37</ele>
      </trkpt>
      <trkpt lat="59.69150751829147" lon="30.455508045852184">
        <ele>37.54</ele>
      </trkpt>
      <trkpt lat="59.69168563373387" lon="30.455743661150336">
        <ele>37.63</ele>
      </trkpt>
      <trkpt lat="59.69179308973253" lon="30.45600182376802">
        <ele>37.75</ele>
      </trkpt>
      <trkpt lat="59.691899958997965" lon="30.456258645281196">
        <ele>37.87</ele>
      </trkpt>
      <trkpt lat="59.69215619377792" lon="30.456510772928596">
        <ele>38.1</ele>
      </trkpt>
      <trkpt lat="59.69241242855787" lon="30.456762900575995">
        <ele>38.29</ele>
      </trkpt>
      <trkpt lat="59.692668579518795" lon="30.457015028223395">
        <ele>38.3</ele>
      </trkpt>
      <trkpt lat="59.69292481429875" lon="30.457267155870795">
        <ele>38.19</ele>
      </trkpt>
      <trkpt lat="59.6931810490787" lon="30.457519283518195">
        <ele>37.96</ele>
      </trkpt>
      <trkpt lat="59.693434266373515" lon="30.457768477499485">
        <ele>37.6</ele>
      </trkpt>
      <trkpt lat="59.6936403773725" lon="30.457968302071095">
        <ele>37.27</ele>
      </trkpt>
      <trkpt lat="59.69384648837149" lon="30.458168126642704">
        <ele>36.83</ele>
      </trkpt>
      <trkpt lat="59.694051425904036" lon="30.4583668615669">
        <ele>36.31</ele>
      </trkpt>
      <trkpt lat="59.693969283252954" lon="30.458774054422975">
        <ele>35.73</ele>
      </trkpt>
      <trkpt lat="59.69388705678284" lon="30.45918133109808">
        <ele>35.0</ele>
      </trkpt>
      <trkpt lat="59.693805668503046" lon="30.459584752097726">
        <ele>34.08</ele>
      </trkpt>
      <trkpt lat="59.693739619106054" lon="30.460042152553797">
        <ele>33.06</ele>
      </trkpt>
      <trkpt lat="59.69367348589003" lon="30.4604996368289">
        <ele>32.07</ele>
      </trkpt>
      <trkpt lat="59.69360802322626" lon="30.46095267869532">
        <ele>31.13</ele>
      </trkpt>
      <trkpt lat="59.69356100074947" lon="30.461383257061243">
        <ele>30.39</ele>
      </trkpt>
      <trkpt lat="59.693513894453645" lon="30.461813835427165">
        <ele>29.9</ele>
      </trkpt>
      <trkpt lat="59.69346729107201" lon="30.46224013902247">
        <ele>29.83</ele>
      </trkpt>
      <trkpt lat="59.69332706183195" lon="30.4625700507313">
        <ele>30.12</ele>
      </trkpt>
      <trkpt lat="59.69318691641092" lon="30.4628998786211">
        <ele>30.55</ele>
      </trkpt>
      <trkpt lat="59.69304786063731" lon="30.46322719193995">
        <ele>31.01</ele>
      </trkpt>
      <trkpt lat="59.692794224247336" lon="30.463546961545944">
        <ele>31.4</ele>
      </trkpt>
      <trkpt lat="59.69254167750478" lon="30.463865473866463">
        <ele>31.84</ele>
      </trkpt>
      <trkpt lat="59.69232877716422" lon="30.46395138837397">
        <ele>32.34</ele>
      </trkpt>
      <trkpt lat="59.69211654737592" lon="30.464036967605352">
        <ele>32.93</ele>
      </trkpt>
      <trkpt lat="59.691845728084445" lon="30.463795568794012">
        <ele>33.57</ele>
      </trkpt>
      <trkpt lat="59.69166954047978" lon="30.463701523840427">
        <ele>34.12</ele>
      </trkpt>
      <trkpt lat="59.691493855789304" lon="30.463607730343938">
        <ele>34.59</ele>
      </trkpt>
      <trkpt lat="59.69130945391953" lon="30.463502956554294">
        <ele>35.05</ele>
      </trkpt>
      <trkpt lat="59.69112572260201" lon="30.463398518040776">
        <ele>35.48</ele>
      </trkpt>
      <trkpt lat="59.69093453139067" lon="30.463280333206058">
        <ele>35.89</ele>
      </trkpt>
      <trkpt lat="59.69074409455061" lon="30.463162567466497">
        <ele>36.35</ele>
      </trkpt>
      <trkpt lat="59.690462378785014" lon="30.463167931884527">
        <ele>36.75</ele>
      </trkpt>
      <trkpt lat="59.690435053780675" lon="30.463393153622746">
        <ele>36.93</ele>
      </trkpt>
      <trkpt lat="59.69028904102743" lon="30.463650729507208">
        <ele>37.14</ele>
      </trkpt>
      <trkpt lat="59.690264565870166" lon="30.464079966768622">
        <ele>37.36</ele>
      </trkpt>
      <trkpt lat="59.69026724807918" lon="30.46445949934423">
        <ele>37.56</ele>
      </trkpt>
      <trkpt lat="59.690269930288196" lon="30.464836433529854">
        <ele>37.67</ele>
      </trkpt>
      <trkpt lat="59.690173706039786" lon="30.46516458503902">
        <ele>37.62</ele>
      </trkpt>
      <trkpt lat="59.69007798470557" lon="30.465490892529488">
        <ele>37.47</ele>
      </trkpt>
      <trkpt lat="59.6899639070034" lon="30.465862043201923">
        <ele>37.25</ele>
      </trkpt>
      <trkpt lat="59.68985058367252" lon="30.466231182217598">
        <ele>36.97</ele>
      </trkpt>
      <trkpt lat="59.6898328140378" lon="30.466626808047295">
        <ele>36.76</ele>
      </trkpt>
      <trkpt lat="59.68981512822211" lon="30.467019751667976">
        <ele>36.6</ele>
      </trkpt>
      <trkpt lat="59.68997337855399" lon="30.467308340594172">
        <ele>36.53</ele>
      </trkpt>
      <trkpt lat="59.69013154506683" lon="30.46759692952037">
        <ele>36.46</ele>
      </trkpt>
      <trkpt lat="59.69028862193227" lon="30.467883422970772">
        <ele>36.31</ele>
      </trkpt>
      <trkpt lat="59.6904406696558" lon="30.468218699097633">
        <ele>36.06</ele>
      </trkpt>
      <trkpt lat="59.6905926335603" lon="30.468553891405463">
        <ele>35.68</ele>
      </trkpt>
      <trkpt lat="59.690743423998356" lon="30.46888656914234">
        <ele>35.15</ele>
      </trkpt>
      <trkpt lat="59.6908999979496" lon="30.469243386760354">
        <ele>34.54</ele>
      </trkpt>
      <trkpt lat="59.691056571900845" lon="30.469600120559335">
        <ele>33.83</ele>
      </trkpt>
      <trkpt lat="59.69121188856661" lon="30.4699541721493">
        <ele>33.18</ele>
      </trkpt>
      <trkpt lat="59.69137290492654" lon="30.47031090594828">
        <ele>32.63</ele>
      </trkpt>
      <trkpt lat="59.691533921286464" lon="30.470667639747262">
        <ele>32.34</ele>
      </trkpt>
      <trkpt lat="59.69169368036091" lon="30.471021691337228">
        <ele>32.01</ele>
      </trkpt>
      <trkpt lat="59.69186098314822" lon="30.471380185335875">
        <ele>31.43</ele>
      </trkpt>
      <trkpt lat="59.69202836975455" lon="30.471738763153553">
        <ele>30.74</ele>
      </trkpt>
      <trkpt lat="59.69219449907541" lon="30.472094574943185">
        <ele>30.15</ele>
      </trkpt>
      <trkpt lat="59.69236188568175" lon="30.47245306894183">
        <ele>29.68</ele>
      </trkpt>
      <trkpt lat="59.692529272288084" lon="30.47281164675951">
        <ele>29.25</ele>
      </trkpt>
      <trkpt lat="59.69269531778991" lon="30.473167458549142">
        <ele>28.94</ele>
      </trkpt>
      <trkpt lat="59.69286815263331" lon="30.473533160984516">
        <ele>28.71</ele>
      </trkpt>
      <trkpt lat="59.693040903657675" lon="30.47389886341989">
        <ele>28.55</ele>
      </trkpt>
      <trkpt lat="59.693212397396564" lon="30.474261799827218">
        <ele>28.39</ele>
      </trkpt>
      <trkpt lat="59.69338607043028" lon="30.47462926246226">
        <ele>28.37</ele>
      </trkpt>
      <trkpt lat="59.69355974346399" lon="30.4749967250973">
        <ele>28.54</ele>
      </trkpt>
      <trkpt lat="59.6937320753932" lon="30.475361421704292">
        <ele>28.68</ele>
      </trkpt>
      <trkpt lat="59.69390759244561" lon="30.475732572376728">
        <ele>28.9</ele>
      </trkpt>
      <trkpt lat="59.694083109498024" lon="30.476103639230132">
        <ele>29.16</ele>
      </trkpt>
      <trkpt lat="59.69425728544593" lon="30.47647194005549">
        <ele>29.34</ele>
      </trkpt>
      <trkpt lat="59.69443271867931" lon="30.476843006908894">
        <ele>29.52</ele>
      </trkpt>
      <trkpt lat="59.69460823573172" lon="30.477214073762298">
        <ele>29.79</ele>
      </trkpt>
      <trkpt lat="59.694782327860594" lon="30.477582374587655">
        <ele>30.22</ele>
      </trkpt>
      <trkpt lat="59.694923562929034" lon="30.47790507785976">
        <ele>30.74</ele>
      </trkpt>
      <trkpt lat="59.69506471417844" lon="30.478227781131864">
        <ele>31.23</ele>
      </trkpt>
      <trkpt lat="59.69520477578044" lon="30.478547969833016">
        <ele>31.59</ele>
      </trkpt>
      <trkpt lat="59.69507787376642" lon="30.4790788795799">
        <ele>31.95</ele>
      </trkpt>
      <trkpt lat="59.694861033931375" lon="30.479006292298436">
        <ele>32.12</ele>
      </trkpt>
      <trkpt lat="59.69464494846761" lon="30.478933956474066">
        <ele>32.17</ele>
      </trkpt>
      <trkpt lat="59.69442534260452" lon="30.47886681742966">
        <ele>32.14</ele>
      </trkpt>
      <trkpt lat="59.69420649111271" lon="30.47879984602332">
        <ele>32.02</ele>
      </trkpt>
      <trkpt lat="59.69398680143058" lon="30.478732623159885">
        <ele>31.98</ele>
      </trkpt>
      <trkpt lat="59.693767949938774" lon="30.478665651753545">
        <ele>32.07</ele>
      </trkpt>
      <trkpt lat="59.69354826025665" lon="30.47859851270914">
        <ele>32.2</ele>
      </trkpt>
      <trkpt lat="59.69332932494581" lon="30.4785315413028">
        <ele>32.34</ele>
      </trkpt>
      <trkpt lat="59.69310971908271" lon="30.478464402258396">
        <ele>32.43</ele>
      </trkpt>
      <trkpt lat="59.692890867590904" lon="30.478397430852056">
        <ele>32.6</ele>
      </trkpt>
      <trkpt lat="59.69267134554684" lon="30.478330375626683">
        <ele>32.97</ele>
      </trkpt>
      <trkpt lat="59.692452577874064" lon="30.478263488039374">
        <ele>33.35</ele>
      </trkpt>
      <trkpt lat="59.692239006981254" lon="30.478198109194636">
        <ele>33.67</ele>
      </trkpt>
      <trkpt lat="59.69202619045973" lon="30.478133065626025">
        <ele>34.0</ele>
      </trkpt>
      <trkpt lat="59.69181379303336" lon="30.478068608790636">
        <ele>34.3</ele>
      </trkpt>
      <trkpt lat="59.69160206615925" lon="30.478004487231374">
        <ele>34.57</ele>
      </trkpt>
      <trkpt lat="59.69139042310417" lon="30.47794036567211">
        <ele>34.86</ele>
      </trkpt>
      <trkpt lat="59.69117953442037" lon="30.477876579388976">
        <ele>35.18</ele>
      </trkpt>
      <trkpt lat="59.6909673884511" lon="30.477811871096492">
        <ele>35.51</ele>
      </trkpt>
      <trkpt lat="59.69075599685311" lon="30.47774733044207">
        <ele>35.87</ele>
      </trkpt>
      <trkpt lat="59.69055608846247" lon="30.477680694311857">
        <ele>36.26</ele>
      </trkpt>
      <trkpt lat="59.690356850624084" lon="30.477614225819707">
        <ele>36.73</ele>
      </trkpt>
      <trkpt lat="59.6901576127857" lon="30.477547086775303">
        <ele>37.28</ele>
      </trkpt>
      <trkpt lat="59.68995896168053" lon="30.477480199187994">
        <ele>37.83</ele>
      </trkpt>
      <trkpt lat="59.6897569578141" lon="30.477442564442754">
        <ele>38.36</ele>
      </trkpt>
      <trkpt lat="59.689555540680885" lon="30.477405097335577">
        <ele>38.91</ele>
      </trkpt>
      <trkpt lat="59.68934532254934" lon="30.477362098172307">
        <ele>39.39</ele>
      </trkpt>
      <trkpt lat="59.689135858789086" lon="30.4773192666471">
        <ele>39.75</ele>
      </trkpt>
      <trkpt lat="59.688925724476576" lon="30.47727626748383">
        <ele>40.08</ele>
      </trkpt>
      <trkpt lat="59.68871626071632" lon="30.477233435958624">
        <ele>40.31</ele>
      </trkpt>
      <trkpt lat="59.68849388882518" lon="30.477158166468143">
        <ele>40.44</ele>
      </trkpt>
      <trkpt lat="59.68827227130532" lon="30.477083148434758">
        <ele>40.54</ele>
      </trkpt>
      <trkpt lat="59.68804989941418" lon="30.47700796276331">
        <ele>40.57</ele>
      </trkpt>
      <trkpt lat="59.687828281894326" lon="30.476932944729924">
        <ele>40.47</ele>
      </trkpt>
      <trkpt lat="59.68756006099284" lon="30.4768686555326">
        <ele>40.27</ele>
      </trkpt>
      <trkpt lat="59.68760549090803" lon="30.477429823949933">
        <ele>40.15</ele>
      </trkpt>
      <trkpt lat="59.687650920823216" lon="30.4779910761863">
        <ele>40.01</ele>
      </trkpt>
      <trkpt lat="59.687696350738406" lon="30.478552244603634">
        <ele>39.9</ele>
      </trkpt>
      <trkpt lat="59.687741193920374" lon="30.479106036946177">
        <ele>39.75</ele>
      </trkpt>
      <trkpt lat="59.687783271074295" lon="30.479663098230958">
        <ele>39.63</ele>
      </trkpt>
      <trkpt lat="59.68782543204725" lon="30.48022015951574">
        <ele>39.43</ele>
      </trkpt>
      <trkpt lat="59.68786750920117" lon="30.48077722080052">
        <ele>39.22</ele>
      </trkpt>
      <trkpt lat="59.6879090834409" lon="30.48132698982954">
        <ele>38.96</ele>
      </trkpt>
      <trkpt lat="59.68795116059482" lon="30.48188396729529">
        <ele>38.7</ele>
      </trkpt>
      <trkpt lat="59.687993321567774" lon="30.48244102858007">
        <ele>38.42</ele>
      </trkpt>
      <trkpt lat="59.688035398721695" lon="30.48299808986485">
        <ele>38.2</ele>
      </trkpt>
      <trkpt lat="59.688076972961426" lon="30.48354777507484">
        <ele>37.76</ele>
      </trkpt>
      <trkpt lat="59.68811905011535" lon="30.48410483635962">
        <ele>37.31</ele>
      </trkpt>
      <trkpt lat="59.68816112726927" lon="30.4846618976444">
        <ele>37.01</ele>
      </trkpt>
      <trkpt lat="59.68820320442319" lon="30.48521895892918">
        <ele>36.79</ele>
      </trkpt>
      <trkpt lat="59.68824477866292" lon="30.48576864413917">
        <ele>36.52</ele>
      </trkpt>
      <trkpt lat="59.6882804017514" lon="30.486235013231635">
        <ele>36.22</ele>
      </trkpt>
      <trkpt lat="59.68831602483988" lon="30.4867013823241">
        <ele>35.95</ele>
      </trkpt>
      <trkpt lat="59.68835164792836" lon="30.487167751416564">
        <ele>35.57</ele>
      </trkpt>
      <trkpt lat="59.688386768102646" lon="30.48762791790068">
        <ele>35.26</ele>
      </trkpt>
      <trkpt lat="59.68858047388494" lon="30.487865628674626">
        <ele>35.06</ele>
      </trkpt>
      <trkpt lat="59.688696982339025" lon="30.488219847902656">
        <ele>34.89</ele>
      </trkpt>
      <trkpt lat="59.688936956226826" lon="30.488378098234534">
        <ele>34.86</ele>
      </trkpt>
      <trkpt lat="59.68917701393366" lon="30.488536432385445">
        <ele>34.85</ele>
      </trkpt>
      <trkpt lat="59.68941707164049" lon="30.488694682717323">
        <ele>34.87</ele>
      </trkpt>
      <trkpt lat="59.68965536914766" lon="30.48885184340179">
        <ele>34.91</ele>
      </trkpt>
      <trkpt lat="59.68995393253863" lon="30.48893976956606">
        <ele>35.03</ele>
      </trkpt>
      <trkpt lat="59.6902524959296" lon="30.489027611911297">
        <ele>35.16</ele>
      </trkpt>
      <trkpt lat="59.69055105932057" lon="30.489115538075566">
        <ele>35.24</ele>
      </trkpt>
      <trkpt lat="59.69084953889251" lon="30.489203380420804">
        <ele>35.37</ele>
      </trkpt>
      <trkpt lat="59.69114567153156" lon="30.489290552213788">
        <ele>35.51</ele>
      </trkpt>
      <trkpt lat="59.69140995293856" lon="30.489356517791748">
        <ele>35.7</ele>
      </trkpt>
      <trkpt lat="59.69167431816459" lon="30.48942256718874">
        <ele>35.86</ele>
      </trkpt>
      <trkpt lat="59.69193868339062" lon="30.4894885327667">
        <ele>36.04</ele>
      </trkpt>
      <trkpt lat="59.692202964797616" lon="30.48955449834466">
        <ele>36.14</ele>
      </trkpt>
      <trkpt lat="59.69246515072882" lon="30.48961996100843">
        <ele>36.17</ele>
      </trkpt>
      <trkpt lat="59.69276262447238" lon="30.489705707877874">
        <ele>36.17</ele>
      </trkpt>
      <trkpt lat="59.69306018203497" lon="30.48979145474732">
        <ele>36.12</ele>
      </trkpt>
      <trkpt lat="59.69335765577853" lon="30.489877201616764">
        <ele>36.06</ele>
      </trkpt>
      <trkpt lat="59.693655129522085" lon="30.48996303230524">
        <ele>36.12</ele>
      </trkpt>
      <trkpt lat="59.69395017251372" lon="30.4900480248034">
        <ele>36.05</ele>
      </trkpt>
      <trkpt lat="59.69421688467264" lon="30.49011985771358">
        <ele>35.96</ele>
      </trkpt>
      <trkpt lat="59.69448359683156" lon="30.49019169062376">
        <ele>36.0</ele>
      </trkpt>
      <trkpt lat="59.69475030899048" lon="30.49026352353394">
        <ele>35.99</ele>
      </trkpt>
      <trkpt lat="59.6950170211494" lon="30.49033535644412">
        <ele>35.92</ele>
      </trkpt>
      <trkpt lat="59.695283733308315" lon="30.49040710553527">
        <ele>35.86</ele>
      </trkpt>
      <trkpt lat="59.69554776325822" lon="30.490478267893195">
        <ele>35.89</ele>
      </trkpt>
      <trkpt lat="59.69581715762615" lon="30.49055563285947">
        <ele>35.82</ele>
      </trkpt>
      <trkpt lat="59.69608663581312" lon="30.49063299782574">
        <ele>35.68</ele>
      </trkpt>
      <trkpt lat="59.69635603018105" lon="30.490710362792015">
        <ele>35.63</ele>
      </trkpt>
      <trkpt lat="59.696625424548984" lon="30.49078772775829">
        <ele>35.57</ele>
      </trkpt>
      <trkpt lat="59.69689263962209" lon="30.490864422172308">
        <ele>35.49</ele>
      </trkpt>
      <trkpt lat="59.697130266577005" lon="30.49059276469052">
        <ele>35.6</ele>
      </trkpt>
      <trkpt lat="59.69736780971289" lon="30.490321023389697">
        <ele>35.63</ele>
      </trkpt>
      <trkpt lat="59.6976054366678" lon="30.490049365907907">
        <ele>35.62</ele>
      </trkpt>
      <trkpt lat="59.69784297980368" lon="30.489777624607086">
        <ele>35.6</ele>
      </trkpt>
      <trkpt lat="59.698080606758595" lon="30.489505967125297">
        <ele>35.51</ele>
      </trkpt>
      <trkpt lat="59.698315216228366" lon="30.489237578585744">
        <ele>35.28</ele>
      </trkpt>
      <trkpt lat="59.69856005162001" lon="30.48892702907324">
        <ele>35.04</ele>
      </trkpt>
      <trkpt lat="59.698804803192616" lon="30.488616563379765">
        <ele>35.01</ele>
      </trkpt>
      <trkpt lat="59.699049554765224" lon="30.48830609768629">
        <ele>34.99</ele>
      </trkpt>
      <trkpt lat="59.699294390156865" lon="30.487995631992817">
        <ele>35.03</ele>
      </trkpt>
      <trkpt lat="59.69953654333949" lon="30.48768835142255">
        <ele>35.04</ele>
      </trkpt>
      <trkpt lat="59.699338311329484" lon="30.48727068118751">
        <ele>35.16</ele>
      </trkpt>
      <trkpt lat="59.69914007931948" lon="30.486853010952473">
        <ele>34.97</ele>
      </trkpt>
      <trkpt lat="59.69894335605204" lon="30.48643852584064">
        <ele>34.73</ele>
      </trkpt>
      <trkpt lat="59.69875224865973" lon="30.486027309671044">
        <ele>34.51</ele>
      </trkpt>
      <trkpt lat="59.69856105744839" lon="30.48561617732048">
        <ele>34.35</ele>
      </trkpt>
      <trkpt lat="59.698369950056076" lon="30.485204961150885">
        <ele>34.2</ele>
      </trkpt>
      <trkpt lat="59.698180770501494" lon="30.484797935932875">
        <ele>33.96</ele>
      </trkpt>
      <trkpt lat="59.69800231978297" lon="30.484403232112527">
        <ele>33.72</ele>
      </trkpt>
      <trkpt lat="59.69782386906445" lon="30.48400852829218">
        <ele>33.49</ele>
      </trkpt>
      <trkpt lat="59.69764684326947" lon="30.483616841956973">
        <ele>33.36</ele>
      </trkpt>
      <trkpt lat="59.69743796624243" lon="30.483169332146645">
        <ele>33.38</ele>
      </trkpt>
      <trkpt lat="59.6972290892154" lon="30.482721822336316">
        <ele>33.51</ele>
      </trkpt>
      <trkpt lat="59.69702021218836" lon="30.48227439634502">
        <ele>33.64</ele>
      </trkpt>
      <trkpt lat="59.69681343063712" lon="30.481831496581435">
        <ele>33.81</ele>
      </trkpt>
      <trkpt lat="59.69664721749723" lon="30.481481635943055">
        <ele>34.07</ele>
      </trkpt>
      <trkpt lat="59.69648100435734" lon="30.481131775304675">
        <ele>34.52</ele>
      </trkpt>
      <trkpt lat="59.696314707398415" lon="30.480781914666295">
        <ele>35.03</ele>
      </trkpt>
      <trkpt lat="59.69615017063916" lon="30.48043565824628">
        <ele>35.39</ele>
      </trkpt>
      <trkpt lat="59.69601287506521" lon="30.480132484808564">
        <ele>35.54</ele>
      </trkpt>
      <trkpt lat="59.69587625004351" lon="30.47983082011342">
        <ele>35.59</ele>
      </trkpt>
      <trkpt lat="59.69562202692032" lon="30.479959147050977">
        <ele>35.58</ele>
      </trkpt>
      <trkpt lat="59.6954433247447" lon="30.480002062395215">
        <ele>35.6</ele>
      </trkpt>
      <trkpt lat="59.69519974663854" lon="30.479637198150158">
        <ele>35.6</ele>
      </trkpt>
      <trkpt lat="59.69515632838011" lon="30.479143587872386">
        <ele>35.57</ele>
      </trkpt>
      <trkpt lat="59.6952482778579" lon="30.478671519085765">
        <ele>35.3</ele>
      </trkpt>
      <trkpt lat="59.69540284015238" lon="30.478478064760566">
        <ele>35.06</ele>
      </trkpt>
      <trkpt lat="59.69555673189461" lon="30.478285364806652">
        <ele>34.79</ele>
      </trkpt>
      <trkpt lat="59.69572462141514" lon="30.478457026183605">
        <ele>34.48</ele>
      </trkpt>
      <trkpt lat="59.69593576155603" lon="30.478800432756543">
        <ele>34.07</ele>
      </trkpt>
      <trkpt lat="59.69617766328156" lon="30.478517627343535">
        <ele>33.56</ele>
      </trkpt>
      <trkpt lat="59.69641964882612" lon="30.478234821930528">
        <ele>32.64</ele>
      </trkpt>
      <trkpt lat="59.69666155055165" lon="30.47795201651752">
        <ele>31.83</ele>
      </trkpt>
      <trkpt lat="59.696903536096215" lon="30.477669211104512">
        <ele>31.36</ele>
      </trkpt>
      <trkpt lat="59.697145437821746" lon="30.477386405691504">
        <ele>31.11</ele>
      </trkpt>
      <trkpt lat="59.69738742336631" lon="30.477103600278497">
        <ele>30.92</ele>
      </trkpt>
      <trkpt lat="59.69762932509184" lon="30.47682079486549">
        <ele>30.66</ele>
      </trkpt>
      <trkpt lat="59.69786728732288" lon="30.476542599499226">
        <ele>30.37</ele>
      </trkpt>
      <trkpt lat="59.69811866059899" lon="30.4762555193156">
        <ele>30.13</ele>
      </trkpt>
      <trkpt lat="59.69837003387511" lon="30.475968522951007">
        <ele>29.91</ele>
      </trkpt>
      <trkpt lat="59.698621490970254" lon="30.47568144276738">
        <ele>29.71</ele>
      </trkpt>
      <trkpt lat="59.69887286424637" lon="30.475394446402788">
        <ele>29.46</ele>
      </trkpt>
      <trkpt lat="59.69912423752248" lon="30.475107366219163">
        <ele>29.22</ele>
      </trkpt>
      <trkpt lat="59.69937569461763" lon="30.474820286035538">
        <ele>29.13</ele>
      </trkpt>
      <trkpt lat="59.69962706789374" lon="30.474533289670944">
        <ele>29.14</ele>
      </trkpt>
      <trkpt lat="59.699874334037304" lon="30.474250819534063">
        <ele>29.23</ele>
      </trkpt>
      <trkpt lat="59.70012034289539" lon="30.473967427387834">
        <ele>29.37</ele>
      </trkpt>
      <trkpt lat="59.70036626793444" lon="30.473683951422572">
        <ele>29.2</ele>
      </trkpt>
      <trkpt lat="59.700612192973495" lon="30.473400559276342">
        <ele>28.79</ele>
      </trkpt>
      <trkpt lat="59.70085820183158" lon="30.47311708331108">
        <ele>28.23</ele>
      </trkpt>
      <trkpt lat="59.70110412687063" lon="30.47283369116485">
        <ele>27.83</ele>
      </trkpt>
      <trkpt lat="59.70134703442454" lon="30.47255365177989">
        <ele>27.61</ele>
      </trkpt>
      <trkpt lat="59.7016032692045" lon="30.47225659713149">
        <ele>27.43</ele>
      </trkpt>
      <trkpt lat="59.70185942016542" lon="30.47195954248309">
        <ele>27.24</ele>
      </trkpt>
      <trkpt lat="59.70211557112634" lon="30.471662487834692">
        <ele>27.1</ele>
      </trkpt>
      <trkpt lat="59.702371805906296" lon="30.47136534936726">
        <ele>27.06</ele>
      </trkpt>
      <trkpt lat="59.70262795686722" lon="30.47106829471886">
        <ele>27.26</ele>
      </trkpt>
      <trkpt lat="59.702880922704935" lon="30.470774844288826">
        <ele>27.64</ele>
      </trkpt>
      <trkpt lat="59.70273985527456" lon="30.470263799652457">
        <ele>27.66</ele>
      </trkpt>
      <trkpt lat="59.70259954221547" lon="30.46975577250123">
        <ele>27.91</ele>
      </trkpt>
      <trkpt lat="59.702461156994104" lon="30.469395350664854">
        <ele>28.36</ele>
      </trkpt>
      <trkpt lat="59.70232352614403" lon="30.46903694048524">
        <ele>28.78</ele>
      </trkpt>
      <trkpt lat="59.70225848257542" lon="30.46852204017341">
        <ele>29.25</ele>
      </trkpt>
      <trkpt lat="59.7022801078856" lon="30.46810219064355">
        <ele>29.51</ele>
      </trkpt>
      <trkpt lat="59.70230164937675" lon="30.467685190960765">
        <ele>29.73</ele>
      </trkpt>
      <trkpt lat="59.70228002406657" lon="30.46716844663024">
        <ele>30.01</ele>
      </trkpt>
      <trkpt lat="59.70225848257542" lon="30.466655138880014">
        <ele>30.46</ele>
      </trkpt>
      <trkpt lat="59.702247586101294" lon="30.466258255764842">
        <ele>30.89</ele>
      </trkpt>
      <trkpt lat="59.702090760692954" lon="30.466011576354504">
        <ele>31.12</ele>
      </trkpt>
      <trkpt lat="59.70180619508028" lon="30.466253478080034">
        <ele>31.29</ele>
      </trkpt>
      <trkpt lat="59.70152263529599" lon="30.466494457796216">
        <ele>31.35</ele>
      </trkpt>
      <trkpt lat="59.701384250074625" lon="30.466714901849627">
        <ele>31.5</ele>
      </trkpt>
      <trkpt lat="59.701246451586485" lon="30.46693434007466">
        <ele>31.66</ele>
      </trkpt>
      <trkpt lat="59.701091889292" lon="30.46718705445528">
        <ele>31.89</ele>
      </trkpt>
      <trkpt lat="59.70093799754977" lon="30.46743867918849">
        <ele>32.08</ele>
      </trkpt>
      <trkpt lat="59.70074546523392" lon="30.46757840551436">
        <ele>32.16</ele>
      </trkpt>
      <trkpt lat="59.70055368728936" lon="30.467717545107007">
        <ele>32.17</ele>
      </trkpt>
      <trkpt lat="59.70027716830373" lon="30.46780865639448">
        <ele>32.13</ele>
      </trkpt>
      <trkpt lat="59.70010374672711" lon="30.467752246186137">
        <ele>32.01</ele>
      </trkpt>
      <trkpt lat="59.69993099570274" lon="30.467696087434888">
        <ele>31.81</ele>
      </trkpt>
      <trkpt lat="59.699719939380884" lon="30.467674545943737">
        <ele>31.62</ele>
      </trkpt>
      <trkpt lat="59.69946554861963" lon="30.4676316305995">
        <ele>31.46</ele>
      </trkpt>
      <trkpt lat="59.699157094582915" lon="30.467588799074292">
        <ele>31.5</ele>
      </trkpt>
      <trkpt lat="59.69909188337624" lon="30.467045065015554">
        <ele>31.17</ele>
      </trkpt>
      <trkpt lat="59.699027091264725" lon="30.46650485135615">
        <ele>30.73</ele>
      </trkpt>
      <trkpt lat="59.6989971678704" lon="30.46612816862762">
        <ele>30.57</ele>
      </trkpt>
      <trkpt lat="59.698967495933175" lon="30.46575391665101">
        <ele>30.7</ele>
      </trkpt>
      <trkpt lat="59.69910562969744" lon="30.46556046232581">
        <ele>30.97</ele>
      </trkpt>
      <trkpt lat="59.69924326054752" lon="30.465367762371898">
        <ele>31.38</ele>
      </trkpt>
      <trkpt lat="59.699259689077735" lon="30.46502443961799">
        <ele>32.09</ele>
      </trkpt>
      <trkpt lat="59.699335461482406" lon="30.46476694755256">
        <ele>32.71</ele>
      </trkpt>
      <trkpt lat="59.699476193636656" lon="30.464552454650402">
        <ele>33.27</ele>
      </trkpt>
      <trkpt lat="59.699535788968205" lon="30.464198319241405">
        <ele>34.01</ele>
      </trkpt>
      <trkpt lat="59.69960066489875" lon="30.46381216496229">
        <ele>34.66</ele>
      </trkpt>
      <trkpt lat="59.69964936375618" lon="30.463543944060802">
        <ele>35.36</ele>
      </trkpt>
      <trkpt lat="59.6997035946697" lon="30.463447384536266">
        <ele>36.0</ele>
      </trkpt>
      <trkpt lat="59.69953268766403" lon="30.46308159828186">
        <ele>36.8</ele>
      </trkpt>
      <trkpt lat="59.699362786486745" lon="30.462717656046152">
        <ele>37.51</ele>
      </trkpt>
      <trkpt lat="59.699173187837005" lon="30.462245671078563">
        <ele>38.16</ele>
      </trkpt>
      <trkpt lat="59.6990267559886" lon="30.46205749735236">
        <ele>38.77</ele>
      </trkpt>
      <trkpt lat="59.698880994692445" lon="30.461870161816478">
        <ele>39.33</ele>
      </trkpt>
      <trkpt lat="59.698723666369915" lon="30.461671259254217">
        <ele>39.83</ele>
      </trkpt>
      <trkpt lat="59.69856692478061" lon="30.461473278701305">
        <ele>40.31</ele>
      </trkpt>
      <trkpt lat="59.69828546047211" lon="30.461258618161082">
        <ele>40.69</ele>
      </trkpt>
      <trkpt lat="59.697993183508515" lon="30.46104404143989">
        <ele>40.93</ele>
      </trkpt>
      <trkpt lat="59.697800651192665" lon="30.460958126932383">
        <ele>41.08</ele>
      </trkpt>
      <trkpt lat="59.6976088732481" lon="30.46087246388197">
        <ele>41.08</ele>
      </trkpt>
      <trkpt lat="59.697389267385006" lon="30.46075964346528">
        <ele>41.06</ele>
      </trkpt>
      <trkpt lat="59.69717049971223" lon="30.46064715832472">
        <ele>41.02</ele>
      </trkpt>
      <trkpt lat="59.696959191933274" lon="30.460539869964123">
        <ele>40.96</ele>
      </trkpt>
      <trkpt lat="59.696688540279865" lon="30.460496954619884">
        <ele>40.93</ele>
      </trkpt>
      <trkpt lat="59.696396263316274" lon="30.46035747975111">
        <ele>40.84</ele>
      </trkpt>
      <trkpt lat="59.696225272491574" lon="30.460172072052956">
        <ele>40.8</ele>
      </trkpt>
      <trkpt lat="59.69605495221913" lon="30.459987334907055">
        <ele>40.76</ele>
      </trkpt>
      <trkpt lat="59.695945819839835" lon="30.45990066602826">
        <ele>40.74</ele>
      </trkpt>
      <trkpt lat="59.695846661925316" lon="30.459809554740787">
        <ele>40.74</ele>
      </trkpt>
      <trkpt lat="59.695735685527325" lon="30.459758592769504">
        <ele>40.75</ele>
      </trkpt>
      <trkpt lat="59.6955989766866" lon="30.459715677425265">
        <ele>40.75</ele>
      </trkpt>
      <trkpt lat="59.695475762709975" lon="30.45970226638019">
        <ele>40.71</ele>
      </trkpt>
      <trkpt lat="59.695382388308644" lon="30.459694135934114">
        <ele>40.67</ele>
      </trkpt>
      <trkpt lat="59.69525657594204" lon="30.459568072110415">
        <ele>40.7</ele>
      </trkpt>
      <trkpt lat="59.695087345317006" lon="30.459396494552493">
        <ele>40.72</ele>
      </trkpt>
      <trkpt lat="59.69491006806493" lon="30.459184516221285">
        <ele>40.75</ele>
      </trkpt>
      <trkpt lat="59.69470303505659" lon="30.45900489203632">
        <ele>40.69</ele>
      </trkpt>
      <trkpt lat="59.69448644667864" lon="30.45878218486905">
        <ele>40.59</ele>
      </trkpt>
      <trkpt lat="59.69426851719618" lon="30.458559561520815">
        <ele>40.46</ele>
      </trkpt>
      <trkpt lat="59.69405067153275" lon="30.45833693817258">
        <ele>40.31</ele>
      </trkpt>
      <trkpt lat="59.6938634198159" lon="30.458135772496462">
        <ele>40.11</ele>
      </trkpt>
      <trkpt lat="59.69367692247033" lon="30.457935445010662">
        <ele>39.89</ele>
      </trkpt>
      <trkpt lat="59.69344072043896" lon="30.457708798348904">
        <ele>39.62</ele>
      </trkpt>
      <trkpt lat="59.69320443458855" lon="30.457482151687145">
        <ele>39.41</ele>
      </trkpt>
      <trkpt lat="59.692969573661685" lon="30.457256846129894">
        <ele>39.15</ele>
      </trkpt>
      <trkpt lat="59.69273630529642" lon="30.457025673240423">
        <ele>38.83</ele>
      </trkpt>
      <trkpt lat="59.69250312075019" lon="30.456794500350952">
        <ele>38.47</ele>
      </trkpt>
      <trkpt lat="59.692269852384925" lon="30.45656332746148">
        <ele>38.03</ele>
      </trkpt>
      <trkpt lat="59.69203842803836" lon="30.456333998590708">
        <ele>37.5</ele>
      </trkpt>
      <trkpt lat="59.691909262910485" lon="30.456223441287875">
        <ele>37.14</ele>
      </trkpt>
      <trkpt lat="59.69185243360698" lon="30.456027556210756">
        <ele>36.85</ele>
      </trkpt>
      <trkpt lat="59.691744139418006" lon="30.455839885398746">
        <ele>36.59</ele>
      </trkpt>
      <trkpt lat="59.69159569591284" lon="30.455644922330976">
        <ele>36.42</ele>
      </trkpt>
      <trkpt lat="59.69144783914089" lon="30.455450881272554">
        <ele>36.26</ele>
      </trkpt>
      <trkpt lat="59.69134222716093" lon="30.455373348668218">
        <ele>36.14</ele>
      </trkpt>
      <trkpt lat="59.69124734401703" lon="30.455062296241522">
        <ele>35.98</ele>
      </trkpt>
      <trkpt lat="59.69116729684174" lon="30.45476901344955">
        <ele>35.87</ele>
      </trkpt>
      <trkpt lat="59.69108766876161" lon="30.454477490857244">
        <ele>35.87</ele>
      </trkpt>
      <trkpt lat="59.690949618816376" lon="30.45409661717713">
        <ele>35.89</ele>
      </trkpt>
      <trkpt lat="59.690727246925235" lon="30.453792857006192">
        <ele>36.0</ele>
      </trkpt>
      <trkpt lat="59.690505880862474" lon="30.45349035412073">
        <ele>36.08</ele>
      </trkpt>
      <trkpt lat="59.690450141206384" lon="30.453406032174826">
        <ele>36.08</ele>
      </trkpt>
      <trkpt lat="59.690353497862816" lon="30.45328902080655">
        <ele>36.03</ele>
      </trkpt>
      <trkpt lat="59.69021536409855" lon="30.453133452683687">
        <ele>35.82</ele>
      </trkpt>
      <trkpt lat="59.69006918370724" lon="30.452956426888704">
        <ele>35.53</ele>
      </trkpt>
      <trkpt lat="59.68992434442043" lon="30.452715028077364">
        <ele>35.02</ele>
      </trkpt>
      <trkpt lat="59.68982694670558" lon="30.45243876054883">
        <ele>34.39</ele>
      </trkpt>
      <trkpt lat="59.689729465171695" lon="30.4520068410784">
        <ele>33.76</ele>
      </trkpt>
      <trkpt lat="59.68964019790292" lon="30.45150795020163">
        <ele>33.26</ele>
      </trkpt>
      <trkpt lat="59.68950608745217" lon="30.451212991029024">
        <ele>32.92</ele>
      </trkpt>
      <trkpt lat="59.6892542950809" lon="30.45092599466443">
        <ele>32.75</ele>
      </trkpt>
      <trkpt lat="59.68901323154569" lon="30.450641680508852">
        <ele>32.79</ele>
      </trkpt>
      <trkpt lat="59.68876428902149" lon="30.45035468414426">
        <ele>32.87</ele>
      </trkpt>
      <trkpt lat="59.688548957929015" lon="30.45021797530353">
        <ele>33.07</ele>
      </trkpt>
      <trkpt lat="59.68837578780949" lon="30.45010792091489">
        <ele>33.42</ele>
      </trkpt>
      <trkpt lat="59.688179483637214" lon="30.449973894283175">
        <ele>33.92</ele>
      </trkpt>
      <trkpt lat="59.68798443675041" lon="30.449764681980014">
        <ele>34.61</ele>
      </trkpt>
      <trkpt lat="59.68790606595576" lon="30.44966535642743">
        <ele>35.31</ele>
      </trkpt>
      <trkpt lat="59.68782342039049" lon="30.449096644297242">
        <ele>36.2</ele>
      </trkpt>
      <trkpt lat="59.687760304659605" lon="30.448697078973055">
        <ele>36.9</ele>
      </trkpt>
      <trkpt lat="59.68769752420485" lon="30.44830002821982">
        <ele>37.32</ele>
      </trkpt>
      <trkpt lat="59.68762485310435" lon="30.447816979140043">
        <ele>37.33</ele>
      </trkpt>
      <trkpt lat="59.687552684918046" lon="30.44733703136444">
        <ele>37.13</ele>
      </trkpt>
      <trkpt lat="59.68751488253474" lon="30.44692413881421">
        <ele>37.04</ele>
      </trkpt>
      <trkpt lat="59.68770179897547" lon="30.446696151047945">
        <ele>37.2</ele>
      </trkpt>
    </trkseg>
  </trk>
</gpx>
