<?xml version="1.0" encoding="UTF-8"?>
<gpx creator="Garmin Connect" version="1.1"
  xsi:schemaLocation="http://www.topografix.com/GPX/1/1 http://www.topografix.com/GPX/11.xsd"
  xmlns:ns3="http://www.garmin.com/xmlschemas/TrackPointExtension/v1"
  xmlns="http://www.topografix.com/GPX/1/1"
  xmlns:xsi="http://www.w3.org/2001/XMLSchema-instance" xmlns:ns2="http://www.garmin.com/xmlschemas/GpxExtensions/v3">
  <metadata>
    <name>Павловский парк Бег 5,5 км</name>
    <link href="connect.garmin.com">
      <text>Garmin Connect</text>
    </link>
    <time>2026-10-02T20:37:17.000Z</time>
  </metadata>
  <trk>
    <name>Павловский парк Бег 5,5 км</name>
    <trkseg>
      <trkpt lat="59.685577154159546" lon="30.46035647392273">
        <ele>38.64</ele>
      </trkpt>
      <trkpt lat="59.6857488155365" lon="30.459980964660645">
        <ele>38.47</ele>
      </trkpt>
      <trkpt lat="59.68582400120795" lon="30.459948778152466">
        <ele>38.39</ele>
      </trkpt>
      <trkpt lat="59.685823917388916" lon="30.459948778152466">
        <ele>38.4</ele>
      </trkpt>
      <trkpt lat="59.685985101386905" lon="30.459884237498045">
        <ele>38.44</ele>
      </trkpt>
      <trkpt lat="59.686145866289735" lon="30.45982003211975">
        <ele>38.64</ele>
      </trkpt>
      <trkpt lat="59.6861457824707" lon="30.45982003211975">
        <ele>38.85</ele>
      </trkpt>
      <trkpt lat="59.68623161315918" lon="30.459744930267334">
        <ele>39.12</ele>
      </trkpt>
      <trkpt lat="59.686338901519775" lon="30.459680557250977">
        <ele>39.4</ele>
      </trkpt>
      <trkpt lat="59.686553813517094" lon="30.459680557250977">
        <ele>39.74</ele>
      </trkpt>
      <trkpt lat="59.68676813878119" lon="30.459680557250977">
        <ele>40.16</ele>
      </trkpt>
      <trkpt lat="59.68704708851874" lon="30.459787845611572">
        <ele>40.66</ele>
      </trkpt>
      <trkpt lat="59.687122190371156" lon="30.45983076095581">
        <ele>41.01</ele>
      </trkpt>
      <trkpt lat="59.68731530942023" lon="30.459948778152466">
        <ele>41.31</ele>
      </trkpt>
      <trkpt lat="59.687315225601196" lon="30.459948778152466">
        <ele>41.58</ele>
      </trkpt>
      <trkpt lat="59.687546230852604" lon="30.460104597732425">
        <ele>41.8</ele>
      </trkpt>
      <trkpt lat="59.68777656555176" lon="30.460259914398193">
        <ele>42.06</ele>
      </trkpt>
      <trkpt lat="59.6880126837641" lon="30.460399389266968">
        <ele>42.28</ele>
      </trkpt>
      <trkpt lat="59.688109243288636" lon="30.460453033447266">
        <ele>42.48</ele>
      </trkpt>
      <trkpt lat="59.688281156122684" lon="30.460555125027895">
        <ele>42.65</ele>
      </trkpt>
      <trkpt lat="59.68845256604254" lon="30.460656881332397">
        <ele>42.84</ele>
      </trkpt>
      <trkpt lat="59.68845248222351" lon="30.460656881332397">
        <ele>43.01</ele>
      </trkpt>
      <trkpt lat="59.6887103933841" lon="30.460748160257936">
        <ele>43.22</ele>
      </trkpt>
      <trkpt lat="59.6889675501734" lon="30.46083927154541">
        <ele>43.45</ele>
      </trkpt>
      <trkpt lat="59.68896746635437" lon="30.46083927154541">
        <ele>43.61</ele>
      </trkpt>
      <trkpt lat="59.68916620127857" lon="30.460887551307678">
        <ele>43.73</ele>
      </trkpt>
      <trkpt lat="59.689364433288574" lon="30.460935831069946">
        <ele>43.86</ele>
      </trkpt>
      <trkpt lat="59.68943961896002" lon="30.460957288742065">
        <ele>43.94</ele>
      </trkpt>
      <trkpt lat="59.689568281173706" lon="30.460968017578125">
        <ele>43.99</ele>
      </trkpt>
      <trkpt lat="59.689750922843814" lon="30.461010932922363">
        <ele>44.01</ele>
      </trkpt>
      <trkpt lat="59.68993306159973" lon="30.4610538482666">
        <ele>43.98</ele>
      </trkpt>
      <trkpt lat="59.69022860750556" lon="30.46113976277411">
        <ele>43.97</ele>
      </trkpt>
      <trkpt lat="59.69052323140204" lon="30.461225509643555">
        <ele>43.87</ele>
      </trkpt>
      <trkpt lat="59.69082363881171" lon="30.461397171020508">
        <ele>43.73</ele>
      </trkpt>
      <trkpt lat="59.690855825319886" lon="30.461429357528687">
        <ele>43.51</ele>
      </trkpt>
      <trkpt lat="59.690855741500854" lon="30.461504459381104">
        <ele>43.22</ele>
      </trkpt>
      <trkpt lat="59.69094157218933" lon="30.461472272872925">
        <ele>42.9</ele>
      </trkpt>
      <trkpt lat="59.69102740287781" lon="30.461525917053223">
        <ele>42.48</ele>
      </trkpt>
      <trkpt lat="59.691070318222046" lon="30.4615581035614">
        <ele>42.04</ele>
      </trkpt>
      <trkpt lat="59.69124206341803" lon="30.461686849594116">
        <ele>41.51</ele>
      </trkpt>
      <trkpt lat="59.69127424992621" lon="30.461708307266235">
        <ele>41.01</ele>
      </trkpt>
      <trkpt lat="59.69127416610718" lon="30.461708307266235">
        <ele>40.47</ele>
      </trkpt>
      <trkpt lat="59.69151279889047" lon="30.4618844948709">
        <ele>39.93</ele>
      </trkpt>
      <trkpt lat="59.691751431673765" lon="30.4620607662946">
        <ele>39.32</ele>
      </trkpt>
      <trkpt lat="59.69199006445706" lon="30.462237121537328">
        <ele>38.65</ele>
      </trkpt>
      <trkpt lat="59.69222869724035" lon="30.462413392961025">
        <ele>38.02</ele>
      </trkpt>
      <trkpt lat="59.69246515072882" lon="30.46258807182312">
        <ele>37.37</ele>
      </trkpt>
      <trkpt lat="59.69249725341797" lon="30.46281337738037">
        <ele>36.81</ele>
      </trkpt>
      <trkpt lat="59.692604541778564" lon="30.462931394577026">
        <ele>36.26</ele>
      </trkpt>
      <trkpt lat="59.692604541778564" lon="30.462974309921265">
        <ele>35.86</ele>
      </trkpt>
      <trkpt lat="59.692625999450684" lon="30.46308159828186">
        <ele>35.51</ele>
      </trkpt>
      <trkpt lat="59.692626083269715" lon="30.4631245136261">
        <ele>35.3</ele>
      </trkpt>
      <trkpt lat="59.69266891479492" lon="30.46310305595398">
        <ele>35.17</ele>
      </trkpt>
      <trkpt lat="59.69269045628607" lon="30.463135242462158">
        <ele>35.14</ele>
      </trkpt>
      <trkpt lat="59.69280847348273" lon="30.463500022888184">
        <ele>35.19</ele>
      </trkpt>
      <trkpt lat="59.692808389663696" lon="30.463500022888184">
        <ele>35.35</ele>
      </trkpt>
      <trkpt lat="59.692862117663026" lon="30.463650226593018">
        <ele>35.66</ele>
      </trkpt>
      <trkpt lat="59.69293721951544" lon="30.463886260986328">
        <ele>36.1</ele>
      </trkpt>
      <trkpt lat="59.69298005104065" lon="30.464036464691162">
        <ele>36.6</ele>
      </trkpt>
      <trkpt lat="59.69302305020392" lon="30.46404719352722">
        <ele>37.07</ele>
      </trkpt>
      <trkpt lat="59.693108880892396" lon="30.46411156654358">
        <ele>37.62</ele>
      </trkpt>
      <trkpt lat="59.69323762692511" lon="30.464165210723877">
        <ele>38.15</ele>
      </trkpt>
      <trkpt lat="59.693398559466004" lon="30.464283227920532">
        <ele>38.69</ele>
      </trkpt>
      <trkpt lat="59.69346293248236" lon="30.46432614326477">
        <ele>39.15</ele>
      </trkpt>
      <trkpt lat="59.69369896687567" lon="30.464497804641724">
        <ele>39.6</ele>
      </trkpt>
      <trkpt lat="59.693870544433594" lon="30.464637279510498">
        <ele>39.95</ele>
      </trkpt>
      <trkpt lat="59.69398864544928" lon="30.464755296707153">
        <ele>40.3</ele>
      </trkpt>
      <trkpt lat="59.69399937428534" lon="30.464776754379272">
        <ele>40.63</ele>
      </trkpt>
      <trkpt lat="59.69399929046631" lon="30.464776754379272">
        <ele>40.94</ele>
      </trkpt>
      <trkpt lat="59.694160306826234" lon="30.46481966972351">
        <ele>41.18</ele>
      </trkpt>
      <trkpt lat="59.69425686635077" lon="30.46487331390381">
        <ele>41.43</ele>
      </trkpt>
      <trkpt lat="59.69434269703925" lon="30.464905500411987">
        <ele>41.66</ele>
      </trkpt>
      <trkpt lat="59.694579066708684" lon="30.46501647680998">
        <ele>41.87</ele>
      </trkpt>
      <trkpt lat="59.69481552019715" lon="30.465127537027">
        <ele>42.02</ele>
      </trkpt>
      <trkpt lat="59.69505080021918" lon="30.465238094329834">
        <ele>42.14</ele>
      </trkpt>
      <trkpt lat="59.695136630907655" lon="30.465281009674072">
        <ele>42.28</ele>
      </trkpt>
      <trkpt lat="59.69523319043219" lon="30.46532392501831">
        <ele>42.4</ele>
      </trkpt>
      <trkpt lat="59.69527610577643" lon="30.46534538269043">
        <ele>42.5</ele>
      </trkpt>
      <trkpt lat="59.6952760219574" lon="30.46534538269043">
        <ele>42.58</ele>
      </trkpt>
      <trkpt lat="59.69550526700914" lon="30.46544563025236">
        <ele>42.67</ele>
      </trkpt>
      <trkpt lat="59.69573459587991" lon="30.465545961633325">
        <ele>42.77</ele>
      </trkpt>
      <trkpt lat="59.69596275128424" lon="30.465645790100098">
        <ele>42.84</ele>
      </trkpt>
      <trkpt lat="59.69609149731696" lon="30.465688705444336">
        <ele>42.82</ele>
      </trkpt>
      <trkpt lat="59.696327447891235" lon="30.46579599380493">
        <ele>42.73</ele>
      </trkpt>
      <trkpt lat="59.69657898880541" lon="30.466118529438972">
        <ele>42.53</ele>
      </trkpt>
      <trkpt lat="59.69683061353862" lon="30.466441065073013">
        <ele>42.22</ele>
      </trkpt>
      <trkpt lat="59.6970821544528" lon="30.466763600707054">
        <ele>41.86</ele>
      </trkpt>
      <trkpt lat="59.69733377918601" lon="30.467086136341095">
        <ele>41.48</ele>
      </trkpt>
      <trkpt lat="59.697582721710205" lon="30.467405319213867">
        <ele>40.98</ele>
      </trkpt>
      <trkpt lat="59.69789385795593" lon="30.467405319213867">
        <ele>40.4</ele>
      </trkpt>
      <trkpt lat="59.698123103007674" lon="30.467319320887327">
        <ele>39.8</ele>
      </trkpt>
      <trkpt lat="59.69835243187845" lon="30.467233322560787">
        <ele>39.12</ele>
      </trkpt>
      <trkpt lat="59.69858058728278" lon="30.467147827148438">
        <ele>38.41</ele>
      </trkpt>
      <trkpt lat="59.698849227279425" lon="30.467040287330747">
        <ele>37.55</ele>
      </trkpt>
      <trkpt lat="59.699117029085755" lon="30.466933250427246">
        <ele>36.64</ele>
      </trkpt>
      <trkpt lat="59.699138486757874" lon="30.46708345413208">
        <ele>36.17</ele>
      </trkpt>
      <trkpt lat="59.699159944429994" lon="30.467255115509033">
        <ele>35.74</ele>
      </trkpt>
      <trkpt lat="59.69919204711914" lon="30.46758770942688">
        <ele>35.36</ele>
      </trkpt>
      <trkpt lat="59.69927796162665" lon="30.46758770942688">
        <ele>34.86</ele>
      </trkpt>
      <trkpt lat="59.699299335479736" lon="30.46758770942688">
        <ele>34.47</ele>
      </trkpt>
      <trkpt lat="59.69929941929877" lon="30.46758770942688">
        <ele>34.13</ele>
      </trkpt>
      <trkpt lat="59.699353063479066" lon="30.46759843826294">
        <ele>33.82</ele>
      </trkpt>
      <trkpt lat="59.69962882809341" lon="30.467659290879965">
        <ele>33.53</ele>
      </trkpt>
      <trkpt lat="59.69990459270775" lon="30.467720227316022">
        <ele>33.39</ele>
      </trkpt>
      <trkpt lat="59.70017910003662" lon="30.467780828475952">
        <ele>33.29</ele>
      </trkpt>
      <trkpt lat="59.70037783496082" lon="30.46772701665759">
        <ele>33.14</ele>
      </trkpt>
      <trkpt lat="59.700576066970825" lon="30.467673540115356">
        <ele>33.02</ele>
      </trkpt>
      <trkpt lat="59.700780250132084" lon="30.467490730807185">
        <ele>32.89</ele>
      </trkpt>
      <trkpt lat="59.70098376274109" lon="30.46730875968933">
        <ele>32.72</ele>
      </trkpt>
      <trkpt lat="59.70119875855744" lon="30.467022014781833">
        <ele>32.55</ele>
      </trkpt>
      <trkpt lat="59.70141383819282" lon="30.466735269874334">
        <ele>32.5</ele>
      </trkpt>
      <trkpt lat="59.70162749290466" lon="30.466450452804565">
        <ele>32.59</ele>
      </trkpt>
      <trkpt lat="59.70186394639313" lon="30.466240821406245">
        <ele>32.69</ele>
      </trkpt>
      <trkpt lat="59.702099561691284" lon="30.466032028198242">
        <ele>32.77</ele>
      </trkpt>
      <trkpt lat="59.702099645510316" lon="30.466032028198242">
        <ele>32.79</ele>
      </trkpt>
      <trkpt lat="59.70223903656006" lon="30.465946197509766">
        <ele>32.77</ele>
      </trkpt>
      <trkpt lat="59.70255025662482" lon="30.465989112854004">
        <ele>32.76</ele>
      </trkpt>
      <trkpt lat="59.702808167785406" lon="30.466175358742476">
        <ele>32.74</ele>
      </trkpt>
      <trkpt lat="59.703066078945994" lon="30.46636168844998">
        <ele>32.7</ele>
      </trkpt>
      <trkpt lat="59.703322649002075" lon="30.4665470123291">
        <ele>32.62</ele>
      </trkpt>
      <trkpt lat="59.70350529067218" lon="30.46648247167468">
        <ele>32.44</ele>
      </trkpt>
      <trkpt lat="59.7036874294281" lon="30.466418266296387">
        <ele>32.19</ele>
      </trkpt>
      <trkpt lat="59.70399362035096" lon="30.466423630714417">
        <ele>31.87</ele>
      </trkpt>
      <trkpt lat="59.704298973083496" lon="30.466428995132446">
        <ele>31.48</ele>
      </trkpt>
      <trkpt lat="59.7045389469713" lon="30.466310726478696">
        <ele>30.94</ele>
      </trkpt>
      <trkpt lat="59.70477900467813" lon="30.466192541643977">
        <ele>30.42</ele>
      </trkpt>
      <trkpt lat="59.70501780509949" lon="30.46607494354248">
        <ele>29.88</ele>
      </trkpt>
      <trkpt lat="59.705307483673096" lon="30.466139316558838">
        <ele>29.4</ele>
      </trkpt>
      <trkpt lat="59.705558186396956" lon="30.46599238179624">
        <ele>28.86</ele>
      </trkpt>
      <trkpt lat="59.70580897293985" lon="30.465845530852675">
        <ele>28.15</ele>
      </trkpt>
      <trkpt lat="59.706058502197266" lon="30.465699434280396">
        <ele>27.39</ele>
      </trkpt>
      <trkpt lat="59.7060585860163" lon="30.465699434280396">
        <ele>27.04</ele>
      </trkpt>
      <trkpt lat="59.70606931485236" lon="30.465699434280396">
        <ele>26.75</ele>
      </trkpt>
      <trkpt lat="59.7060585860163" lon="30.465699434280396">
        <ele>26.56</ele>
      </trkpt>
      <trkpt lat="59.70618766732514" lon="30.466221291571856">
        <ele>26.54</ele>
      </trkpt>
      <trkpt lat="59.70631607808173" lon="30.466740131378174">
        <ele>26.58</ele>
      </trkpt>
      <trkpt lat="59.70607819966972" lon="30.46701698563993">
        <ele>26.7</ele>
      </trkpt>
      <trkpt lat="59.70584032125771" lon="30.467293756082654">
        <ele>26.85</ele>
      </trkpt>
      <trkpt lat="59.7056024428457" lon="30.46757061034441">
        <ele>27.02</ele>
      </trkpt>
      <trkpt lat="59.705364564433694" lon="30.467847464606166">
        <ele>27.2</ele>
      </trkpt>
      <trkpt lat="59.705126686021686" lon="30.468124318867922">
        <ele>27.35</ele>
      </trkpt>
      <trkpt lat="59.70488880760968" lon="30.468401173129678">
        <ele>27.4</ele>
      </trkpt>
      <trkpt lat="59.70465092919767" lon="30.468678027391434">
        <ele>27.3</ele>
      </trkpt>
      <trkpt lat="59.70441699028015" lon="30.468950271606445">
        <ele>27.03</ele>
      </trkpt>
      <trkpt lat="59.70441707409918" lon="30.468950271606445">
        <ele>27.04</ele>
      </trkpt>
      <trkpt lat="59.70416972413659" lon="30.469238692894578">
        <ele>26.78</ele>
      </trkpt>
      <trkpt lat="59.70392245799303" lon="30.469527198001742">
        <ele>26.8</ele>
      </trkpt>
      <trkpt lat="59.70367519184947" lon="30.469815703108907">
        <ele>27.02</ele>
      </trkpt>
      <trkpt lat="59.70342792570591" lon="30.47010420821607">
        <ele>27.27</ele>
      </trkpt>
      <trkpt lat="59.70318065956235" lon="30.470392713323236">
        <ele>27.42</ele>
      </trkpt>
      <trkpt lat="59.70293649472296" lon="30.470677614212036">
        <ele>27.37</ele>
      </trkpt>
      <trkpt lat="59.70289349555969" lon="30.470731258392334">
        <ele>27.44</ele>
      </trkpt>
      <trkpt lat="59.702861309051514" lon="30.470763444900513">
        <ele>27.55</ele>
      </trkpt>
      <trkpt lat="59.702861392870545" lon="30.470763444900513">
        <ele>27.7</ele>
      </trkpt>
      <trkpt lat="59.70260658301413" lon="30.47106334939599">
        <ele>27.65</ele>
      </trkpt>
      <trkpt lat="59.702351773157716" lon="30.4713633377105">
        <ele>27.77</ele>
      </trkpt>
      <trkpt lat="59.7020969633013" lon="30.47166332602501">
        <ele>28.1</ele>
      </trkpt>
      <trkpt lat="59.701842153444886" lon="30.47196331433952">
        <ele>28.5</ele>
      </trkpt>
      <trkpt lat="59.70158734358847" lon="30.472263302654028">
        <ele>28.94</ele>
      </trkpt>
      <trkpt lat="59.70133253373206" lon="30.472563207149506">
        <ele>29.31</ele>
      </trkpt>
      <trkpt lat="59.70107772387564" lon="30.472863195464015">
        <ele>29.73</ele>
      </trkpt>
      <trkpt lat="59.70082291401923" lon="30.473163183778524">
        <ele>30.33</ele>
      </trkpt>
      <trkpt lat="59.70056810416281" lon="30.473463172093034">
        <ele>31.02</ele>
      </trkpt>
      <trkpt lat="59.700318574905396" lon="30.473756790161133">
        <ele>31.5</ele>
      </trkpt>
      <trkpt lat="59.70031865872443" lon="30.473756790161133">
        <ele>31.72</ele>
      </trkpt>
      <trkpt lat="59.70028647221625" lon="30.47378897666931">
        <ele>31.89</ele>
      </trkpt>
      <trkpt lat="59.70024347305298" lon="30.47383189201355">
        <ele>31.97</ele>
      </trkpt>
      <trkpt lat="59.69999972730875" lon="30.474114948883653">
        <ele>31.83</ele>
      </trkpt>
      <trkpt lat="59.69975606538355" lon="30.474398089572787">
        <ele>31.53</ele>
      </trkpt>
      <trkpt lat="59.69951240345836" lon="30.474681230261922">
        <ele>31.28</ele>
      </trkpt>
      <trkpt lat="59.69926874153316" lon="30.474964287132025">
        <ele>31.08</ele>
      </trkpt>
      <trkpt lat="59.699025079607964" lon="30.47524742782116">
        <ele>31.05</ele>
      </trkpt>
      <trkpt lat="59.69878443516791" lon="30.475527048110962">
        <ele>31.1</ele>
      </trkpt>
      <trkpt lat="59.69874151982367" lon="30.4755699634552">
        <ele>31.07</ele>
      </trkpt>
      <trkpt lat="59.6986985206604" lon="30.475623607635498">
        <ele>31.05</ele>
      </trkpt>
      <trkpt lat="59.69869860447943" lon="30.475623607635498">
        <ele>31.04</ele>
      </trkpt>
      <trkpt lat="59.698431892320514" lon="30.475929966196418">
        <ele>31.06</ele>
      </trkpt>
      <trkpt lat="59.69816526398063" lon="30.47623640857637">
        <ele>31.1</ele>
      </trkpt>
      <trkpt lat="59.69789863564074" lon="30.47654285095632">
        <ele>31.19</ele>
      </trkpt>
      <trkpt lat="59.697632007300854" lon="30.476849293336272">
        <ele>31.33</ele>
      </trkpt>
      <trkpt lat="59.69736537896097" lon="30.477155651897192">
        <ele>31.4</ele>
      </trkpt>
      <trkpt lat="59.69709875062108" lon="30.477462094277143">
        <ele>31.42</ele>
      </trkpt>
      <trkpt lat="59.696832122281194" lon="30.477768536657095">
        <ele>31.5</ele>
      </trkpt>
      <trkpt lat="59.69656549394131" lon="30.478074895218015">
        <ele>31.96</ele>
      </trkpt>
      <trkpt lat="59.69629886560142" lon="30.478381337597966">
        <ele>32.65</ele>
      </trkpt>
      <trkpt lat="59.69603776931763" lon="30.478681325912476">
        <ele>33.13</ele>
      </trkpt>
      <trkpt lat="59.69591983594" lon="30.478659868240356">
        <ele>33.29</ele>
      </trkpt>
      <trkpt lat="59.69591975212097" lon="30.478659868240356">
        <ele>33.36</ele>
      </trkpt>
      <trkpt lat="59.69574809074402" lon="30.478423833847046">
        <ele>33.33</ele>
      </trkpt>
      <trkpt lat="59.69570517539978" lon="30.478402376174927">
        <ele>33.23</ele>
      </trkpt>
      <trkpt lat="59.69550141133368" lon="30.478402376174927">
        <ele>33.01</ele>
      </trkpt>
      <trkpt lat="59.69546914100647" lon="30.478423833847046">
        <ele>32.76</ele>
      </trkpt>
      <trkpt lat="59.69521164894104" lon="30.478413105010986">
        <ele>32.4</ele>
      </trkpt>
      <trkpt lat="59.69500679522753" lon="30.47797104343772">
        <ele>31.89</ele>
      </trkpt>
      <trkpt lat="59.694801941514015" lon="30.477529065683484">
        <ele>31.26</ele>
      </trkpt>
      <trkpt lat="59.694597171619534" lon="30.477087004110217">
        <ele>30.83</ele>
      </trkpt>
      <trkpt lat="59.69439231790602" lon="30.476645026355982">
        <ele>30.53</ele>
      </trkpt>
      <trkpt lat="59.69418746419251" lon="30.476202964782715">
        <ele>30.36</ele>
      </trkpt>
      <trkpt lat="59.69398269429803" lon="30.47576098702848">
        <ele>30.07</ele>
      </trkpt>
      <trkpt lat="59.69377784058452" lon="30.475319009274244">
        <ele>29.83</ele>
      </trkpt>
      <trkpt lat="59.693572986871004" lon="30.474876947700977">
        <ele>29.65</ele>
      </trkpt>
      <trkpt lat="59.69336821697652" lon="30.474434969946742">
        <ele>29.51</ele>
      </trkpt>
      <trkpt lat="59.69316336326301" lon="30.473992992192507">
        <ele>29.61</ele>
      </trkpt>
      <trkpt lat="59.6929585095495" lon="30.47355101443827">
        <ele>29.74</ele>
      </trkpt>
      <trkpt lat="59.69275373965502" lon="30.473109036684036">
        <ele>29.95</ele>
      </trkpt>
      <trkpt lat="59.692548885941505" lon="30.4726670589298">
        <ele>30.27</ele>
      </trkpt>
      <trkpt lat="59.69234403222799" lon="30.472225081175566">
        <ele>30.68</ele>
      </trkpt>
      <trkpt lat="59.69213926233351" lon="30.47178310342133">
        <ele>31.26</ele>
      </trkpt>
      <trkpt lat="59.69193440862" lon="30.471341125667095">
        <ele>31.9</ele>
      </trkpt>
      <trkpt lat="59.69172955490649" lon="30.47089914791286">
        <ele>32.39</ele>
      </trkpt>
      <trkpt lat="59.69152478501201" lon="30.470457170158625">
        <ele>32.56</ele>
      </trkpt>
      <trkpt lat="59.691319931298494" lon="30.47001519240439">
        <ele>32.92</ele>
      </trkpt>
      <trkpt lat="59.69111507758498" lon="30.469573214650154">
        <ele>33.56</ele>
      </trkpt>
      <trkpt lat="59.6909103076905" lon="30.46913123689592">
        <ele>34.29</ele>
      </trkpt>
      <trkpt lat="59.69070545397699" lon="30.468689259141684">
        <ele>34.82</ele>
      </trkpt>
      <trkpt lat="59.69051250256598" lon="30.468274354934692">
        <ele>35.13</ele>
      </trkpt>
      <trkpt lat="59.69051241874695" lon="30.468274354934692">
        <ele>35.29</ele>
      </trkpt>
      <trkpt lat="59.69049096107483" lon="30.468242168426514">
        <ele>35.36</ele>
      </trkpt>
      <trkpt lat="59.69034033827484" lon="30.467914016917348">
        <ele>35.31</ele>
      </trkpt>
      <trkpt lat="59.69019063748419" lon="30.46758770942688">
        <ele>35.12</ele>
      </trkpt>
      <trkpt lat="59.69000766053796" lon="30.467189652845263">
        <ele>34.82</ele>
      </trkpt>
      <trkpt lat="59.689825773239136" lon="30.46679377555847">
        <ele>34.64</ele>
      </trkpt>
      <trkpt lat="59.68963575549424" lon="30.466499822214246">
        <ele>34.59</ele>
      </trkpt>
      <trkpt lat="59.68944582156837" lon="30.46620586887002">
        <ele>34.59</ele>
      </trkpt>
      <trkpt lat="59.68925722874701" lon="30.465914011001587">
        <ele>34.59</ele>
      </trkpt>
      <trkpt lat="59.68925714492798" lon="30.465914011001587">
        <ele>34.58</ele>
      </trkpt>
      <trkpt lat="59.689096212387085" lon="30.465484857559204">
        <ele>34.64</ele>
      </trkpt>
      <trkpt lat="59.68894600868225" lon="30.46533465385437">
        <ele>34.61</ele>
      </trkpt>
      <trkpt lat="59.68870419077575" lon="30.46536684036255">
        <ele>34.71</ele>
      </trkpt>
      <trkpt lat="59.68846321105957" lon="30.465399026870728">
        <ele>34.86</ele>
      </trkpt>
      <trkpt lat="59.68820571899414" lon="30.46512007713318">
        <ele>34.97</ele>
      </trkpt>
      <trkpt lat="59.68803908675909" lon="30.465066265314817">
        <ele>34.97</ele>
      </trkpt>
      <trkpt lat="59.687873125076294" lon="30.465012788772583">
        <ele>34.96</ele>
      </trkpt>
      <trkpt lat="59.68763650394976" lon="30.46470089815557">
        <ele>34.97</ele>
      </trkpt>
      <trkpt lat="59.68739996664226" lon="30.46438909135759">
        <ele>35.13</ele>
      </trkpt>
      <trkpt lat="59.68716502189636" lon="30.4640793800354">
        <ele>35.32</ele>
      </trkpt>
      <trkpt lat="59.68704666942358" lon="30.463783498853445">
        <ele>35.51</ele>
      </trkpt>
      <trkpt lat="59.68692898750305" lon="30.463489294052124">
        <ele>35.66</ele>
      </trkpt>
      <trkpt lat="59.68678917735815" lon="30.46329567208886">
        <ele>35.81</ele>
      </trkpt>
      <trkpt lat="59.6866500377655" lon="30.46310305595398">
        <ele>35.86</ele>
      </trkpt>
      <trkpt lat="59.686371088027954" lon="30.463231801986694">
        <ele>35.93</ele>
      </trkpt>
      <trkpt lat="59.686360359191895" lon="30.463156700134277">
        <ele>36.1</ele>
      </trkpt>
      <trkpt lat="59.686239240691066" lon="30.462745064869523">
        <ele>36.32</ele>
      </trkpt>
      <trkpt lat="59.68611820600927" lon="30.4623335134238">
        <ele>36.51</ele>
      </trkpt>
      <trkpt lat="59.68599717132747" lon="30.461921961978078">
        <ele>36.85</ele>
      </trkpt>
      <trkpt lat="59.685877561569214" lon="30.461515188217163">
        <ele>37.36</ele>
      </trkpt>
      <trkpt lat="59.685877645388246" lon="30.461515188217163">
        <ele>37.71</ele>
      </trkpt>
      <trkpt lat="59.68581302091479" lon="30.461192317306995">
        <ele>38.21</ele>
      </trkpt>
      <trkpt lat="59.6857488155365" lon="30.46087145805359">
        <ele>38.56</ele>
      </trkpt>
      <trkpt lat="59.685577154159546" lon="30.460388660430908">
        <ele>38.74</ele>
      </trkpt>
      <trkpt lat="59.685577154159546" lon="30.46035647392273">
        <ele>38.9</ele>
      </trkpt>
    </trkseg>
  </trk>
</gpx>
