<?xml version="1.0" encoding="UTF-8"?>
<gpx creator="Garmin Connect" version="1.1"
  xsi:schemaLocation="http://www.topografix.com/GPX/1/1 http://www.topografix.com/GPX/11.xsd"
  xmlns:ns3="http://www.garmin.com/xmlschemas/TrackPointExtension/v1"
  xmlns="http://www.topografix.com/GPX/1/1"
  xmlns:xsi="http://www.w3.org/2001/XMLSchema-instance" xmlns:ns2="http://www.garmin.com/xmlschemas/GpxExtensions/v3">
  <metadata>
    <name>Гатчинский государственный музей-заповедник
г. Гатчина, ЛО + Приоратский парк Бег 10 км</name>
    <link href="connect.garmin.com">
      <text>Garmin Connect</text>
    </link>
    <time>2026-09-26T20:18:24.000Z</time>
  </metadata>
  <trk>
    <name>Гатчинский государственный музей-заповедник
г. Гатчина, ЛО + Приоратский парк Бег 10 км</name>
    <trkseg>
      <trkpt lat="59.56494212150574" lon="30.105886459350586">
        <ele>92.5</ele>
      </trkpt>
      <trkpt lat="59.56494220532477" lon="30.105886459350586">
        <ele>92.04</ele>
      </trkpt>
      <trkpt lat="59.565189303830266" lon="30.105753857642412">
        <ele>91.58</ele>
      </trkpt>
      <trkpt lat="59.565436486154795" lon="30.10562133975327">
        <ele>90.96</ele>
      </trkpt>
      <trkpt lat="59.56568241119385" lon="30.105489492416382">
        <ele>90.31</ele>
      </trkpt>
      <trkpt lat="59.56582213751972" lon="30.10529050603509">
        <ele>89.88</ele>
      </trkpt>
      <trkpt lat="59.5659613609314" lon="30.105092525482178">
        <ele>89.43</ele>
      </trkpt>
      <trkpt lat="59.56596144475043" lon="30.105092525482178">
        <ele>89.02</ele>
      </trkpt>
      <trkpt lat="59.566129921004176" lon="30.104719614610076">
        <ele>88.63</ele>
      </trkpt>
      <trkpt lat="59.566298397257924" lon="30.104346703737974">
        <ele>88.17</ele>
      </trkpt>
      <trkpt lat="59.566465616226196" lon="30.103976726531982">
        <ele>87.61</ele>
      </trkpt>
      <trkpt lat="59.56646570004523" lon="30.103976726531982">
        <ele>87.11</ele>
      </trkpt>
      <trkpt lat="59.56663048826158" lon="30.103711439296603">
        <ele>86.52</ele>
      </trkpt>
      <trkpt lat="59.566795360296965" lon="30.103446152061224">
        <ele>85.96</ele>
      </trkpt>
      <trkpt lat="59.56695914268494" lon="30.103182792663574">
        <ele>85.4</ele>
      </trkpt>
      <trkpt lat="59.567238092422485" lon="30.10307550430298">
        <ele>84.8</ele>
      </trkpt>
      <trkpt lat="59.56754922866821" lon="30.103129148483276">
        <ele>84.1</ele>
      </trkpt>
      <trkpt lat="59.567767744883895" lon="30.103265270590782">
        <ele>83.49</ele>
      </trkpt>
      <trkpt lat="59.56798626109958" lon="30.103401392698288">
        <ele>82.92</ele>
      </trkpt>
      <trkpt lat="59.56820368766785" lon="30.10353684425354">
        <ele>82.39</ele>
      </trkpt>
      <trkpt lat="59.56839680671692" lon="30.103204250335693">
        <ele>81.92</ele>
      </trkpt>
      <trkpt lat="59.56848288886249" lon="30.10269295424223">
        <ele>81.51</ele>
      </trkpt>
      <trkpt lat="59.568568551912904" lon="30.102185010910034">
        <ele>81.34</ele>
      </trkpt>
      <trkpt lat="59.56856846809387" lon="30.102185010910034">
        <ele>81.24</ele>
      </trkpt>
      <trkpt lat="59.56861138343811" lon="30.101927518844604">
        <ele>81.29</ele>
      </trkpt>
      <trkpt lat="59.568784134462476" lon="30.101480595767498">
        <ele>81.45</ele>
      </trkpt>
      <trkpt lat="59.568944899365306" lon="30.101064518094063">
        <ele>81.84</ele>
      </trkpt>
      <trkpt lat="59.56910490989685" lon="30.100650787353516">
        <ele>82.17</ele>
      </trkpt>
      <trkpt lat="59.56913709640503" lon="30.10031819343567">
        <ele>82.5</ele>
      </trkpt>
      <trkpt lat="59.56904053688049" lon="30.099867582321167">
        <ele>82.82</ele>
      </trkpt>
      <trkpt lat="59.56895470619202" lon="30.099706649780273">
        <ele>83.13</ele>
      </trkpt>
      <trkpt lat="59.56866452470422" lon="30.099583016708493">
        <ele>83.58</ele>
      </trkpt>
      <trkpt lat="59.5683753490448" lon="30.099459886550903">
        <ele>84.12</ele>
      </trkpt>
      <trkpt lat="59.56828951835632" lon="30.09929895401001">
        <ele>84.41</ele>
      </trkpt>
      <trkpt lat="59.568278789520264" lon="30.09908437728882">
        <ele>84.59</ele>
      </trkpt>
      <trkpt lat="59.56843972206116" lon="30.09858012199402">
        <ele>84.54</ele>
      </trkpt>
      <trkpt lat="59.56867089495063" lon="30.098246773704886">
        <ele>84.49</ele>
      </trkpt>
      <trkpt lat="59.56890114583075" lon="30.097914934158325">
        <ele>84.36</ele>
      </trkpt>
      <trkpt lat="59.56904053688049" lon="30.09803295135498">
        <ele>84.03</ele>
      </trkpt>
      <trkpt lat="59.56916928291321" lon="30.098172426223755">
        <ele>83.66</ele>
      </trkpt>
      <trkpt lat="59.56923382356763" lon="30.098584983497858">
        <ele>83.38</ele>
      </trkpt>
      <trkpt lat="59.56929836422205" lon="30.09899754077196">
        <ele>83.13</ele>
      </trkpt>
      <trkpt lat="59.56936240196228" lon="30.099406242370605">
        <ele>82.87</ele>
      </trkpt>
      <trkpt lat="59.5695183891803" lon="30.09981502778828">
        <ele>82.63</ele>
      </trkpt>
      <trkpt lat="59.56967353820801" lon="30.100221633911133">
        <ele>82.41</ele>
      </trkpt>
      <trkpt lat="59.5698881149292" lon="30.100489854812622">
        <ele>82.08</ele>
      </trkpt>
      <trkpt lat="59.57018181681633" lon="30.100557832047343">
        <ele>81.75</ele>
      </trkpt>
      <trkpt lat="59.57047551870346" lon="30.100625893101096">
        <ele>81.53</ele>
      </trkpt>
      <trkpt lat="59.570767879486084" lon="30.100693702697754">
        <ele>81.22</ele>
      </trkpt>
      <trkpt lat="59.570923782885075" lon="30.100881792604923">
        <ele>80.92</ele>
      </trkpt>
      <trkpt lat="59.57107909955084" lon="30.10106921195984">
        <ele>80.63</ele>
      </trkpt>
      <trkpt lat="59.57107901573181" lon="30.10106921195984">
        <ele>80.42</ele>
      </trkpt>
      <trkpt lat="59.57128864713013" lon="30.10141865350306">
        <ele>80.17</ele>
      </trkpt>
      <trkpt lat="59.571497440338135" lon="30.10176658630371">
        <ele>80.02</ele>
      </trkpt>
      <trkpt lat="59.571594251319766" lon="30.102105466648936">
        <ele>79.93</ele>
      </trkpt>
      <trkpt lat="59.57169055938721" lon="30.102442502975464">
        <ele>79.82</ele>
      </trkpt>
      <trkpt lat="59.57170573063195" lon="30.102477204054594">
        <ele>79.81</ele>
      </trkpt>
      <trkpt lat="59.57170573063195" lon="30.102477287873626">
        <ele>79.86</ele>
      </trkpt>
      <trkpt lat="59.5718271844089" lon="30.102755650877953">
        <ele>79.93</ele>
      </trkpt>
      <trkpt lat="59.57194805145264" lon="30.10303258895874">
        <ele>80.05</ele>
      </trkpt>
      <trkpt lat="59.5720502268523" lon="30.103323021903634">
        <ele>80.3</ele>
      </trkpt>
      <trkpt lat="59.57215189933777" lon="30.103611946105957">
        <ele>80.68</ele>
      </trkpt>
      <trkpt lat="59.572302186861634" lon="30.104148387908936">
        <ele>81.11</ele>
      </trkpt>
      <trkpt lat="59.5723021030426" lon="30.104148387908936">
        <ele>81.46</ele>
      </trkpt>
      <trkpt lat="59.57237728871405" lon="30.104491710662842">
        <ele>81.92</ele>
      </trkpt>
      <trkpt lat="59.57245239056647" lon="30.104920864105225">
        <ele>82.35</ele>
      </trkpt>
      <trkpt lat="59.57245230674744" lon="30.104920864105225">
        <ele>82.77</ele>
      </trkpt>
      <trkpt lat="59.57253830507398" lon="30.10519520379603">
        <ele>83.24</ele>
      </trkpt>
      <trkpt lat="59.57262396812439" lon="30.105468034744263">
        <ele>83.72</ele>
      </trkpt>
      <trkpt lat="59.572702841833234" lon="30.105973882600665">
        <ele>84.17</ele>
      </trkpt>
      <trkpt lat="59.57278179936111" lon="30.106479730457067">
        <ele>84.58</ele>
      </trkpt>
      <trkpt lat="59.5728600025177" lon="30.106980800628662">
        <ele>85.05</ele>
      </trkpt>
      <trkpt lat="59.5728169195354" lon="30.107438201084733">
        <ele>85.48</ele>
      </trkpt>
      <trkpt lat="59.572774171829224" lon="30.107892751693726">
        <ele>85.92</ele>
      </trkpt>
      <trkpt lat="59.57266109995544" lon="30.108344703912735">
        <ele>86.25</ele>
      </trkpt>
      <trkpt lat="59.57254886627197" lon="30.10879397392273">
        <ele>86.56</ele>
      </trkpt>
      <trkpt lat="59.57234510220587" lon="30.109190940856934">
        <ele>86.92</ele>
      </trkpt>
      <trkpt lat="59.57234501838684" lon="30.109190940856934">
        <ele>87.26</ele>
      </trkpt>
      <trkpt lat="59.57215676084161" lon="30.109545830637217">
        <ele>87.6</ele>
      </trkpt>
      <trkpt lat="59.571969509124756" lon="30.109899044036865">
        <ele>87.91</ele>
      </trkpt>
      <trkpt lat="59.571695337072015" lon="30.110140861943364">
        <ele>88.29</ele>
      </trkpt>
      <trkpt lat="59.571421248838305" lon="30.110382763668895">
        <ele>88.74</ele>
      </trkpt>
      <trkpt lat="59.571147160604596" lon="30.110624581575394">
        <ele>89.11</ele>
      </trkpt>
      <trkpt lat="59.57087516784668" lon="30.110864639282227">
        <ele>89.37</ele>
      </trkpt>
      <trkpt lat="59.570786487311125" lon="30.11097419075668">
        <ele>89.63</ele>
      </trkpt>
      <trkpt lat="59.57055673934519" lon="30.111257918179035">
        <ele>90.06</ele>
      </trkpt>
      <trkpt lat="59.57032808102667" lon="30.11154055595398">
        <ele>90.24</ele>
      </trkpt>
      <trkpt lat="59.57032799720764" lon="30.11154055595398">
        <ele>90.38</ele>
      </trkpt>
      <trkpt lat="59.57023152150214" lon="30.11178731918335">
        <ele>90.55</ele>
      </trkpt>
      <trkpt lat="59.57007008604705" lon="30.112179927527905">
        <ele>90.72</ele>
      </trkpt>
      <trkpt lat="59.56990965642035" lon="30.1125705242157">
        <ele>90.77</ele>
      </trkpt>
      <trkpt lat="59.56990957260132" lon="30.1125705242157">
        <ele>90.8</ele>
      </trkpt>
      <trkpt lat="59.56974872387946" lon="30.11304259300232">
        <ele>90.78</ele>
      </trkpt>
      <trkpt lat="59.569748640060425" lon="30.11304259300232">
        <ele>90.76</ele>
      </trkpt>
      <trkpt lat="59.56966289319098" lon="30.113353729248047">
        <ele>90.64</ele>
      </trkpt>
      <trkpt lat="59.56966280937195" lon="30.113353729248047">
        <ele>90.62</ele>
      </trkpt>
      <trkpt lat="59.56953406333923" lon="30.11377215385437">
        <ele>90.45</ele>
      </trkpt>
      <trkpt lat="59.56929802894592" lon="30.114115476608276">
        <ele>90.44</ele>
      </trkpt>
      <trkpt lat="59.56903995014727" lon="30.114374812692404">
        <ele>90.56</ele>
      </trkpt>
      <trkpt lat="59.56878195516765" lon="30.11463414877653">
        <ele>90.74</ele>
      </trkpt>
      <trkpt lat="59.56852396018803" lon="30.11489348486066">
        <ele>90.93</ele>
      </trkpt>
      <trkpt lat="59.56826596520841" lon="30.115152820944786">
        <ele>91.14</ele>
      </trkpt>
      <trkpt lat="59.56800797022879" lon="30.115412157028913">
        <ele>91.36</ele>
      </trkpt>
      <trkpt lat="59.56774997524917" lon="30.115671576932073">
        <ele>91.52</ele>
      </trkpt>
      <trkpt lat="59.56749198026955" lon="30.1159309130162">
        <ele>91.64</ele>
      </trkpt>
      <trkpt lat="59.567238092422485" lon="30.116186141967773">
        <ele>91.83</ele>
      </trkpt>
      <trkpt lat="59.56707674078643" lon="30.116390408948064">
        <ele>91.99</ele>
      </trkpt>
      <trkpt lat="59.5669162273407" lon="30.116593837738037">
        <ele>92.22</ele>
      </trkpt>
      <trkpt lat="59.56680868752301" lon="30.11684655211866">
        <ele>92.47</ele>
      </trkpt>
      <trkpt lat="59.56670173443854" lon="30.117098093032837">
        <ele>92.68</ele>
      </trkpt>
      <trkpt lat="59.56670165061951" lon="30.117098093032837">
        <ele>92.81</ele>
      </trkpt>
      <trkpt lat="59.5666588190943" lon="30.11730194091797">
        <ele>92.93</ele>
      </trkpt>
      <trkpt lat="59.566562259569764" lon="30.117859840393066">
        <ele>93.03</ele>
      </trkpt>
      <trkpt lat="59.56656217575073" lon="30.117859840393066">
        <ele>93.03</ele>
      </trkpt>
      <trkpt lat="59.56647642888129" lon="30.11829972267151">
        <ele>92.96</ele>
      </trkpt>
      <trkpt lat="59.566395711153746" lon="30.118670957162976">
        <ele>92.86</ele>
      </trkpt>
      <trkpt lat="59.566315496340394" lon="30.11904001235962">
        <ele>92.64</ele>
      </trkpt>
      <trkpt lat="59.56624550744891" lon="30.119335893541574">
        <ele>92.39</ele>
      </trkpt>
      <trkpt lat="59.56617602147162" lon="30.119630098342896">
        <ele>92.18</ele>
      </trkpt>
      <trkpt lat="59.56615447998047" lon="30.11974811553955">
        <ele>91.9</ele>
      </trkpt>
      <trkpt lat="59.56588575616479" lon="30.11953739449382">
        <ele>91.57</ele>
      </trkpt>
      <trkpt lat="59.56561703234911" lon="30.119326757267118">
        <ele>91.18</ele>
      </trkpt>
      <trkpt lat="59.56534830853343" lon="30.119116036221385">
        <ele>90.77</ele>
      </trkpt>
      <trkpt lat="59.56507958471775" lon="30.118905398994684">
        <ele>90.39</ele>
      </trkpt>
      <trkpt lat="59.56481337547302" lon="30.118696689605713">
        <ele>90.01</ele>
      </trkpt>
      <trkpt lat="59.56457147374749" lon="30.11840634047985">
        <ele>89.61</ele>
      </trkpt>
      <trkpt lat="59.56433066166937" lon="30.118117332458496">
        <ele>89.22</ele>
      </trkpt>
      <trkpt lat="59.56433057785034" lon="30.118117332458496">
        <ele>88.84</ele>
      </trkpt>
      <trkpt lat="59.56412086263299" lon="30.117759676650167">
        <ele>88.52</ele>
      </trkpt>
      <trkpt lat="59.56391114741564" lon="30.11740210466087">
        <ele>88.21</ele>
      </trkpt>
      <trkpt lat="59.563701432198286" lon="30.11704453267157">
        <ele>87.74</ele>
      </trkpt>
      <trkpt lat="59.563493728637695" lon="30.116690397262573">
        <ele>87.21</ele>
      </trkpt>
      <trkpt lat="59.56342943944037" lon="30.116840600967407">
        <ele>86.79</ele>
      </trkpt>
      <trkpt lat="59.5633864402771" lon="30.116969347000122">
        <ele>86.32</ele>
      </trkpt>
      <trkpt lat="59.563210755586624" lon="30.11667891405523">
        <ele>85.77</ele>
      </trkpt>
      <trkpt lat="59.56303507089615" lon="30.116388564929366">
        <ele>85.22</ele>
      </trkpt>
      <trkpt lat="59.56286072731018" lon="30.116100311279297">
        <ele>84.68</ele>
      </trkpt>
      <trkpt lat="59.5626940112561" lon="30.115799149498343">
        <ele>84.14</ele>
      </trkpt>
      <trkpt lat="59.562528217211366" lon="30.11549949645996">
        <ele>83.62</ele>
      </trkpt>
      <trkpt lat="59.56236720085144" lon="30.1159930229187">
        <ele>83.29</ele>
      </trkpt>
      <trkpt lat="59.56213418394327" lon="30.116380099207163">
        <ele>83.0</ele>
      </trkpt>
      <trkpt lat="59.5619011670351" lon="30.116767259314656">
        <ele>82.79</ele>
      </trkpt>
      <trkpt lat="59.56166982650757" lon="30.117151737213135">
        <ele>82.69</ele>
      </trkpt>
      <trkpt lat="59.5616699103266" lon="30.117151737213135">
        <ele>82.48</ele>
      </trkpt>
      <trkpt lat="59.561519622802734" lon="30.117602348327637">
        <ele>82.36</ele>
      </trkpt>
      <trkpt lat="59.56141468137503" lon="30.117883728817105">
        <ele>82.14</ele>
      </trkpt>
      <trkpt lat="59.56131032668054" lon="30.118163600564003">
        <ele>81.86</ele>
      </trkpt>
      <trkpt lat="59.561283588409424" lon="30.11823534965515">
        <ele>81.6</ele>
      </trkpt>
      <trkpt lat="59.56117630004883" lon="30.11849284172058">
        <ele>81.4</ele>
      </trkpt>
      <trkpt lat="59.56109373830259" lon="30.118937669321895">
        <ele>81.33</ele>
      </trkpt>
      <trkpt lat="59.56101126037538" lon="30.11938249692321">
        <ele>81.37</ele>
      </trkpt>
      <trkpt lat="59.56092962063849" lon="30.119823217391968">
        <ele>81.49</ele>
      </trkpt>
      <trkpt lat="59.560795007273555" lon="30.120296627283096">
        <ele>81.65</ele>
      </trkpt>
      <trkpt lat="59.56066131591797" lon="30.12076735496521">
        <ele>81.88</ele>
      </trkpt>
      <trkpt lat="59.5604748185724" lon="30.1211114320904">
        <ele>81.85</ele>
      </trkpt>
      <trkpt lat="59.56028840504587" lon="30.121455593034625">
        <ele>81.87</ele>
      </trkpt>
      <trkpt lat="59.56010341644287" lon="30.12179732322693">
        <ele>82.06</ele>
      </trkpt>
      <trkpt lat="59.55987769179046" lon="30.12176505289972">
        <ele>82.08</ele>
      </trkpt>
      <trkpt lat="59.559652050957084" lon="30.121732782572508">
        <ele>82.17</ele>
      </trkpt>
      <trkpt lat="59.55942749977112" lon="30.121700763702393">
        <ele>82.28</ele>
      </trkpt>
      <trkpt lat="59.55913731828332" lon="30.12186194770038">
        <ele>82.51</ele>
      </trkpt>
      <trkpt lat="59.55884713679552" lon="30.12202313169837">
        <ele>82.63</ele>
      </trkpt>
      <trkpt lat="59.558558547869325" lon="30.122183561325073">
        <ele>82.86</ele>
      </trkpt>
      <trkpt lat="59.558357801288366" lon="30.122015085071325">
        <ele>83.19</ele>
      </trkpt>
      <trkpt lat="59.55815713852644" lon="30.12184669263661">
        <ele>83.6</ele>
      </trkpt>
      <trkpt lat="59.55795764923096" lon="30.121679306030273">
        <ele>84.09</ele>
      </trkpt>
      <trkpt lat="59.557764530181885" lon="30.121625661849976">
        <ele>84.63</ele>
      </trkpt>
      <trkpt lat="59.557608710601926" lon="30.121760023757815">
        <ele>85.3</ele>
      </trkpt>
      <trkpt lat="59.55745347775519" lon="30.121893882751465">
        <ele>86.05</ele>
      </trkpt>
      <trkpt lat="59.557335460558534" lon="30.121990442276">
        <ele>86.82</ele>
      </trkpt>
      <trkpt lat="59.557238901034" lon="30.12201189994812">
        <ele>87.57</ele>
      </trkpt>
      <trkpt lat="59.55715298652649" lon="30.12222647666931">
        <ele>88.33</ele>
      </trkpt>
      <trkpt lat="59.55699213780463" lon="30.12248396873474">
        <ele>89.05</ele>
      </trkpt>
      <trkpt lat="59.556831205263734" lon="30.122655630111694">
        <ele>89.77</ele>
      </trkpt>
      <trkpt lat="59.55669139511883" lon="30.122806085273623">
        <ele>90.43</ele>
      </trkpt>
      <trkpt lat="59.556552255526185" lon="30.122956037521362">
        <ele>90.95</ele>
      </trkpt>
      <trkpt lat="59.556294679641724" lon="30.12326717376709">
        <ele>91.32</ele>
      </trkpt>
      <trkpt lat="59.556294763460755" lon="30.12326717376709">
        <ele>91.66</ele>
      </trkpt>
      <trkpt lat="59.55605864524841" lon="30.123674869537354">
        <ele>91.84</ele>
      </trkpt>
      <trkpt lat="59.556058729067445" lon="30.123674869537354">
        <ele>92.06</ele>
      </trkpt>
      <trkpt lat="59.55585488118231" lon="30.124125480651855">
        <ele>92.21</ele>
      </trkpt>
      <trkpt lat="59.55576335079968" lon="30.1244374550879">
        <ele>92.35</ele>
      </trkpt>
      <trkpt lat="59.5556724909693" lon="30.12474775314331">
        <ele>92.4</ele>
      </trkpt>
      <trkpt lat="59.55554693005979" lon="30.125235579907894">
        <ele>92.51</ele>
      </trkpt>
      <trkpt lat="59.55542136915028" lon="30.125723406672478">
        <ele>92.56</ele>
      </trkpt>
      <trkpt lat="59.555296981707215" lon="30.126206874847412">
        <ele>92.68</ele>
      </trkpt>
      <trkpt lat="59.555286252871156" lon="30.12626051902771">
        <ele>92.81</ele>
      </trkpt>
      <trkpt lat="59.55520042218268" lon="30.12649655342102">
        <ele>92.95</ele>
      </trkpt>
      <trkpt lat="59.555039489641786" lon="30.12679696083069">
        <ele>93.31</ele>
      </trkpt>
      <trkpt lat="59.55492147244513" lon="30.127032995224">
        <ele>93.59</ele>
      </trkpt>
      <trkpt lat="59.55466884188354" lon="30.12730171903968">
        <ele>93.86</ele>
      </trkpt>
      <trkpt lat="59.55441721715033" lon="30.127569437026978">
        <ele>94.23</ele>
      </trkpt>
      <trkpt lat="59.554299116134644" lon="30.127601623535156">
        <ele>94.52</ele>
      </trkpt>
      <trkpt lat="59.55409526824951" lon="30.127676725387573">
        <ele>94.84</ele>
      </trkpt>
      <trkpt lat="59.554009437561035" lon="30.12771964073181">
        <ele>95.2</ele>
      </trkpt>
      <trkpt lat="59.553848169744015" lon="30.12785391882062">
        <ele>95.65</ele>
      </trkpt>
      <trkpt lat="59.55368765629828" lon="30.1279878616333">
        <ele>96.09</ele>
      </trkpt>
      <trkpt lat="59.55362319946289" lon="30.1280415058136">
        <ele>96.49</ele>
      </trkpt>
      <trkpt lat="59.55341943539679" lon="30.128320455551147">
        <ele>96.99</ele>
      </trkpt>
      <trkpt lat="59.55337643623352" lon="30.128384828567505">
        <ele>97.36</ele>
      </trkpt>
      <trkpt lat="59.5532048586756" lon="30.128620862960815">
        <ele>97.7</ele>
      </trkpt>
      <trkpt lat="59.55317258834839" lon="30.128674507141113">
        <ele>98.01</ele>
      </trkpt>
      <trkpt lat="59.553180215880275" lon="30.128545174375176">
        <ele>98.26</ele>
      </trkpt>
      <trkpt lat="59.55317258834839" lon="30.128674507141113">
        <ele>98.7</ele>
      </trkpt>
      <trkpt lat="59.55303277820349" lon="30.128878774121404">
        <ele>98.89</ele>
      </trkpt>
      <trkpt lat="59.55289363861084" lon="30.129082202911377">
        <ele>98.98</ele>
      </trkpt>
      <trkpt lat="59.55289372242987" lon="30.129082202911377">
        <ele>99.04</ele>
      </trkpt>
      <trkpt lat="59.55276497639716" lon="30.12926459312439">
        <ele>99.06</ele>
      </trkpt>
      <trkpt lat="59.552539167925715" lon="30.129583524540067">
        <ele>98.93</ele>
      </trkpt>
      <trkpt lat="59.552313359454274" lon="30.129902539774776">
        <ele>98.96</ele>
      </trkpt>
      <trkpt lat="59.552089059725404" lon="30.13021945953369">
        <ele>98.95</ele>
      </trkpt>
      <trkpt lat="59.55188512802124" lon="30.1305091381073">
        <ele>98.8</ele>
      </trkpt>
      <trkpt lat="59.55172427929938" lon="30.130552053451538">
        <ele>98.54</ele>
      </trkpt>
      <trkpt lat="59.551503919065" lon="30.130423055961728">
        <ele>98.26</ele>
      </trkpt>
      <trkpt lat="59.551284397020936" lon="30.13029456138611">
        <ele>98.0</ele>
      </trkpt>
      <trkpt lat="59.55105314031243" lon="30.13067627325654">
        <ele>97.65</ele>
      </trkpt>
      <trkpt lat="59.55082297325134" lon="30.131056308746338">
        <ele>97.24</ele>
      </trkpt>
      <trkpt lat="59.55055475234985" lon="30.13124942779541">
        <ele>96.85</ele>
      </trkpt>
      <trkpt lat="59.55039390362799" lon="30.131152868270874">
        <ele>96.48</ele>
      </trkpt>
      <trkpt lat="59.55017924308777" lon="30.130852460861206">
        <ele>96.15</ele>
      </trkpt>
      <trkpt lat="59.550087712705135" lon="30.13054576702416">
        <ele>95.85</ele>
      </trkpt>
      <trkpt lat="59.549996852874756" lon="30.13024091720581">
        <ele>95.6</ele>
      </trkpt>
      <trkpt lat="59.549857042729855" lon="30.13009574264288">
        <ele>95.29</ele>
      </trkpt>
      <trkpt lat="59.54971790313721" lon="30.129951238632202">
        <ele>95.01</ele>
      </trkpt>
      <trkpt lat="59.549567280337214" lon="30.129612358286977">
        <ele>94.74</ele>
      </trkpt>
      <trkpt lat="59.54941749572754" lon="30.12927532196045">
        <ele>94.5</ele>
      </trkpt>
      <trkpt lat="59.54935312271118" lon="30.128856897354126">
        <ele>94.39</ele>
      </trkpt>
      <trkpt lat="59.54917022958398" lon="30.12853067368269">
        <ele>94.29</ele>
      </trkpt>
      <trkpt lat="59.54898742027581" lon="30.128204450011253">
        <ele>94.22</ele>
      </trkpt>
      <trkpt lat="59.548805952072144" lon="30.127880573272705">
        <ele>94.11</ele>
      </trkpt>
      <trkpt lat="59.54875750467181" lon="30.127568431198597">
        <ele>94.11</ele>
      </trkpt>
      <trkpt lat="59.54870939254761" lon="30.12725830078125">
        <ele>94.06</ele>
      </trkpt>
      <trkpt lat="59.54863429069519" lon="30.127097368240356">
        <ele>94.0</ele>
      </trkpt>
      <trkpt lat="59.54863437451422" lon="30.127097368240356">
        <ele>93.94</ele>
      </trkpt>
      <trkpt lat="59.548419713974" lon="30.12702226638794">
        <ele>93.87</ele>
      </trkpt>
      <trkpt lat="59.54815635457635" lon="30.1271297223866">
        <ele>93.79</ele>
      </trkpt>
      <trkpt lat="59.54789400100708" lon="30.12723684310913">
        <ele>93.63</ele>
      </trkpt>
      <trkpt lat="59.54760918393731" lon="30.12726366519928">
        <ele>93.44</ele>
      </trkpt>
      <trkpt lat="59.54732537269592" lon="30.12729048728943">
        <ele>93.31</ele>
      </trkpt>
      <trkpt lat="59.54714801162481" lon="30.12720448896289">
        <ele>93.24</ele>
      </trkpt>
      <trkpt lat="59.54697132110596" lon="30.127118825912476">
        <ele>93.16</ele>
      </trkpt>
      <trkpt lat="59.546850537881255" lon="30.126808360219">
        <ele>93.1</ele>
      </trkpt>
      <trkpt lat="59.546850537881255" lon="30.12680827639997">
        <ele>92.99</ele>
      </trkpt>
      <trkpt lat="59.54682111740112" lon="30.12673258781433">
        <ele>92.86</ele>
      </trkpt>
      <trkpt lat="59.54658458009362" lon="30.12642614543438">
        <ele>92.69</ele>
      </trkpt>
      <trkpt lat="59.5463490486145" lon="30.126121044158936">
        <ele>92.58</ele>
      </trkpt>
      <trkpt lat="59.54616975970566" lon="30.12576607055962">
        <ele>92.49</ele>
      </trkpt>
      <trkpt lat="59.54599047079682" lon="30.125411180779338">
        <ele>92.29</ele>
      </trkpt>
      <trkpt lat="59.54581260681152" lon="30.125058889389038">
        <ele>92.05</ele>
      </trkpt>
      <trkpt lat="59.54571034759283" lon="30.124542228877544">
        <ele>91.8</ele>
      </trkpt>
      <trkpt lat="59.54560875892639" lon="30.12402892112732">
        <ele>91.63</ele>
      </trkpt>
      <trkpt lat="59.545589899644256" lon="30.123533718287945">
        <ele>91.6</ele>
      </trkpt>
      <trkpt lat="59.54557104036212" lon="30.12303851544857">
        <ele>91.57</ele>
      </trkpt>
      <trkpt lat="59.545552181079984" lon="30.122543396428227">
        <ele>91.6</ele>
      </trkpt>
      <trkpt lat="59.545533657073975" lon="30.12205481529236">
        <ele>91.6</ele>
      </trkpt>
      <trkpt lat="59.54541522078216" lon="30.121534634381533">
        <ele>91.49</ele>
      </trkpt>
      <trkpt lat="59.54529686830938" lon="30.121014453470707">
        <ele>91.38</ele>
      </trkpt>
      <trkpt lat="59.54517960548401" lon="30.12049913406372">
        <ele>91.33</ele>
      </trkpt>
      <trkpt lat="59.54514993354678" lon="30.120009295642376">
        <ele>91.31</ele>
      </trkpt>
      <trkpt lat="59.545120345428586" lon="30.119519541040063">
        <ele>91.33</ele>
      </trkpt>
      <trkpt lat="59.54509075731039" lon="30.11902978643775">
        <ele>91.28</ele>
      </trkpt>
      <trkpt lat="59.54506158828735" lon="30.11854648590088">
        <ele>91.19</ele>
      </trkpt>
      <trkpt lat="59.545083129778504" lon="30.11807642877102">
        <ele>91.01</ele>
      </trkpt>
      <trkpt lat="59.545104671269655" lon="30.11760637164116">
        <ele>90.79</ele>
      </trkpt>
      <trkpt lat="59.54512604512274" lon="30.117141008377075">
        <ele>90.62</ele>
      </trkpt>
      <trkpt lat="59.54512596130371" lon="30.117141008377075">
        <ele>90.49</ele>
      </trkpt>
      <trkpt lat="59.54509905539453" lon="30.11670498177409">
        <ele>90.29</ele>
      </trkpt>
      <trkpt lat="59.545072400942445" lon="30.11627197265625">
        <ele>90.16</ele>
      </trkpt>
      <trkpt lat="59.54507231712341" lon="30.116218328475952">
        <ele>90.08</ele>
      </trkpt>
      <trkpt lat="59.54507231712341" lon="30.116078853607178">
        <ele>90.03</ele>
      </trkpt>
      <trkpt lat="59.54509377479553" lon="30.115864276885986">
        <ele>90.01</ele>
      </trkpt>
      <trkpt lat="59.54507399350405" lon="30.115610640496016">
        <ele>90.04</ele>
      </trkpt>
      <trkpt lat="59.545029401779175" lon="30.1150381565094">
        <ele>90.16</ele>
      </trkpt>
      <trkpt lat="59.54502948559821" lon="30.1150381565094">
        <ele>90.25</ele>
      </trkpt>
      <trkpt lat="59.5450366102159" lon="30.11456809937954">
        <ele>90.44</ele>
      </trkpt>
      <trkpt lat="59.5450437348336" lon="30.11409804224968">
        <ele>90.58</ele>
      </trkpt>
      <trkpt lat="59.545050859451294" lon="30.113632678985596">
        <ele>90.81</ele>
      </trkpt>
      <trkpt lat="59.54501314088702" lon="30.11308902874589">
        <ele>90.99</ele>
      </trkpt>
      <trkpt lat="59.54497575759888" lon="30.11254906654358">
        <ele>91.16</ele>
      </trkpt>
      <trkpt lat="59.54502948559821" lon="30.112388134002686">
        <ele>91.32</ele>
      </trkpt>
      <trkpt lat="59.54518002457917" lon="30.111952358856797">
        <ele>91.49</ele>
      </trkpt>
      <trkpt lat="59.54532980918884" lon="30.11151909828186">
        <ele>91.72</ele>
      </trkpt>
      <trkpt lat="59.545490741729736" lon="30.11125087738037">
        <ele>91.9</ele>
      </trkpt>
      <trkpt lat="59.54571604728699" lon="30.111004114151">
        <ele>92.13</ele>
      </trkpt>
      <trkpt lat="59.545893324539065" lon="30.11094493791461">
        <ele>92.42</ele>
      </trkpt>
      <trkpt lat="59.546070182695985" lon="30.110886096954346">
        <ele>92.78</ele>
      </trkpt>
      <trkpt lat="59.54634955152869" lon="30.110714100301266">
        <ele>93.17</ele>
      </trkpt>
      <trkpt lat="59.54662799835205" lon="30.11054277420044">
        <ele>93.44</ele>
      </trkpt>
      <trkpt lat="59.54687509685755" lon="30.11046214029193">
        <ele>93.71</ele>
      </trkpt>
      <trkpt lat="59.54712152481079" lon="30.110381841659546">
        <ele>93.98</ele>
      </trkpt>
      <trkpt lat="59.547408102080226" lon="30.110500026494265">
        <ele>94.29</ele>
      </trkpt>
      <trkpt lat="59.54769467934966" lon="30.110618211328983">
        <ele>94.65</ele>
      </trkpt>
      <trkpt lat="59.54797983169556" lon="30.11073589324951">
        <ele>94.96</ele>
      </trkpt>
      <trkpt lat="59.548253836110234" lon="30.11068208143115">
        <ele>95.19</ele>
      </trkpt>
      <trkpt lat="59.54852784052491" lon="30.11062835343182">
        <ele>95.43</ele>
      </trkpt>
      <trkpt lat="59.54880184493959" lon="30.11057462543249">
        <ele>95.62</ele>
      </trkpt>
      <trkpt lat="59.5490759331733" lon="30.11052089743316">
        <ele>95.8</ele>
      </trkpt>
      <trkpt lat="59.54934993758798" lon="30.110467169433832">
        <ele>95.93</ele>
      </trkpt>
      <trkpt lat="59.54962134361267" lon="30.110414028167725">
        <ele>95.91</ele>
      </trkpt>
      <trkpt lat="59.54991680569947" lon="30.110462307929993">
        <ele>95.83</ele>
      </trkpt>
      <trkpt lat="59.55021142959595" lon="30.11051058769226">
        <ele>95.81</ele>
      </trkpt>
      <trkpt lat="59.55021151341498" lon="30.11051058769226">
        <ele>95.72</ele>
      </trkpt>
      <trkpt lat="59.5505231525749" lon="30.11044068261981">
        <ele>95.54</ele>
      </trkpt>
      <trkpt lat="59.550833785906434" lon="30.110371112823486">
        <ele>95.31</ele>
      </trkpt>
      <trkpt lat="59.55091953277588" lon="30.110338926315308">
        <ele>95.14</ele>
      </trkpt>
      <trkpt lat="59.55091961659491" lon="30.110338926315308">
        <ele>95.02</ele>
      </trkpt>
      <trkpt lat="59.55110192298889" lon="30.110210180282593">
        <ele>94.84</ele>
      </trkpt>
      <trkpt lat="59.55139562487602" lon="30.110167181119323">
        <ele>94.82</ele>
      </trkpt>
      <trkpt lat="59.55168932676315" lon="30.110124181956053">
        <ele>94.79</ele>
      </trkpt>
      <trkpt lat="59.551981687545776" lon="30.110081434249878">
        <ele>94.76</ele>
      </trkpt>
      <trkpt lat="59.55198177136481" lon="30.110081434249878">
        <ele>94.8</ele>
      </trkpt>
      <trkpt lat="59.55222895368934" lon="30.110360886901617">
        <ele>94.91</ele>
      </trkpt>
      <trkpt lat="59.5524762198329" lon="30.110640423372388">
        <ele>95.03</ele>
      </trkpt>
      <trkpt lat="59.55272206105292" lon="30.110918283462524">
        <ele>95.19</ele>
      </trkpt>
      <trkpt lat="59.5528507232666" lon="30.111143589019775">
        <ele>95.39</ele>
      </trkpt>
      <trkpt lat="59.55293655395508" lon="30.111572742462158">
        <ele>95.68</ele>
      </trkpt>
      <trkpt lat="59.55292574129999" lon="30.112064257264137">
        <ele>96.02</ele>
      </trkpt>
      <trkpt lat="59.55291501246393" lon="30.112555855885148">
        <ele>96.3</ele>
      </trkpt>
      <trkpt lat="59.55290445126593" lon="30.11304259300232">
        <ele>96.53</ele>
      </trkpt>
      <trkpt lat="59.55303344875574" lon="30.113489096984267">
        <ele>96.74</ele>
      </trkpt>
      <trkpt lat="59.55316185951233" lon="30.113933086395264">
        <ele>96.93</ele>
      </trkpt>
      <trkpt lat="59.55336076207459" lon="30.114207258448005">
        <ele>97.09</ele>
      </trkpt>
      <trkpt lat="59.553558910265565" lon="30.1144802570343">
        <ele>97.26</ele>
      </trkpt>
      <trkpt lat="59.55355882644653" lon="30.1144802570343">
        <ele>97.34</ele>
      </trkpt>
      <trkpt lat="59.55374130047858" lon="30.114684104919434">
        <ele>97.41</ele>
      </trkpt>
      <trkpt lat="59.55382704734802" lon="30.11473774909973">
        <ele>97.41</ele>
      </trkpt>
      <trkpt lat="59.5540957711637" lon="30.1149742025882">
        <ele>97.28</ele>
      </trkpt>
      <trkpt lat="59.55436357297003" lon="30.115209817886353">
        <ele>97.03</ele>
      </trkpt>
      <trkpt lat="59.55462684854865" lon="30.115486588329077">
        <ele>96.83</ele>
      </trkpt>
      <trkpt lat="59.5548902079463" lon="30.1157633587718">
        <ele>96.63</ele>
      </trkpt>
      <trkpt lat="59.55515356734395" lon="30.116040213033557">
        <ele>96.42</ele>
      </trkpt>
      <trkpt lat="59.55541491508484" lon="30.11631488800049">
        <ele>96.11</ele>
      </trkpt>
      <trkpt lat="59.55560836941004" lon="30.116411531344056">
        <ele>95.8</ele>
      </trkpt>
      <trkpt lat="59.555801237002015" lon="30.11650800704956">
        <ele>95.46</ele>
      </trkpt>
      <trkpt lat="59.556005420163274" lon="30.11633064597845">
        <ele>95.09</ele>
      </trkpt>
      <trkpt lat="59.55620893277228" lon="30.116153955459595">
        <ele>94.71</ele>
      </trkpt>
      <trkpt lat="59.5563702005893" lon="30.1158635225147">
        <ele>94.34</ele>
      </trkpt>
      <trkpt lat="59.556530714035034" lon="30.115574598312378">
        <ele>94.06</ele>
      </trkpt>
      <trkpt lat="59.55678502097726" lon="30.115445600822568">
        <ele>93.76</ele>
      </trkpt>
      <trkpt lat="59.557039411738515" lon="30.115316603332758">
        <ele>93.44</ele>
      </trkpt>
      <trkpt lat="59.557292545214295" lon="30.115188360214233">
        <ele>93.21</ele>
      </trkpt>
      <trkpt lat="59.55755967646837" lon="30.11498057283461">
        <ele>92.93</ele>
      </trkpt>
      <trkpt lat="59.55758213996887" lon="30.114963054656982">
        <ele>92.43</ele>
      </trkpt>
      <trkpt lat="59.55772169865668" lon="30.114662647247314">
        <ele>92.11</ele>
      </trkpt>
      <trkpt lat="59.55772161483765" lon="30.114662647247314">
        <ele>91.92</ele>
      </trkpt>
      <trkpt lat="59.55786142498255" lon="30.11438830755651">
        <ele>91.64</ele>
      </trkpt>
      <trkpt lat="59.558000564575195" lon="30.114115476608276">
        <ele>91.47</ele>
      </trkpt>
      <trkpt lat="59.558258475735784" lon="30.114029478281736">
        <ele>91.35</ele>
      </trkpt>
      <trkpt lat="59.558515632525086" lon="30.113943815231323">
        <ele>91.35</ele>
      </trkpt>
      <trkpt lat="59.55868209712207" lon="30.113895451650023">
        <ele>91.39</ele>
      </trkpt>
      <trkpt lat="59.5588481426239" lon="30.113847255706787">
        <ele>91.5</ele>
      </trkpt>
      <trkpt lat="59.55891259945929" lon="30.113729238510132">
        <ele>91.56</ele>
      </trkpt>
      <trkpt lat="59.55905224196613" lon="30.1135840639472">
        <ele>91.55</ele>
      </trkpt>
      <trkpt lat="59.55919146537781" lon="30.113439559936523">
        <ele>91.61</ele>
      </trkpt>
      <trkpt lat="59.559159111231565" lon="30.113966949284077">
        <ele>91.78</ele>
      </trkpt>
      <trkpt lat="59.55912709236145" lon="30.11449098587036">
        <ele>91.9</ele>
      </trkpt>
      <trkpt lat="59.55912717618048" lon="30.11449098587036">
        <ele>92.01</ele>
      </trkpt>
      <trkpt lat="59.55910571850836" lon="30.114855766296387">
        <ele>92.11</ele>
      </trkpt>
      <trkpt lat="59.5590949896723" lon="30.11501669883728">
        <ele>92.17</ele>
      </trkpt>
      <trkpt lat="59.5590949896723" lon="30.115091800689697">
        <ele>92.27</ele>
      </trkpt>
      <trkpt lat="59.559041345492005" lon="30.115381479263306">
        <ele>92.34</ele>
      </trkpt>
      <trkpt lat="59.55894478596747" lon="30.115671157836914">
        <ele>92.45</ele>
      </trkpt>
      <trkpt lat="59.558826349675655" lon="30.11605848558247">
        <ele>92.49</ele>
      </trkpt>
      <trkpt lat="59.55870875157416" lon="30.116443634033203">
        <ele>92.6</ele>
      </trkpt>
      <trkpt lat="59.55859391950071" lon="30.116963731124997">
        <ele>92.84</ele>
      </trkpt>
      <trkpt lat="59.55847917124629" lon="30.117483912035823">
        <ele>93.2</ele>
      </trkpt>
      <trkpt lat="59.55836542882025" lon="30.11799931526184">
        <ele>93.51</ele>
      </trkpt>
      <trkpt lat="59.55830097198486" lon="30.11827826499939">
        <ele>93.54</ele>
      </trkpt>
      <trkpt lat="59.5582040771842" lon="30.118660228326917">
        <ele>93.38</ele>
      </trkpt>
      <trkpt lat="59.55810785293579" lon="30.11904001235962">
        <ele>93.21</ele>
      </trkpt>
      <trkpt lat="59.55810793675482" lon="30.11904001235962">
        <ele>93.1</ele>
      </trkpt>
      <trkpt lat="59.558043563738465" lon="30.119458436965942">
        <ele>92.79</ele>
      </trkpt>
      <trkpt lat="59.558043479919434" lon="30.119458436965942">
        <ele>92.61</ele>
      </trkpt>
      <trkpt lat="59.5581937674433" lon="30.11927604675293">
        <ele>91.84</ele>
      </trkpt>
      <trkpt lat="59.55825814045966" lon="30.119200944900513">
        <ele>91.55</ele>
      </trkpt>
      <trkpt lat="59.558258056640625" lon="30.119200944900513">
        <ele>91.28</ele>
      </trkpt>
      <trkpt lat="59.558494593948126" lon="30.11881914921105">
        <ele>91.07</ele>
      </trkpt>
      <trkpt lat="59.55873020924628" lon="30.118439197540283">
        <ele>90.68</ele>
      </trkpt>
      <trkpt lat="59.558730125427246" lon="30.118439197540283">
        <ele>90.38</ele>
      </trkpt>
      <trkpt lat="59.5589379966259" lon="30.11818111874163">
        <ele>89.97</ele>
      </trkpt>
      <trkpt lat="59.559145867824554" lon="30.11792312376201">
        <ele>89.58</ele>
      </trkpt>
      <trkpt lat="59.55935248173773" lon="30.117666721343994">
        <ele>89.38</ele>
      </trkpt>
      <trkpt lat="59.55944904126227" lon="30.117602348327637">
        <ele>89.09</ele>
      </trkpt>
      <trkpt lat="59.559685410931706" lon="30.117480475455523">
        <ele>88.85</ele>
      </trkpt>
      <trkpt lat="59.559921780601144" lon="30.11735868640244">
        <ele>88.54</ele>
      </trkpt>
      <trkpt lat="59.56015706062317" lon="30.11723756790161">
        <ele>88.2</ele>
      </trkpt>
      <trkpt lat="59.560391418635845" lon="30.11695803143084">
        <ele>88.0</ele>
      </trkpt>
      <trkpt lat="59.56062577664852" lon="30.11667849496007">
        <ele>87.76</ele>
      </trkpt>
      <trkpt lat="59.56086021848023" lon="30.1163989584893">
        <ele>87.44</ele>
      </trkpt>
      <trkpt lat="59.561094576492906" lon="30.116119422018528">
        <ele>86.98</ele>
      </trkpt>
      <trkpt lat="59.561326587572694" lon="30.115842819213867">
        <ele>86.56</ele>
      </trkpt>
      <trkpt lat="59.56132650375366" lon="30.115842819213867">
        <ele>86.17</ele>
      </trkpt>
      <trkpt lat="59.5615523122251" lon="30.115568647161126">
        <ele>85.67</ele>
      </trkpt>
      <trkpt lat="59.561777198687196" lon="30.11529564857483">
        <ele>85.13</ele>
      </trkpt>
      <trkpt lat="59.561852887272835" lon="30.11522725224495">
        <ele>84.76</ele>
      </trkpt>
      <trkpt lat="59.56210979260504" lon="30.11499524116516">
        <ele>84.12</ele>
      </trkpt>
      <trkpt lat="59.56220635212958" lon="30.115091800689697">
        <ele>83.88</ele>
      </trkpt>
      <trkpt lat="59.56235680729151" lon="30.115252984687686">
        <ele>83.69</ele>
      </trkpt>
      <trkpt lat="59.562506675720215" lon="30.115413665771484">
        <ele>83.6</ele>
      </trkpt>
      <trkpt lat="59.562528133392334" lon="30.11549949645996">
        <ele>83.64</ele>
      </trkpt>
      <trkpt lat="59.562694765627384" lon="30.115800574421883">
        <ele>83.85</ele>
      </trkpt>
      <trkpt lat="59.56286072731018" lon="30.116100311279297">
        <ele>84.09</ele>
      </trkpt>
      <trkpt lat="59.563036328181624" lon="30.116390576586127">
        <ele>84.32</ele>
      </trkpt>
      <trkpt lat="59.5632120128721" lon="30.11668092571199">
        <ele>84.55</ele>
      </trkpt>
      <trkpt lat="59.5633864402771" lon="30.116969347000122">
        <ele>84.75</ele>
      </trkpt>
      <trkpt lat="59.56342943944037" lon="30.116840600967407">
        <ele>84.85</ele>
      </trkpt>
      <trkpt lat="59.563493728637695" lon="30.116690397262573">
        <ele>84.89</ele>
      </trkpt>
      <trkpt lat="59.56330287270248" lon="30.116391917690635">
        <ele>84.81</ele>
      </trkpt>
      <trkpt lat="59.56311201676726" lon="30.116093521937728">
        <ele>84.79</ele>
      </trkpt>
      <trkpt lat="59.56292116083205" lon="30.11579512618482">
        <ele>84.75</ele>
      </trkpt>
      <trkpt lat="59.5627320650965" lon="30.11549949645996">
        <ele>84.79</ele>
      </trkpt>
      <trkpt lat="59.562528217211366" lon="30.11526346206665">
        <ele>84.9</ele>
      </trkpt>
      <trkpt lat="59.562340043485165" lon="30.11509146541357">
        <ele>85.18</ele>
      </trkpt>
      <trkpt lat="59.56215262413025" lon="30.114920139312744">
        <ele>85.5</ele>
      </trkpt>
      <trkpt lat="59.56214189529419" lon="30.11451244354248">
        <ele>85.77</ele>
      </trkpt>
      <trkpt lat="59.56231934018433" lon="30.11416551657021">
        <ele>86.1</ele>
      </trkpt>
      <trkpt lat="59.56249678507447" lon="30.113818673416972">
        <ele>86.36</ele>
      </trkpt>
      <trkpt lat="59.562674229964614" lon="30.113471830263734">
        <ele>86.39</ele>
      </trkpt>
      <trkpt lat="59.56284999847412" lon="30.113128423690796">
        <ele>86.24</ele>
      </trkpt>
      <trkpt lat="59.563075387850404" lon="30.112913846969604">
        <ele>86.01</ele>
      </trkpt>
      <trkpt lat="59.5632688421756" lon="30.112655768170953">
        <ele>85.71</ele>
      </trkpt>
      <trkpt lat="59.56346154212952" lon="30.112398862838745">
        <ele>85.39</ele>
      </trkpt>
      <trkpt lat="59.56346162594855" lon="30.112398862838745">
        <ele>85.27</ele>
      </trkpt>
      <trkpt lat="59.563536727800965" lon="30.11230230331421">
        <ele>85.12</ele>
      </trkpt>
      <trkpt lat="59.56354737281799" lon="30.11228084564209">
        <ele>85.06</ele>
      </trkpt>
      <trkpt lat="59.56369757652283" lon="30.11199116706848">
        <ele>85.12</ele>
      </trkpt>
      <trkpt lat="59.56370838917792" lon="30.111969709396362">
        <ele>85.12</ele>
      </trkpt>
      <trkpt lat="59.56372448243201" lon="30.111646754667163">
        <ele>85.18</ele>
      </trkpt>
      <trkpt lat="59.563740491867065" lon="30.111325979232788">
        <ele>85.28</ele>
      </trkpt>
      <trkpt lat="59.5637405756861" lon="30.111325979232788">
        <ele>85.46</ele>
      </trkpt>
      <trkpt lat="59.563579643145204" lon="30.111004114151">
        <ele>85.77</ele>
      </trkpt>
      <trkpt lat="59.56336498260498" lon="30.110660791397095">
        <ele>86.21</ele>
      </trkpt>
      <trkpt lat="59.56347235478461" lon="30.11028528213501">
        <ele>86.77</ele>
      </trkpt>
      <trkpt lat="59.563515186309814" lon="30.110145807266235">
        <ele>87.42</ele>
      </trkpt>
      <trkpt lat="59.563515270128846" lon="30.110145807266235">
        <ele>88.1</ele>
      </trkpt>
      <trkpt lat="59.563662288710475" lon="30.109711792320013">
        <ele>89.1</ele>
      </trkpt>
      <trkpt lat="59.563809307292104" lon="30.109277861192822">
        <ele>90.04</ele>
      </trkpt>
      <trkpt lat="59.56395515240729" lon="30.108847618103027">
        <ele>90.75</ele>
      </trkpt>
      <trkpt lat="59.564085910096765" lon="30.10844604112208">
        <ele>91.04</ele>
      </trkpt>
      <trkpt lat="59.56421608105302" lon="30.108046727254987">
        <ele>91.31</ele>
      </trkpt>
    </trkseg>
  </trk>
</gpx>
