<?xml version="1.0" encoding="UTF-8"?>
<gpx creator="Garmin Connect" version="1.1"
  xsi:schemaLocation="http://www.topografix.com/GPX/1/1 http://www.topografix.com/GPX/11.xsd"
  xmlns:ns3="http://www.garmin.com/xmlschemas/TrackPointExtension/v1"
  xmlns="http://www.topografix.com/GPX/1/1"
  xmlns:xsi="http://www.w3.org/2001/XMLSchema-instance" xmlns:ns2="http://www.garmin.com/xmlschemas/GpxExtensions/v3">
  <metadata>
    <name>Гатчинский государственный музей-заповедник
г. Гатчина, ЛО Бег 5,02 км</name>
    <link href="connect.garmin.com">
      <text>Garmin Connect</text>
    </link>
    <time>2026-09-26T19:52:47.000Z</time>
  </metadata>
  <trk>
    <name>Гатчинский государственный музей-заповедник
г. Гатчина, ЛО Бег 5,02 км</name>
    <trkseg>
      <trkpt lat="59.56445932388306" lon="30.106701850891113">
        <ele>91.93</ele>
      </trkpt>
      <trkpt lat="59.56445940770209" lon="30.106701850891113">
        <ele>91.93</ele>
      </trkpt>
      <trkpt lat="59.56462067551911" lon="30.106429355219007">
        <ele>91.89</ele>
      </trkpt>
      <trkpt lat="59.56478194333613" lon="30.10615694336593">
        <ele>92.07</ele>
      </trkpt>
      <trkpt lat="59.56494212150574" lon="30.105886459350586">
        <ele>92.1</ele>
      </trkpt>
      <trkpt lat="59.56494220532477" lon="30.105886459350586">
        <ele>92.01</ele>
      </trkpt>
      <trkpt lat="59.565189303830266" lon="30.105753857642412">
        <ele>91.68</ele>
      </trkpt>
      <trkpt lat="59.565436486154795" lon="30.10562133975327">
        <ele>91.17</ele>
      </trkpt>
      <trkpt lat="59.56568241119385" lon="30.105489492416382">
        <ele>90.59</ele>
      </trkpt>
      <trkpt lat="59.56582213751972" lon="30.10529050603509">
        <ele>90.15</ele>
      </trkpt>
      <trkpt lat="59.5659613609314" lon="30.105092525482178">
        <ele>89.67</ele>
      </trkpt>
      <trkpt lat="59.56596144475043" lon="30.105092525482178">
        <ele>89.21</ele>
      </trkpt>
      <trkpt lat="59.566129921004176" lon="30.104719614610076">
        <ele>88.75</ele>
      </trkpt>
      <trkpt lat="59.566298397257924" lon="30.104346703737974">
        <ele>88.21</ele>
      </trkpt>
      <trkpt lat="59.566465616226196" lon="30.103976726531982">
        <ele>87.6</ele>
      </trkpt>
      <trkpt lat="59.56646570004523" lon="30.103976726531982">
        <ele>87.04</ele>
      </trkpt>
      <trkpt lat="59.56663048826158" lon="30.103711439296603">
        <ele>86.39</ele>
      </trkpt>
      <trkpt lat="59.566795360296965" lon="30.103446152061224">
        <ele>85.77</ele>
      </trkpt>
      <trkpt lat="59.56695914268494" lon="30.103182792663574">
        <ele>85.15</ele>
      </trkpt>
      <trkpt lat="59.567238092422485" lon="30.10307550430298">
        <ele>84.49</ele>
      </trkpt>
      <trkpt lat="59.56754922866821" lon="30.103129148483276">
        <ele>83.74</ele>
      </trkpt>
      <trkpt lat="59.567767744883895" lon="30.103265270590782">
        <ele>83.07</ele>
      </trkpt>
      <trkpt lat="59.56798626109958" lon="30.103401392698288">
        <ele>82.44</ele>
      </trkpt>
      <trkpt lat="59.56820368766785" lon="30.10353684425354">
        <ele>81.86</ele>
      </trkpt>
      <trkpt lat="59.56839680671692" lon="30.103204250335693">
        <ele>81.33</ele>
      </trkpt>
      <trkpt lat="59.56849026493728" lon="30.102649368345737">
        <ele>80.85</ele>
      </trkpt>
      <trkpt lat="59.568568551912904" lon="30.102185010910034">
        <ele>80.46</ele>
      </trkpt>
      <trkpt lat="59.56856846809387" lon="30.102185010910034">
        <ele>80.43</ele>
      </trkpt>
      <trkpt lat="59.56861138343811" lon="30.101927518844604">
        <ele>80.53</ele>
      </trkpt>
      <trkpt lat="59.568776255473495" lon="30.10150079615414">
        <ele>80.76</ele>
      </trkpt>
      <trkpt lat="59.56894121132791" lon="30.10107407346368">
        <ele>80.99</ele>
      </trkpt>
      <trkpt lat="59.56910490989685" lon="30.100650787353516">
        <ele>81.37</ele>
      </trkpt>
      <trkpt lat="59.56913709640503" lon="30.10031819343567">
        <ele>81.79</ele>
      </trkpt>
      <trkpt lat="59.56904053688049" lon="30.099867582321167">
        <ele>82.25</ele>
      </trkpt>
      <trkpt lat="59.56895470619202" lon="30.099706649780273">
        <ele>82.74</ele>
      </trkpt>
      <trkpt lat="59.56866452470422" lon="30.099583016708493">
        <ele>83.41</ele>
      </trkpt>
      <trkpt lat="59.5683753490448" lon="30.099459886550903">
        <ele>84.22</ele>
      </trkpt>
      <trkpt lat="59.56828951835632" lon="30.09929895401001">
        <ele>84.83</ele>
      </trkpt>
      <trkpt lat="59.568278789520264" lon="30.09908437728882">
        <ele>85.4</ele>
      </trkpt>
      <trkpt lat="59.56843972206116" lon="30.09858012199402">
        <ele>85.79</ele>
      </trkpt>
      <trkpt lat="59.56867089495063" lon="30.098246773704886">
        <ele>86.23</ele>
      </trkpt>
      <trkpt lat="59.56890114583075" lon="30.097914934158325">
        <ele>86.64</ele>
      </trkpt>
      <trkpt lat="59.56890106201172" lon="30.097914934158325">
        <ele>87.05</ele>
      </trkpt>
      <trkpt lat="59.56869134679437" lon="30.09753313846886">
        <ele>88.38</ele>
      </trkpt>
      <trkpt lat="59.56848272122443" lon="30.097153186798096">
        <ele>88.77</ele>
      </trkpt>
      <trkpt lat="59.56845154054463" lon="30.097219152376056">
        <ele>89.03</ele>
      </trkpt>
      <trkpt lat="59.56845154054463" lon="30.097219068557024">
        <ele>89.22</ele>
      </trkpt>
      <trkpt lat="59.56848272122443" lon="30.097153186798096">
        <ele>89.34</ele>
      </trkpt>
      <trkpt lat="59.56855773925781" lon="30.096992254257202">
        <ele>89.36</ele>
      </trkpt>
      <trkpt lat="59.56855773925781" lon="30.0966262165457">
        <ele>89.33</ele>
      </trkpt>
      <trkpt lat="59.56855773925781" lon="30.09626269340515">
        <ele>89.26</ele>
      </trkpt>
      <trkpt lat="59.56877063959837" lon="30.09594007395208">
        <ele>88.63</ele>
      </trkpt>
      <trkpt lat="59.56898353993893" lon="30.095617454499006">
        <ele>88.41</ele>
      </trkpt>
      <trkpt lat="59.569196440279484" lon="30.095294918864965">
        <ele>88.08</ele>
      </trkpt>
      <trkpt lat="59.56940934062004" lon="30.094972299411893">
        <ele>87.69</ele>
      </trkpt>
      <trkpt lat="59.56961989402771" lon="30.094653367996216">
        <ele>87.25</ele>
      </trkpt>
      <trkpt lat="59.56982407718897" lon="30.094524370506406">
        <ele>86.89</ele>
      </trkpt>
      <trkpt lat="59.570027673617005" lon="30.094395875930786">
        <ele>86.56</ele>
      </trkpt>
      <trkpt lat="59.57028550095856" lon="30.094379698857665">
        <ele>86.2</ele>
      </trkpt>
      <trkpt lat="59.57054257392883" lon="30.094363689422607">
        <ele>85.79</ele>
      </trkpt>
      <trkpt lat="59.570542657747865" lon="30.094363689422607">
        <ele>85.46</ele>
      </trkpt>
      <trkpt lat="59.570784559473395" lon="30.09403838776052">
        <ele>85.1</ele>
      </trkpt>
      <trkpt lat="59.571026461198926" lon="30.093713169917464">
        <ele>84.78</ele>
      </trkpt>
      <trkpt lat="59.57126836292446" lon="30.09338795207441">
        <ele>84.59</ele>
      </trkpt>
      <trkpt lat="59.571508252993226" lon="30.0930655002594">
        <ele>84.35</ele>
      </trkpt>
      <trkpt lat="59.57174780778587" lon="30.092744305729866">
        <ele>84.11</ele>
      </trkpt>
      <trkpt lat="59.57198635675013" lon="30.092424536123872">
        <ele>83.77</ele>
      </trkpt>
      <trkpt lat="59.572012424468994" lon="30.092389583587646">
        <ele>83.42</ele>
      </trkpt>
      <trkpt lat="59.572023153305054" lon="30.092207193374634">
        <ele>83.31</ele>
      </trkpt>
      <trkpt lat="59.572023237124085" lon="30.092207193374634">
        <ele>83.23</ele>
      </trkpt>
      <trkpt lat="59.572023153305054" lon="30.092175006866455">
        <ele>83.2</ele>
      </trkpt>
      <trkpt lat="59.572066152468324" lon="30.091660022735596">
        <ele>83.14</ele>
      </trkpt>
      <trkpt lat="59.57206606864929" lon="30.091660022735596">
        <ele>83.17</ele>
      </trkpt>
      <trkpt lat="59.57188367843628" lon="30.091230869293213">
        <ele>83.22</ele>
      </trkpt>
      <trkpt lat="59.57169366069138" lon="30.090979915112257">
        <ele>83.36</ele>
      </trkpt>
      <trkpt lat="59.57150372676551" lon="30.090729044750333">
        <ele>83.59</ele>
      </trkpt>
      <trkpt lat="59.57131505012512" lon="30.090479850769043">
        <ele>83.78</ele>
      </trkpt>
      <trkpt lat="59.57115420140326" lon="30.090125799179077">
        <ele>83.85</ele>
      </trkpt>
      <trkpt lat="59.57115571014583" lon="30.09023493155837">
        <ele>84.03</ele>
      </trkpt>
      <trkpt lat="59.57115571014583" lon="30.09023484773934">
        <ele>84.19</ele>
      </trkpt>
      <trkpt lat="59.57116493023932" lon="30.09084463119507">
        <ele>84.5</ele>
      </trkpt>
      <trkpt lat="59.57113794051111" lon="30.0913074798882">
        <ele>84.7</ele>
      </trkpt>
      <trkpt lat="59.57111120223999" lon="30.09176731109619">
        <ele>84.76</ele>
      </trkpt>
      <trkpt lat="59.57101439125836" lon="30.092057744041085">
        <ele>84.78</ele>
      </trkpt>
      <trkpt lat="59.57091816700995" lon="30.092346668243408">
        <ele>84.79</ele>
      </trkpt>
      <trkpt lat="59.5708361081779" lon="30.09278705343604">
        <ele>84.8</ele>
      </trkpt>
      <trkpt lat="59.57075404934585" lon="30.093227522447705">
        <ele>84.88</ele>
      </trkpt>
      <trkpt lat="59.57067282870412" lon="30.093663884326816">
        <ele>85.01</ele>
      </trkpt>
      <trkpt lat="59.57060744985938" lon="30.094014834612608">
        <ele>85.23</ele>
      </trkpt>
      <trkpt lat="59.57054257392883" lon="30.094363689422607">
        <ele>85.36</ele>
      </trkpt>
      <trkpt lat="59.570664362981915" lon="30.094682620838284">
        <ele>85.44</ele>
      </trkpt>
      <trkpt lat="59.570767963305116" lon="30.094953775405884">
        <ele>85.38</ele>
      </trkpt>
      <trkpt lat="59.570767879486084" lon="30.094953775405884">
        <ele>85.25</ele>
      </trkpt>
      <trkpt lat="59.570933505892754" lon="30.095388377085328">
        <ele>85.13</ele>
      </trkpt>
      <trkpt lat="59.571099216118455" lon="30.095822978764772">
        <ele>84.97</ele>
      </trkpt>
      <trkpt lat="59.571264842525125" lon="30.096257580444217">
        <ele>84.66</ele>
      </trkpt>
      <trkpt lat="59.571430552750826" lon="30.09669218212366">
        <ele>84.14</ele>
      </trkpt>
      <trkpt lat="59.57159399986267" lon="30.097121000289917">
        <ele>83.53</ele>
      </trkpt>
      <trkpt lat="59.571529710665345" lon="30.097249746322632">
        <ele>83.14</ele>
      </trkpt>
      <trkpt lat="59.57134732045233" lon="30.097614526748657">
        <ele>82.71</ele>
      </trkpt>
      <trkpt lat="59.57133659161627" lon="30.097914934158325">
        <ele>82.4</ele>
      </trkpt>
      <trkpt lat="59.57133650779724" lon="30.097914934158325">
        <ele>82.16</ele>
      </trkpt>
      <trkpt lat="59.571272218599916" lon="30.097925662994385">
        <ele>81.73</ele>
      </trkpt>
      <trkpt lat="59.57115411758423" lon="30.097475051879883">
        <ele>81.78</ele>
      </trkpt>
      <trkpt lat="59.57115420140326" lon="30.097475051879883">
        <ele>81.8</ele>
      </trkpt>
      <trkpt lat="59.57090685144067" lon="30.097233150154352">
        <ele>81.96</ele>
      </trkpt>
      <trkpt lat="59.57066059112549" lon="30.096992254257202">
        <ele>82.17</ele>
      </trkpt>
      <trkpt lat="59.570410726591945" lon="30.096968030557036">
        <ele>82.24</ele>
      </trkpt>
      <trkpt lat="59.5701608620584" lon="30.096943890675902">
        <ele>82.32</ele>
      </trkpt>
      <trkpt lat="59.56991099752486" lon="30.096919666975737">
        <ele>82.44</ele>
      </trkpt>
      <trkpt lat="59.56966280937195" lon="30.096895694732666">
        <ele>82.57</ele>
      </trkpt>
      <trkpt lat="59.5694478135556" lon="30.097083784639835">
        <ele>82.61</ele>
      </trkpt>
      <trkpt lat="59.569233655929565" lon="30.09727120399475">
        <ele>82.74</ele>
      </trkpt>
      <trkpt lat="59.5691367611289" lon="30.097653167322278">
        <ele>82.74</ele>
      </trkpt>
      <trkpt lat="59.56904053688049" lon="30.09803295135498">
        <ele>82.74</ele>
      </trkpt>
      <trkpt lat="59.56916928291321" lon="30.098172426223755">
        <ele>82.46</ele>
      </trkpt>
      <trkpt lat="59.56923382356763" lon="30.098584983497858">
        <ele>82.37</ele>
      </trkpt>
      <trkpt lat="59.56929836422205" lon="30.09899754077196">
        <ele>82.3</ele>
      </trkpt>
      <trkpt lat="59.56936240196228" lon="30.099406242370605">
        <ele>82.22</ele>
      </trkpt>
      <trkpt lat="59.5695183891803" lon="30.09981502778828">
        <ele>82.16</ele>
      </trkpt>
      <trkpt lat="59.56967353820801" lon="30.100221633911133">
        <ele>82.11</ele>
      </trkpt>
      <trkpt lat="59.5698881149292" lon="30.100489854812622">
        <ele>81.94</ele>
      </trkpt>
      <trkpt lat="59.57018181681633" lon="30.100557832047343">
        <ele>81.77</ele>
      </trkpt>
      <trkpt lat="59.57047551870346" lon="30.100625893101096">
        <ele>81.68</ele>
      </trkpt>
      <trkpt lat="59.570767879486084" lon="30.100693702697754">
        <ele>81.51</ele>
      </trkpt>
      <trkpt lat="59.57095379009843" lon="30.100918086245656">
        <ele>81.33</ele>
      </trkpt>
      <trkpt lat="59.57107909955084" lon="30.10106921195984">
        <ele>81.04</ele>
      </trkpt>
      <trkpt lat="59.57107901573181" lon="30.10106921195984">
        <ele>80.94</ele>
      </trkpt>
      <trkpt lat="59.57128864713013" lon="30.10141865350306">
        <ele>80.79</ele>
      </trkpt>
      <trkpt lat="59.571497440338135" lon="30.10176658630371">
        <ele>80.74</ele>
      </trkpt>
      <trkpt lat="59.571594251319766" lon="30.102105466648936">
        <ele>80.72</ele>
      </trkpt>
      <trkpt lat="59.57169055938721" lon="30.102442502975464">
        <ele>80.67</ele>
      </trkpt>
      <trkpt lat="59.57181955687702" lon="30.102738300338387">
        <ele>80.66</ele>
      </trkpt>
      <trkpt lat="59.57194805145264" lon="30.10303258895874">
        <ele>80.69</ele>
      </trkpt>
      <trkpt lat="59.5720502268523" lon="30.103323021903634">
        <ele>80.82</ele>
      </trkpt>
      <trkpt lat="59.57215189933777" lon="30.103611946105957">
        <ele>81.04</ele>
      </trkpt>
      <trkpt lat="59.572302186861634" lon="30.104148387908936">
        <ele>81.29</ele>
      </trkpt>
      <trkpt lat="59.5723021030426" lon="30.104148387908936">
        <ele>81.45</ele>
      </trkpt>
      <trkpt lat="59.57237728871405" lon="30.104491710662842">
        <ele>81.69</ele>
      </trkpt>
      <trkpt lat="59.57245239056647" lon="30.104920864105225">
        <ele>81.87</ele>
      </trkpt>
      <trkpt lat="59.57245230674744" lon="30.104920864105225">
        <ele>82.03</ele>
      </trkpt>
      <trkpt lat="59.57230528816581" lon="30.1052363589406">
        <ele>82.24</ele>
      </trkpt>
      <trkpt lat="59.57215826958418" lon="30.105551853775978">
        <ele>82.39</ele>
      </trkpt>
      <trkpt lat="59.572012424468994" lon="30.105865001678467">
        <ele>82.53</ele>
      </trkpt>
      <trkpt lat="59.571876134723425" lon="30.106252245604992">
        <ele>82.61</ele>
      </trkpt>
      <trkpt lat="59.571739844977856" lon="30.10663957335055">
        <ele>82.66</ele>
      </trkpt>
      <trkpt lat="59.57160472869873" lon="30.1070237159729">
        <ele>82.74</ele>
      </trkpt>
      <trkpt lat="59.571541445329785" lon="30.10709546506405">
        <ele>82.87</ele>
      </trkpt>
      <trkpt lat="59.571293760091066" lon="30.107376091182232">
        <ele>83.08</ele>
      </trkpt>
      <trkpt lat="59.57104615867138" lon="30.107656717300415">
        <ele>83.29</ele>
      </trkpt>
      <trkpt lat="59.57080006599426" lon="30.107935667037964">
        <ele>83.35</ele>
      </trkpt>
      <trkpt lat="59.57071750424802" lon="30.108387619256973">
        <ele>83.75</ele>
      </trkpt>
      <trkpt lat="59.570635026320815" lon="30.108839655295014">
        <ele>84.05</ele>
      </trkpt>
      <trkpt lat="59.570553386583924" lon="30.10928750038147">
        <ele>84.31</ele>
      </trkpt>
      <trkpt lat="59.57051566801965" lon="30.109642641618848">
        <ele>84.69</ele>
      </trkpt>
      <trkpt lat="59.570478200912476" lon="30.1099956035614">
        <ele>85.09</ele>
      </trkpt>
      <trkpt lat="59.57038164138794" lon="30.11051058769226">
        <ele>85.57</ele>
      </trkpt>
      <trkpt lat="59.57011191174388" lon="30.110763804987073">
        <ele>85.97</ele>
      </trkpt>
      <trkpt lat="59.56985601224005" lon="30.111004114151">
        <ele>86.54</ele>
      </trkpt>
      <trkpt lat="59.56985592842102" lon="30.111004114151">
        <ele>86.71</ele>
      </trkpt>
      <trkpt lat="59.569644536823034" lon="30.111043509095907">
        <ele>86.84</ele>
      </trkpt>
      <trkpt lat="59.56943322904408" lon="30.111082904040813">
        <ele>86.92</ele>
      </trkpt>
      <trkpt lat="59.569222927093506" lon="30.111122131347656">
        <ele>86.97</ele>
      </trkpt>
      <trkpt lat="59.56915855407715" lon="30.111004114151">
        <ele>86.9</ele>
      </trkpt>
      <trkpt lat="59.56915863789618" lon="30.111004114151">
        <ele>86.79</ele>
      </trkpt>
      <trkpt lat="59.56898764707148" lon="30.110647631809115">
        <ele>86.48</ele>
      </trkpt>
      <trkpt lat="59.56881757825613" lon="30.110292993485928">
        <ele>86.13</ele>
      </trkpt>
      <trkpt lat="59.56878304481506" lon="30.110220909118652">
        <ele>85.67</ele>
      </trkpt>
      <trkpt lat="59.56868648529053" lon="30.110177993774414">
        <ele>85.44</ele>
      </trkpt>
      <trkpt lat="59.56853628158569" lon="30.109866857528687">
        <ele>85.08</ele>
      </trkpt>
      <trkpt lat="59.56842128187418" lon="30.110126696527004">
        <ele>84.93</ele>
      </trkpt>
      <trkpt lat="59.56830695271492" lon="30.110385278239846">
        <ele>84.86</ele>
      </trkpt>
      <trkpt lat="59.56828951835632" lon="30.110424757003784">
        <ele>84.76</ele>
      </trkpt>
      <trkpt lat="59.56828951835632" lon="30.11075735092163">
        <ele>84.83</ele>
      </trkpt>
      <trkpt lat="59.568257331848145" lon="30.111132860183716">
        <ele>84.87</ele>
      </trkpt>
      <trkpt lat="59.56810721196234" lon="30.111454725265503">
        <ele>84.88</ele>
      </trkpt>
      <trkpt lat="59.56796195358038" lon="30.111745074391365">
        <ele>84.82</ele>
      </trkpt>
      <trkpt lat="59.567817533388734" lon="30.11203408241272">
        <ele>84.76</ele>
      </trkpt>
      <trkpt lat="59.5678174495697" lon="30.11203408241272">
        <ele>84.79</ele>
      </trkpt>
      <trkpt lat="59.56761318258941" lon="30.11228134855628">
        <ele>84.75</ele>
      </trkpt>
      <trkpt lat="59.56740891560912" lon="30.11252861469984">
        <ele>84.85</ele>
      </trkpt>
      <trkpt lat="59.56720598973334" lon="30.11277437210083">
        <ele>84.96</ele>
      </trkpt>
      <trkpt lat="59.56696995534003" lon="30.113182067871094">
        <ele>85.0</ele>
      </trkpt>
      <trkpt lat="59.56695922650397" lon="30.113353729248047">
        <ele>85.07</ele>
      </trkpt>
      <trkpt lat="59.5669162273407" lon="30.11353611946106">
        <ele>85.14</ele>
      </trkpt>
      <trkpt lat="59.56679821014404" lon="30.113589763641357">
        <ele>85.2</ele>
      </trkpt>
      <trkpt lat="59.56654071807861" lon="30.113418102264404">
        <ele>85.21</ele>
      </trkpt>
      <trkpt lat="59.56649788655341" lon="30.11348247528076">
        <ele>85.28</ele>
      </trkpt>
      <trkpt lat="59.566497802734375" lon="30.11348247528076">
        <ele>85.33</ele>
      </trkpt>
      <trkpt lat="59.566272078081965" lon="30.11369738727808">
        <ele>85.38</ele>
      </trkpt>
      <trkpt lat="59.566047275438905" lon="30.113911628723145">
        <ele>85.44</ele>
      </trkpt>
      <trkpt lat="59.56588592380285" lon="30.114035177975893">
        <ele>85.47</ele>
      </trkpt>
      <trkpt lat="59.565725326538086" lon="30.114158391952515">
        <ele>85.47</ele>
      </trkpt>
      <trkpt lat="59.565510246902704" lon="30.114448657259345">
        <ele>85.48</ele>
      </trkpt>
      <trkpt lat="59.565295251086354" lon="30.114738922566175">
        <ele>85.44</ele>
      </trkpt>
      <trkpt lat="59.56508168019354" lon="30.11502742767334">
        <ele>85.33</ele>
      </trkpt>
      <trkpt lat="59.56485050730407" lon="30.11509188450873">
        <ele>85.04</ele>
      </trkpt>
      <trkpt lat="59.56462025642395" lon="30.115156173706055">
        <ele>84.68</ele>
      </trkpt>
      <trkpt lat="59.56462034024298" lon="30.115156173706055">
        <ele>84.4</ele>
      </trkpt>
      <trkpt lat="59.564470052719116" lon="30.115209817886353">
        <ele>84.0</ele>
      </trkpt>
      <trkpt lat="59.56435203552246" lon="30.11527419090271">
        <ele>83.67</ele>
      </trkpt>
      <trkpt lat="59.56418548710644" lon="30.11536010541022">
        <ele>83.32</ele>
      </trkpt>
      <trkpt lat="59.564019525423646" lon="30.115445852279663">
        <ele>83.0</ele>
      </trkpt>
      <trkpt lat="59.564019441604614" lon="30.115445852279663">
        <ele>82.61</ele>
      </trkpt>
      <trkpt lat="59.564019525423646" lon="30.115445852279663">
        <ele>81.85</ele>
      </trkpt>
      <trkpt lat="59.5638957247138" lon="30.115106888115406">
        <ele>81.3</ele>
      </trkpt>
      <trkpt lat="59.563772678375244" lon="30.11476993560791">
        <ele>80.84</ele>
      </trkpt>
      <trkpt lat="59.563772762194276" lon="30.11476993560791">
        <ele>80.58</ele>
      </trkpt>
      <trkpt lat="59.56358986906707" lon="30.11450649239123">
        <ele>80.33</ele>
      </trkpt>
      <trkpt lat="59.56340789794922" lon="30.11424422264099">
        <ele>80.26</ele>
      </trkpt>
      <trkpt lat="59.56340798176825" lon="30.11424422264099">
        <ele>80.47</ele>
      </trkpt>
      <trkpt lat="59.56339716911316" lon="30.114169120788574">
        <ele>80.7</ele>
      </trkpt>
      <trkpt lat="59.56332206726074" lon="30.113654136657715">
        <ele>81.18</ele>
      </trkpt>
      <trkpt lat="59.56333287991583" lon="30.113450288772583">
        <ele>81.59</ele>
      </trkpt>
      <trkpt lat="59.563435055315495" lon="30.1128744520247">
        <ele>81.98</ele>
      </trkpt>
      <trkpt lat="59.563536643981934" lon="30.11230230331421">
        <ele>82.3</ele>
      </trkpt>
      <trkpt lat="59.563536727800965" lon="30.11230230331421">
        <ele>82.66</ele>
      </trkpt>
      <trkpt lat="59.56354737281799" lon="30.11228084564209">
        <ele>83.03</ele>
      </trkpt>
      <trkpt lat="59.56369757652283" lon="30.11199116706848">
        <ele>83.48</ele>
      </trkpt>
      <trkpt lat="59.56370838917792" lon="30.111969709396362">
        <ele>83.86</ele>
      </trkpt>
      <trkpt lat="59.56372448243201" lon="30.111646754667163">
        <ele>84.25</ele>
      </trkpt>
      <trkpt lat="59.563740491867065" lon="30.111325979232788">
        <ele>84.62</ele>
      </trkpt>
      <trkpt lat="59.5637405756861" lon="30.111325979232788">
        <ele>84.98</ele>
      </trkpt>
      <trkpt lat="59.563579643145204" lon="30.111004114151">
        <ele>85.36</ele>
      </trkpt>
      <trkpt lat="59.56336506642401" lon="30.110660791397095">
        <ele>85.77</ele>
      </trkpt>
      <trkpt lat="59.56336498260498" lon="30.110660791397095">
        <ele>86.13</ele>
      </trkpt>
      <trkpt lat="59.56336506642401" lon="30.110660791397095">
        <ele>86.89</ele>
      </trkpt>
      <trkpt lat="59.56333287991583" lon="30.110607147216797">
        <ele>87.3</ele>
      </trkpt>
      <trkpt lat="59.563279235735536" lon="30.11051058769226">
        <ele>87.74</ele>
      </trkpt>
      <trkpt lat="59.56311880610883" lon="30.110122337937355">
        <ele>88.32</ele>
      </trkpt>
      <trkpt lat="59.563075387850404" lon="30.11001706123352">
        <ele>89.14</ele>
      </trkpt>
      <trkpt lat="59.563182676211" lon="30.109834671020508">
        <ele>89.54</ele>
      </trkpt>
      <trkpt lat="59.56318259239197" lon="30.109834671020508">
        <ele>89.9</ele>
      </trkpt>
      <trkpt lat="59.563182676211" lon="30.109834671020508">
        <ele>90.63</ele>
      </trkpt>
      <trkpt lat="59.56337571144104" lon="30.109469890594482">
        <ele>91.09</ele>
      </trkpt>
      <trkpt lat="59.56340798176825" lon="30.1094913482666">
        <ele>91.42</ele>
      </trkpt>
      <trkpt lat="59.56342943944037" lon="30.10950207710266">
        <ele>91.78</ele>
      </trkpt>
      <trkpt lat="59.56348308362067" lon="30.109394788742065">
        <ele>92.2</ele>
      </trkpt>
      <trkpt lat="59.56348308362067" lon="30.109373331069946">
        <ele>92.54</ele>
      </trkpt>
      <trkpt lat="59.56346154212952" lon="30.10930895805359">
        <ele>92.87</ele>
      </trkpt>
      <trkpt lat="59.56360830925405" lon="30.109031768515706">
        <ele>93.18</ele>
      </trkpt>
      <trkpt lat="59.56375130452216" lon="30.10876178741455">
        <ele>93.47</ele>
      </trkpt>
      <trkpt lat="59.56391223706305" lon="30.10880470275879">
        <ele>93.25</ele>
      </trkpt>
      <trkpt lat="59.56395515240729" lon="30.108847618103027">
        <ele>92.99</ele>
      </trkpt>
      <trkpt lat="59.56411105580628" lon="30.108368759974837">
        <ele>92.71</ele>
      </trkpt>
      <trkpt lat="59.564266204833984" lon="30.107892751693726">
        <ele>92.34</ele>
      </trkpt>
      <trkpt lat="59.564309203997254" lon="30.10753870010376">
        <ele>92.03</ele>
      </trkpt>
      <trkpt lat="59.56437357701361" lon="30.107109546661377">
        <ele>91.85</ele>
      </trkpt>
      <trkpt lat="59.5643949508667" lon="30.10703444480896">
        <ele>91.68</ele>
      </trkpt>
      <trkpt lat="59.56439503468573" lon="30.10703444480896">
        <ele>91.57</ele>
      </trkpt>
      <trkpt lat="59.56442470662296" lon="30.106880720704794">
        <ele>91.54</ele>
      </trkpt>
    </trkseg>
  </trk>
</gpx>
