<?xml version="1.0" encoding="UTF-8"?>
<gpx creator="Garmin Connect" version="1.1"
  xsi:schemaLocation="http://www.topografix.com/GPX/1/1 http://www.topografix.com/GPX/11.xsd"
  xmlns:ns3="http://www.garmin.com/xmlschemas/TrackPointExtension/v1"
  xmlns="http://www.topografix.com/GPX/1/1"
  xmlns:xsi="http://www.w3.org/2001/XMLSchema-instance" xmlns:ns2="http://www.garmin.com/xmlschemas/GpxExtensions/v3">
  <metadata>
    <name>Луговой парк( Петергоф)Бег 10,01 км</name>
    <link href="connect.garmin.com">
      <text>Garmin Connect</text>
    </link>
    <time>2026-10-03T12:00:15.000Z</time>
  </metadata>
  <trk>
    <name>Луговой парк( Петергоф)Бег 10,01 км</name>
    <trkseg>
      <trkpt lat="59.87469661049545" lon="29.869368597865105">
        <ele>26.17</ele>
      </trkpt>
      <trkpt lat="59.87453299574554" lon="29.869797248393297">
        <ele>26.43</ele>
      </trkpt>
      <trkpt lat="59.87436946481466" lon="29.87022589892149">
        <ele>26.75</ele>
      </trkpt>
      <trkpt lat="59.874205933883786" lon="29.870654549449682">
        <ele>27.05</ele>
      </trkpt>
      <trkpt lat="59.87404240295291" lon="29.871083199977875">
        <ele>27.43</ele>
      </trkpt>
      <trkpt lat="59.87387887202203" lon="29.871511850506067">
        <ele>27.73</ele>
      </trkpt>
      <trkpt lat="59.87371802330017" lon="29.871933460235596">
        <ele>27.87</ele>
      </trkpt>
      <trkpt lat="59.8737181071192" lon="29.871933460235596">
        <ele>27.96</ele>
      </trkpt>
      <trkpt lat="59.87358936108649" lon="29.872233867645264">
        <ele>27.94</ele>
      </trkpt>
      <trkpt lat="59.87339213490486" lon="29.87271792255342">
        <ele>27.85</ele>
      </trkpt>
      <trkpt lat="59.873194908723235" lon="29.873202061280608">
        <ele>27.83</ele>
      </trkpt>
      <trkpt lat="59.87299927510321" lon="29.873682260513306">
        <ele>27.8</ele>
      </trkpt>
      <trkpt lat="59.872802048921585" lon="29.87415198236704">
        <ele>27.81</ele>
      </trkpt>
      <trkpt lat="59.87260482273996" lon="29.874621704220772">
        <ele>27.76</ele>
      </trkpt>
      <trkpt lat="59.872409189119935" lon="29.87508773803711">
        <ele>27.65</ele>
      </trkpt>
      <trkpt lat="59.87233408726752" lon="29.875270128250122">
        <ele>27.54</ele>
      </trkpt>
      <trkpt lat="59.87217986024916" lon="29.875646643340588">
        <ele>27.58</ele>
      </trkpt>
      <trkpt lat="59.872025633230805" lon="29.876023158431053">
        <ele>27.71</ele>
      </trkpt>
      <trkpt lat="59.87187274731696" lon="29.876396656036377">
        <ele>27.78</ele>
      </trkpt>
      <trkpt lat="59.871689938008785" lon="29.876595474779606">
        <ele>27.72</ele>
      </trkpt>
      <trkpt lat="59.8715078830719" lon="29.87679362297058">
        <ele>27.57</ele>
      </trkpt>
      <trkpt lat="59.87150796689093" lon="29.87679362297058">
        <ele>27.44</ele>
      </trkpt>
      <trkpt lat="59.87128358334303" lon="29.87722839228809">
        <ele>27.13</ele>
      </trkpt>
      <trkpt lat="59.87105928361416" lon="29.87766324542463">
        <ele>26.82</ele>
      </trkpt>
      <trkpt lat="59.87083490006626" lon="29.878098098561168">
        <ele>26.52</ele>
      </trkpt>
      <trkpt lat="59.870610600337386" lon="29.878532951697707">
        <ele>26.3</ele>
      </trkpt>
      <trkpt lat="59.870386216789484" lon="29.878967804834247">
        <ele>26.08</ele>
      </trkpt>
      <trkpt lat="59.870161917060614" lon="29.879402657970786">
        <ele>25.92</ele>
      </trkpt>
      <trkpt lat="59.8699414730072" lon="29.87982988357544">
        <ele>25.61</ele>
      </trkpt>
      <trkpt lat="59.86985572613776" lon="29.880130290985107">
        <ele>25.37</ele>
      </trkpt>
      <trkpt lat="59.86985572613776" lon="29.880743846297264">
        <ele>25.03</ele>
      </trkpt>
      <trkpt lat="59.86985572613776" lon="29.88135740160942">
        <ele>24.73</ele>
      </trkpt>
      <trkpt lat="59.86985572613776" lon="29.881964921951294">
        <ele>24.58</ele>
      </trkpt>
      <trkpt lat="59.86985572613776" lon="29.882469177246094">
        <ele>24.35</ele>
      </trkpt>
      <trkpt lat="59.869850277900696" lon="29.882797496393323">
        <ele>24.08</ele>
      </trkpt>
      <trkpt lat="59.869844913482666" lon="29.883123636245728">
        <ele>23.86</ele>
      </trkpt>
      <trkpt lat="59.869844913482666" lon="29.8836690466851">
        <ele>23.69</ele>
      </trkpt>
      <trkpt lat="59.869844913482666" lon="29.88421445712447">
        <ele>23.55</ele>
      </trkpt>
      <trkpt lat="59.8698449973017" lon="29.884754419326782">
        <ele>23.43</ele>
      </trkpt>
      <trkpt lat="59.869844913482666" lon="29.885359341278672">
        <ele>23.34</ele>
      </trkpt>
      <trkpt lat="59.869844913482666" lon="29.885964347049594">
        <ele>23.21</ele>
      </trkpt>
      <trkpt lat="59.869844913482666" lon="29.886569352820516">
        <ele>23.2</ele>
      </trkpt>
      <trkpt lat="59.869844913482666" lon="29.887174274772406">
        <ele>23.22</ele>
      </trkpt>
      <trkpt lat="59.869844913482666" lon="29.88776922225952">
        <ele>23.29</ele>
      </trkpt>
      <trkpt lat="59.8698449973017" lon="29.88776922225952">
        <ele>23.4</ele>
      </trkpt>
      <trkpt lat="59.869844913482666" lon="29.887865781784058">
        <ele>23.56</ele>
      </trkpt>
      <trkpt lat="59.869844913482666" lon="29.888375233858824">
        <ele>23.81</ele>
      </trkpt>
      <trkpt lat="59.869844913482666" lon="29.88888476975262">
        <ele>24.06</ele>
      </trkpt>
      <trkpt lat="59.869844913482666" lon="29.889389276504517">
        <ele>24.32</ele>
      </trkpt>
      <trkpt lat="59.869839549064636" lon="29.889954384416342">
        <ele>24.6</ele>
      </trkpt>
      <trkpt lat="59.86983426846564" lon="29.89051580429077">
        <ele>25.02</ele>
      </trkpt>
      <trkpt lat="59.86982882022858" lon="29.890935570001602">
        <ele>25.38</ele>
      </trkpt>
      <trkpt lat="59.86982345581055" lon="29.891352653503418">
        <ele>25.77</ele>
      </trkpt>
      <trkpt lat="59.86976981163025" lon="29.891449213027954">
        <ele>26.03</ele>
      </trkpt>
      <trkpt lat="59.86959245055914" lon="29.891422307118773">
        <ele>26.2</ele>
      </trkpt>
      <trkpt lat="59.86941576004028" lon="29.891395568847656">
        <ele>26.44</ele>
      </trkpt>
      <trkpt lat="59.86911476589739" lon="29.891470754519105">
        <ele>26.73</ele>
      </trkpt>
      <trkpt lat="59.86881494522095" lon="29.89154577255249">
        <ele>27.02</ele>
      </trkpt>
      <trkpt lat="59.868632052093744" lon="29.891871996223927">
        <ele>27.31</ele>
      </trkpt>
      <trkpt lat="59.86844924278557" lon="29.892198219895363">
        <ele>27.57</ele>
      </trkpt>
      <trkpt lat="59.86826777458191" lon="29.89252209663391">
        <ele>27.69</ele>
      </trkpt>
      <trkpt lat="59.86810114234686" lon="29.89259728230536">
        <ele>27.73</ele>
      </trkpt>
      <trkpt lat="59.86793518066406" lon="29.892672300338745">
        <ele>27.69</ele>
      </trkpt>
      <trkpt lat="59.86775279045105" lon="29.89256501197815">
        <ele>27.57</ele>
      </trkpt>
      <trkpt lat="59.867577105760574" lon="29.892281787469983">
        <ele>27.4</ele>
      </trkpt>
      <trkpt lat="59.8674014210701" lon="29.891998562961817">
        <ele>27.27</ele>
      </trkpt>
      <trkpt lat="59.86722707748413" lon="29.891717433929443">
        <ele>27.24</ele>
      </trkpt>
      <trkpt lat="59.86706052906811" lon="29.891647528856993">
        <ele>27.18</ele>
      </trkpt>
      <trkpt lat="59.866894567385316" lon="29.89157795906067">
        <ele>27.05</ele>
      </trkpt>
      <trkpt lat="59.866631124168634" lon="29.89176068454981">
        <ele>26.78</ele>
      </trkpt>
      <trkpt lat="59.866368770599365" lon="29.891942739486694">
        <ele>26.52</ele>
      </trkpt>
      <trkpt lat="59.86607858911157" lon="29.89199286326766">
        <ele>26.37</ele>
      </trkpt>
      <trkpt lat="59.86578840762377" lon="29.892042987048626">
        <ele>26.23</ele>
      </trkpt>
      <trkpt lat="59.86549973487854" lon="29.89209294319153">
        <ele>26.07</ele>
      </trkpt>
      <trkpt lat="59.865281134843826" lon="29.89231145940721">
        <ele>25.79</ele>
      </trkpt>
      <trkpt lat="59.86506253480911" lon="29.892530059441924">
        <ele>25.56</ele>
      </trkpt>
      <trkpt lat="59.864845275878906" lon="29.892747402191162">
        <ele>25.41</ele>
      </trkpt>
      <trkpt lat="59.86478090286255" lon="29.892994165420532">
        <ele>25.28</ele>
      </trkpt>
      <trkpt lat="59.864684427157044" lon="29.893230199813843">
        <ele>25.18</ele>
      </trkpt>
      <trkpt lat="59.864537324756384" lon="29.893563631922007">
        <ele>25.12</ele>
      </trkpt>
      <trkpt lat="59.864390306174755" lon="29.89389706403017">
        <ele>25.04</ele>
      </trkpt>
      <trkpt lat="59.86424446105957" lon="29.894227981567383">
        <ele>24.97</ele>
      </trkpt>
      <trkpt lat="59.86418520100415" lon="29.894523862749338">
        <ele>24.85</ele>
      </trkpt>
      <trkpt lat="59.864126443862915" lon="29.89481806755066">
        <ele>24.75</ele>
      </trkpt>
      <trkpt lat="59.864110266789794" lon="29.895167844370008">
        <ele>24.74</ele>
      </trkpt>
      <trkpt lat="59.864094257354736" lon="29.89551544189453">
        <ele>24.77</ele>
      </trkpt>
      <trkpt lat="59.864110350608826" lon="29.896064372733235">
        <ele>24.88</ele>
      </trkpt>
      <trkpt lat="59.864126443862915" lon="29.896609783172607">
        <ele>25.1</ele>
      </trkpt>
      <trkpt lat="59.86423373222351" lon="29.896985292434692">
        <ele>25.27</ele>
      </trkpt>
      <trkpt lat="59.86451318487525" lon="29.89718947559595">
        <ele>25.38</ele>
      </trkpt>
      <trkpt lat="59.86479163169861" lon="29.897392988204956">
        <ele>25.5</ele>
      </trkpt>
      <trkpt lat="59.86483454704285" lon="29.89755392074585">
        <ele>25.69</ele>
      </trkpt>
      <trkpt lat="59.86480236053467" lon="29.897929430007935">
        <ele>25.93</ele>
      </trkpt>
      <trkpt lat="59.86477025784552" lon="29.898144006729126">
        <ele>26.06</ele>
      </trkpt>
      <trkpt lat="59.86477017402649" lon="29.898144006729126">
        <ele>26.18</ele>
      </trkpt>
      <trkpt lat="59.86469507217407" lon="29.898616075515747">
        <ele>26.31</ele>
      </trkpt>
      <trkpt lat="59.86454444937408" lon="29.899111026898026">
        <ele>26.4</ele>
      </trkpt>
      <trkpt lat="59.864394748583436" lon="29.899603128433228">
        <ele>26.52</ele>
      </trkpt>
      <trkpt lat="59.864136753603816" lon="29.899525176733732">
        <ele>26.6</ele>
      </trkpt>
      <trkpt lat="59.86387884244323" lon="29.899447225034237">
        <ele>26.59</ele>
      </trkpt>
      <trkpt lat="59.86362084746361" lon="29.899369357153773">
        <ele>26.52</ele>
      </trkpt>
      <trkpt lat="59.863364696502686" lon="29.8992919921875">
        <ele>26.47</ele>
      </trkpt>
      <trkpt lat="59.863133607432246" lon="29.8992436286062">
        <ele>26.52</ele>
      </trkpt>
      <trkpt lat="59.862903356552124" lon="29.899195432662964">
        <ele>26.63</ele>
      </trkpt>
      <trkpt lat="59.86272591166198" lon="29.899012623354793">
        <ele>26.65</ele>
      </trkpt>
      <trkpt lat="59.86254930496216" lon="29.89883065223694">
        <ele>26.73</ele>
      </trkpt>
      <trkpt lat="59.862280832603574" lon="29.898688411340117">
        <ele>26.86</ele>
      </trkpt>
      <trkpt lat="59.86201236024499" lon="29.898546170443296">
        <ele>27.05</ele>
      </trkpt>
      <trkpt lat="59.86174397170544" lon="29.898403929546475">
        <ele>27.14</ele>
      </trkpt>
      <trkpt lat="59.86147549934685" lon="29.898261688649654">
        <ele>27.14</ele>
      </trkpt>
      <trkpt lat="59.86120945774019" lon="29.89812078885734">
        <ele>27.28</ele>
      </trkpt>
      <trkpt lat="59.86092925071716" lon="29.897972345352173">
        <ele>27.36</ele>
      </trkpt>
      <trkpt lat="59.86071417108178" lon="29.89768199622631">
        <ele>27.32</ele>
      </trkpt>
      <trkpt lat="59.86050009727478" lon="29.897392988204956">
        <ele>27.34</ele>
      </trkpt>
      <trkpt lat="59.86024210229516" lon="29.897283352911472">
        <ele>27.32</ele>
      </trkpt>
      <trkpt lat="59.85998419113457" lon="29.89717371761799">
        <ele>27.32</ele>
      </trkpt>
      <trkpt lat="59.859726279973984" lon="29.897064082324505">
        <ele>27.36</ele>
      </trkpt>
      <trkpt lat="59.859468284994364" lon="29.89695444703102">
        <ele>27.41</ele>
      </trkpt>
      <trkpt lat="59.85921263694763" lon="29.896845817565918">
        <ele>27.38</ele>
      </trkpt>
      <trkpt lat="59.85896587371826" lon="29.89653468132019">
        <ele>27.3</ele>
      </trkpt>
      <trkpt lat="59.85886361449957" lon="29.896265706047416">
        <ele>27.29</ele>
      </trkpt>
      <trkpt lat="59.85876202583313" lon="29.895998239517212">
        <ele>27.34</ele>
      </trkpt>
      <trkpt lat="59.85854744911194" lon="29.8957622051239">
        <ele>27.35</ele>
      </trkpt>
      <trkpt lat="59.85826221294701" lon="29.895610827952623">
        <ele>27.3</ele>
      </trkpt>
      <trkpt lat="59.85797697678208" lon="29.895459534600377">
        <ele>27.21</ele>
      </trkpt>
      <trkpt lat="59.857691740617156" lon="29.89530824124813">
        <ele>27.22</ele>
      </trkpt>
      <trkpt lat="59.85740650445223" lon="29.895156947895885">
        <ele>27.33</ele>
      </trkpt>
      <trkpt lat="59.8571212682873" lon="29.89500565454364">
        <ele>27.41</ele>
      </trkpt>
      <trkpt lat="59.856836115941405" lon="29.89485427737236">
        <ele>27.43</ele>
      </trkpt>
      <trkpt lat="59.85655087977648" lon="29.894702984020114">
        <ele>27.44</ele>
      </trkpt>
      <trkpt lat="59.85626564361155" lon="29.894551690667868">
        <ele>27.46</ele>
      </trkpt>
      <trkpt lat="59.85598040744662" lon="29.89440039731562">
        <ele>27.52</ele>
      </trkpt>
      <trkpt lat="59.855695171281695" lon="29.894249103963375">
        <ele>27.69</ele>
      </trkpt>
      <trkpt lat="59.85540993511677" lon="29.89409781061113">
        <ele>27.87</ele>
      </trkpt>
      <trkpt lat="59.85512478277087" lon="29.893946517258883">
        <ele>27.95</ele>
      </trkpt>
      <trkpt lat="59.85484608449042" lon="29.893798828125">
        <ele>28.02</ele>
      </trkpt>
      <trkpt lat="59.85481381416321" lon="29.893198013305664">
        <ele>28.18</ele>
      </trkpt>
      <trkpt lat="59.854542408138514" lon="29.893050156533718">
        <ele>28.48</ele>
      </trkpt>
      <trkpt lat="59.85427100211382" lon="29.892902383580804">
        <ele>28.79</ele>
      </trkpt>
      <trkpt lat="59.853999679908156" lon="29.89275461062789">
        <ele>29.04</ele>
      </trkpt>
      <trkpt lat="59.85372827388346" lon="29.892606837674975">
        <ele>29.28</ele>
      </trkpt>
      <trkpt lat="59.8534569516778" lon="29.89245906472206">
        <ele>29.41</ele>
      </trkpt>
      <trkpt lat="59.853185545653105" lon="29.892311207950115">
        <ele>29.6</ele>
      </trkpt>
      <trkpt lat="59.85291413962841" lon="29.8921634349972">
        <ele>29.76</ele>
      </trkpt>
      <trkpt lat="59.85264667309821" lon="29.89201784133911">
        <ele>30.0</ele>
      </trkpt>
      <trkpt lat="59.85235280357301" lon="29.89185657352209">
        <ele>30.24</ele>
      </trkpt>
      <trkpt lat="59.85205901786685" lon="29.891695389524102">
        <ele>30.49</ele>
      </trkpt>
      <trkpt lat="59.85176682472229" lon="29.89153504371643">
        <ele>30.81</ele>
      </trkpt>
      <trkpt lat="59.85176690854132" lon="29.89153504371643">
        <ele>31.06</ele>
      </trkpt>
      <trkpt lat="59.85148251056671" lon="29.89137964323163">
        <ele>31.33</ele>
      </trkpt>
      <trkpt lat="59.85119819641113" lon="29.89122424274683">
        <ele>31.68</ele>
      </trkpt>
      <trkpt lat="59.850913882255554" lon="29.89106892608106">
        <ele>32.02</ele>
      </trkpt>
      <trkpt lat="59.850629484280944" lon="29.89091352559626">
        <ele>32.2</ele>
      </trkpt>
      <trkpt lat="59.850345170125365" lon="29.890758208930492">
        <ele>32.41</ele>
      </trkpt>
      <trkpt lat="59.85006085596979" lon="29.890602808445692">
        <ele>32.77</ele>
      </trkpt>
      <trkpt lat="59.84977654181421" lon="29.890447491779923">
        <ele>33.14</ele>
      </trkpt>
      <trkpt lat="59.8494921438396" lon="29.890292091295123">
        <ele>33.46</ele>
      </trkpt>
      <trkpt lat="59.84920782968402" lon="29.890136774629354">
        <ele>33.72</ele>
      </trkpt>
      <trkpt lat="59.84892351552844" lon="29.889981374144554">
        <ele>33.82</ele>
      </trkpt>
      <trkpt lat="59.848644733428955" lon="29.88982915878296">
        <ele>33.96</ele>
      </trkpt>
      <trkpt lat="59.84864481724799" lon="29.88982915878296">
        <ele>34.18</ele>
      </trkpt>
      <trkpt lat="59.84836687333882" lon="29.88965867087245">
        <ele>34.45</ele>
      </trkpt>
      <trkpt lat="59.84808892942965" lon="29.889488266780972">
        <ele>34.76</ele>
      </trkpt>
      <trkpt lat="59.847811069339514" lon="29.889317778870463">
        <ele>34.99</ele>
      </trkpt>
      <trkpt lat="59.847533125430346" lon="29.889147374778986">
        <ele>35.12</ele>
      </trkpt>
      <trkpt lat="59.84725518152118" lon="29.888976886868477">
        <ele>35.24</ele>
      </trkpt>
      <trkpt lat="59.84697732143104" lon="29.888806482777">
        <ele>35.37</ele>
      </trkpt>
      <trkpt lat="59.846702897921205" lon="29.888638257980347">
        <ele>35.44</ele>
      </trkpt>
      <trkpt lat="59.84645202755928" lon="29.88845905289054">
        <ele>35.4</ele>
      </trkpt>
      <trkpt lat="59.84620124101639" lon="29.888279931619763">
        <ele>35.3</ele>
      </trkpt>
      <trkpt lat="59.845951879397035" lon="29.888101816177368">
        <ele>35.01</ele>
      </trkpt>
      <trkpt lat="59.84570100903511" lon="29.887919006869197">
        <ele>34.83</ele>
      </trkpt>
      <trkpt lat="59.845450138673186" lon="29.887736281380057">
        <ele>34.58</ele>
      </trkpt>
      <trkpt lat="59.84520077705383" lon="29.88755464553833">
        <ele>34.3</ele>
      </trkpt>
      <trkpt lat="59.845200860872865" lon="29.88755464553833">
        <ele>34.1</ele>
      </trkpt>
      <trkpt lat="59.84512198716402" lon="29.887504689395428">
        <ele>33.88</ele>
      </trkpt>
      <trkpt lat="59.84487329609692" lon="29.88734694197774">
        <ele>33.47</ele>
      </trkpt>
      <trkpt lat="59.84462468884885" lon="29.887189278379083">
        <ele>33.33</ele>
      </trkpt>
      <trkpt lat="59.844376081600785" lon="29.887031614780426">
        <ele>33.25</ele>
      </trkpt>
      <trkpt lat="59.84412747435272" lon="29.88687395118177">
        <ele>33.2</ele>
      </trkpt>
      <trkpt lat="59.843881130218506" lon="29.886717796325684">
        <ele>33.16</ele>
      </trkpt>
      <trkpt lat="59.84359631314874" lon="29.886583434417844">
        <ele>33.19</ele>
      </trkpt>
      <trkpt lat="59.84331149607897" lon="29.886449072510004">
        <ele>33.31</ele>
      </trkpt>
      <trkpt lat="59.8430266790092" lon="29.886314710602164">
        <ele>33.43</ele>
      </trkpt>
      <trkpt lat="59.84274387359619" lon="29.886181354522705">
        <ele>33.48</ele>
      </trkpt>
      <trkpt lat="59.84274395741522" lon="29.886181354522705">
        <ele>33.52</ele>
      </trkpt>
      <trkpt lat="59.84278678894043" lon="29.885923862457275">
        <ele>33.57</ele>
      </trkpt>
      <trkpt lat="59.8430768866092" lon="29.88602863624692">
        <ele>33.51</ele>
      </trkpt>
      <trkpt lat="59.843367068096995" lon="29.886133410036564">
        <ele>33.33</ele>
      </trkpt>
      <trkpt lat="59.843657249584794" lon="29.886238183826208">
        <ele>33.2</ele>
      </trkpt>
      <trkpt lat="59.84394550323486" lon="29.8863422870636">
        <ele>33.17</ele>
      </trkpt>
      <trkpt lat="59.844209868460894" lon="29.88652065396309">
        <ele>33.19</ele>
      </trkpt>
      <trkpt lat="59.844474317505956" lon="29.88669910468161">
        <ele>33.28</ele>
      </trkpt>
      <trkpt lat="59.844738682731986" lon="29.8868774715811">
        <ele>33.35</ele>
      </trkpt>
      <trkpt lat="59.84500313177705" lon="29.887055922299623">
        <ele>33.43</ele>
      </trkpt>
      <trkpt lat="59.84526515007019" lon="29.887232780456543">
        <ele>33.59</ele>
      </trkpt>
      <trkpt lat="59.84525299631059" lon="29.887261111289263">
        <ele>33.71</ele>
      </trkpt>
      <trkpt lat="59.84523296356201" lon="29.88730788230896">
        <ele>34.01</ele>
      </trkpt>
      <trkpt lat="59.84520077705383" lon="29.88752245903015">
        <ele>34.18</ele>
      </trkpt>
      <trkpt lat="59.845200860872865" lon="29.88755464553833">
        <ele>34.36</ele>
      </trkpt>
      <trkpt lat="59.84520077705383" lon="29.88755464553833">
        <ele>34.55</ele>
      </trkpt>
      <trkpt lat="59.845451563596725" lon="29.887737287208438">
        <ele>34.81</ele>
      </trkpt>
      <trkpt lat="59.84570243395865" lon="29.887920012697577">
        <ele>35.03</ele>
      </trkpt>
      <trkpt lat="59.845951879397035" lon="29.888101816177368">
        <ele>35.19</ele>
      </trkpt>
      <trkpt lat="59.84620266593993" lon="29.888280937448144">
        <ele>35.45</ele>
      </trkpt>
      <trkpt lat="59.84645345248282" lon="29.88846005871892">
        <ele>35.52</ele>
      </trkpt>
      <trkpt lat="59.846702897921205" lon="29.888638257980347">
        <ele>35.54</ele>
      </trkpt>
      <trkpt lat="59.84698075801134" lon="29.888808662071824">
        <ele>35.46</ele>
      </trkpt>
      <trkpt lat="59.84725870192051" lon="29.8889790661633">
        <ele>35.3</ele>
      </trkpt>
      <trkpt lat="59.847536562010646" lon="29.88914947025478">
        <ele>35.17</ele>
      </trkpt>
      <trkpt lat="59.847814505919814" lon="29.889319958165288">
        <ele>35.02</ele>
      </trkpt>
      <trkpt lat="59.84809244982898" lon="29.889490362256765">
        <ele>34.78</ele>
      </trkpt>
      <trkpt lat="59.84837030991912" lon="29.889660766348243">
        <ele>34.47</ele>
      </trkpt>
      <trkpt lat="59.84864481724799" lon="29.88982915878296">
        <ele>34.19</ele>
      </trkpt>
      <trkpt lat="59.848644733428955" lon="29.88982915878296">
        <ele>33.97</ele>
      </trkpt>
      <trkpt lat="59.848929047584534" lon="29.889984475448728">
        <ele>33.83</ele>
      </trkpt>
      <trkpt lat="59.84921336174011" lon="29.890139792114496">
        <ele>33.72</ele>
      </trkpt>
      <trkpt lat="59.84949767589569" lon="29.890295108780265">
        <ele>33.46</ele>
      </trkpt>
      <trkpt lat="59.8497820738703" lon="29.890450509265065">
        <ele>33.13</ele>
      </trkpt>
      <trkpt lat="59.85006638802588" lon="29.890605825930834">
        <ele>32.76</ele>
      </trkpt>
      <trkpt lat="59.85035070218146" lon="29.890761142596602">
        <ele>32.39</ele>
      </trkpt>
      <trkpt lat="59.85063501633704" lon="29.890916543081403">
        <ele>32.19</ele>
      </trkpt>
      <trkpt lat="59.85091941431165" lon="29.89107185974717">
        <ele>32.0</ele>
      </trkpt>
      <trkpt lat="59.851203728467226" lon="29.89122726023197">
        <ele>31.65</ele>
      </trkpt>
      <trkpt lat="59.851488042622805" lon="29.89138257689774">
        <ele>31.29</ele>
      </trkpt>
      <trkpt lat="59.85176690854132" lon="29.89153504371643">
        <ele>31.0</ele>
      </trkpt>
      <trkpt lat="59.85176682472229" lon="29.89153504371643">
        <ele>30.73</ele>
      </trkpt>
      <trkpt lat="59.85206061042845" lon="29.89169622771442">
        <ele>30.39</ele>
      </trkpt>
      <trkpt lat="59.852354396134615" lon="29.891857411712408">
        <ele>30.12</ele>
      </trkpt>
      <trkpt lat="59.85264667309821" lon="29.89201784133911">
        <ele>29.85</ele>
      </trkpt>
      <trkpt lat="59.85291799530387" lon="29.892165614292026">
        <ele>29.59</ele>
      </trkpt>
      <trkpt lat="59.853189401328564" lon="29.89231338724494">
        <ele>29.39</ele>
      </trkpt>
      <trkpt lat="59.853460723534226" lon="29.892461160197854">
        <ele>29.18</ele>
      </trkpt>
      <trkpt lat="59.85373212955892" lon="29.89260893315077">
        <ele>29.02</ele>
      </trkpt>
      <trkpt lat="59.854003451764584" lon="29.892756706103683">
        <ele>28.75</ele>
      </trkpt>
      <trkpt lat="59.85427485778928" lon="29.892904479056597">
        <ele>28.49</ele>
      </trkpt>
      <trkpt lat="59.85454626381397" lon="29.89305225200951">
        <ele>28.16</ele>
      </trkpt>
      <trkpt lat="59.85481381416321" lon="29.893198013305664">
        <ele>27.86</ele>
      </trkpt>
      <trkpt lat="59.85482454299927" lon="29.893101453781128">
        <ele>27.7</ele>
      </trkpt>
      <trkpt lat="59.854867458343506" lon="29.8928439617157">
        <ele>27.57</ele>
      </trkpt>
      <trkpt lat="59.854878187179565" lon="29.89276885986328">
        <ele>27.43</ele>
      </trkpt>
      <trkpt lat="59.85502847470343" lon="29.892704486846924">
        <ele>27.48</ele>
      </trkpt>
      <trkpt lat="59.85525771975517" lon="29.89284412935376">
        <ele>27.6</ele>
      </trkpt>
      <trkpt lat="59.855486964806914" lon="29.89298385567963">
        <ele>27.75</ele>
      </trkpt>
      <trkpt lat="59.85571503639221" lon="29.893122911453247">
        <ele>27.87</ele>
      </trkpt>
      <trkpt lat="59.855715120211244" lon="29.893122911453247">
        <ele>27.97</ele>
      </trkpt>
      <trkpt lat="59.855982000008225" lon="29.893262553960085">
        <ele>27.97</ele>
      </trkpt>
      <trkpt lat="59.85624887980521" lon="29.893402280285954">
        <ele>28.03</ele>
      </trkpt>
      <trkpt lat="59.85651575960219" lon="29.893542006611824">
        <ele>28.2</ele>
      </trkpt>
      <trkpt lat="59.85678263939917" lon="29.893681732937694">
        <ele>28.32</ele>
      </trkpt>
      <trkpt lat="59.85704951919615" lon="29.893821459263563">
        <ele>28.36</ele>
      </trkpt>
      <trkpt lat="59.85731363296509" lon="29.893959760665894">
        <ele>28.37</ele>
      </trkpt>
      <trkpt lat="59.85731371678412" lon="29.893959760665894">
        <ele>28.36</ele>
      </trkpt>
      <trkpt lat="59.857611525803804" lon="29.894154723733664">
        <ele>28.34</ele>
      </trkpt>
      <trkpt lat="59.85790941864252" lon="29.894349686801434">
        <ele>28.28</ele>
      </trkpt>
      <trkpt lat="59.85820731148124" lon="29.894544733688235">
        <ele>28.19</ele>
      </trkpt>
      <trkpt lat="59.85850512050092" lon="29.894739696756005">
        <ele>28.02</ele>
      </trkpt>
      <trkpt lat="59.85880301333964" lon="29.894934743642807">
        <ele>27.91</ele>
      </trkpt>
      <trkpt lat="59.859100906178355" lon="29.895129706710577">
        <ele>27.79</ele>
      </trkpt>
      <trkpt lat="59.859395027160645" lon="29.89532232284546">
        <ele>27.67</ele>
      </trkpt>
      <trkpt lat="59.85965830273926" lon="29.895402872934937">
        <ele>27.52</ele>
      </trkpt>
      <trkpt lat="59.85992074012756" lon="29.895483255386353">
        <ele>27.3</ele>
      </trkpt>
      <trkpt lat="59.859920823946595" lon="29.895483255386353">
        <ele>27.22</ele>
      </trkpt>
      <trkpt lat="59.86021310091019" lon="29.895582078024745">
        <ele>27.01</ele>
      </trkpt>
      <trkpt lat="59.86050537787378" lon="29.89568098448217">
        <ele>26.97</ele>
      </trkpt>
      <trkpt lat="59.86079765483737" lon="29.89577980712056">
        <ele>27.08</ele>
      </trkpt>
      <trkpt lat="59.86109001561999" lon="29.895878713577986">
        <ele>27.17</ele>
      </trkpt>
      <trkpt lat="59.861379861831665" lon="29.895976781845093">
        <ele>27.22</ele>
      </trkpt>
      <trkpt lat="59.861643221229315" lon="29.896121872588992">
        <ele>27.34</ele>
      </trkpt>
      <trkpt lat="59.861905658617616" lon="29.8962664604187">
        <ele>27.37</ele>
      </trkpt>
      <trkpt lat="59.86214739270508" lon="29.89640610292554">
        <ele>27.31</ele>
      </trkpt>
      <trkpt lat="59.86238921061158" lon="29.89654582925141">
        <ele>27.31</ele>
      </trkpt>
      <trkpt lat="59.86263102851808" lon="29.896685555577278">
        <ele>27.39</ele>
      </trkpt>
      <trkpt lat="59.862871170043945" lon="29.8968243598938">
        <ele>27.29</ele>
      </trkpt>
      <trkpt lat="59.862914085388184" lon="29.896845817565918">
        <ele>27.21</ele>
      </trkpt>
      <trkpt lat="59.86317744478583" lon="29.897001637145877">
        <ele>27.1</ele>
      </trkpt>
      <trkpt lat="59.863439882174134" lon="29.897156953811646">
        <ele>26.96</ele>
      </trkpt>
      <trkpt lat="59.863654375076294" lon="29.8972749710083">
        <ele>26.74</ele>
      </trkpt>
      <trkpt lat="59.86382628791034" lon="29.89729642868042">
        <ele>26.52</ele>
      </trkpt>
      <trkpt lat="59.8639976978302" lon="29.89731788635254">
        <ele>26.27</ele>
      </trkpt>
      <trkpt lat="59.86419349908829" lon="29.897042037919164">
        <ele>26.08</ele>
      </trkpt>
      <trkpt lat="59.86423373222351" lon="29.896985292434692">
        <ele>25.67</ele>
      </trkpt>
      <trkpt lat="59.864126443862915" lon="29.896609783172607">
        <ele>25.46</ele>
      </trkpt>
      <trkpt lat="59.864110266789794" lon="29.89606076851487">
        <ele>25.19</ele>
      </trkpt>
      <trkpt lat="59.864094257354736" lon="29.89551544189453">
        <ele>25.04</ele>
      </trkpt>
      <trkpt lat="59.864110350608826" lon="29.89516558125615">
        <ele>24.96</ele>
      </trkpt>
      <trkpt lat="59.864126443862915" lon="29.89481806755066">
        <ele>24.93</ele>
      </trkpt>
      <trkpt lat="59.864185620099306" lon="29.894522102549672">
        <ele>24.99</ele>
      </trkpt>
      <trkpt lat="59.86424446105957" lon="29.894227981567383">
        <ele>25.09</ele>
      </trkpt>
      <trkpt lat="59.86439139582217" lon="29.893894465640187">
        <ele>25.12</ele>
      </trkpt>
      <trkpt lat="59.864538414403796" lon="29.893561033532023">
        <ele>25.17</ele>
      </trkpt>
      <trkpt lat="59.86468434333801" lon="29.893230199813843">
        <ele>25.19</ele>
      </trkpt>
      <trkpt lat="59.86498064361513" lon="29.893165659159422">
        <ele>25.23</ele>
      </trkpt>
      <trkpt lat="59.86527694389224" lon="29.893101202324033">
        <ele>25.38</ele>
      </trkpt>
      <trkpt lat="59.865573244169354" lon="29.893036745488644">
        <ele>25.57</ele>
      </trkpt>
      <trkpt lat="59.86586954444647" lon="29.892972204834223">
        <ele>25.7</ele>
      </trkpt>
      <trkpt lat="59.86616584472358" lon="29.892907747998834">
        <ele>25.8</ele>
      </trkpt>
      <trkpt lat="59.866462145000696" lon="29.892843291163445">
        <ele>25.84</ele>
      </trkpt>
      <trkpt lat="59.86675500869751" lon="29.89277958869934">
        <ele>25.91</ele>
      </trkpt>
      <trkpt lat="59.8669159412384" lon="29.892929792404175">
        <ele>26.03</ele>
      </trkpt>
      <trkpt lat="59.86714887432754" lon="29.893334805965424">
        <ele>26.19</ele>
      </trkpt>
      <trkpt lat="59.86738189123571" lon="29.893739903345704">
        <ele>26.31</ele>
      </trkpt>
      <trkpt lat="59.867613315582275" lon="29.894142150878906">
        <ele>26.39</ele>
      </trkpt>
      <trkpt lat="59.86780643463135" lon="29.894345998764038">
        <ele>26.63</ele>
      </trkpt>
      <trkpt lat="59.8680853843689" lon="29.894453287124634">
        <ele>26.84</ele>
      </trkpt>
      <trkpt lat="59.86833524890244" lon="29.894372653216124">
        <ele>26.92</ele>
      </trkpt>
      <trkpt lat="59.868585113435984" lon="29.894292019307613">
        <ele>27.06</ele>
      </trkpt>
      <trkpt lat="59.86883497796953" lon="29.894211469218135">
        <ele>27.35</ele>
      </trkpt>
      <trkpt lat="59.86908316612244" lon="29.894131422042847">
        <ele>27.62</ele>
      </trkpt>
      <trkpt lat="59.86927133984864" lon="29.893806036561728">
        <ele>27.71</ele>
      </trkpt>
      <trkpt lat="59.86945951357484" lon="29.89348073489964">
        <ele>27.71</ele>
      </trkpt>
      <trkpt lat="59.86964777112007" lon="29.893155433237553">
        <ele>27.63</ele>
      </trkpt>
      <trkpt lat="59.869834184646606" lon="29.89283323287964">
        <ele>27.63</ele>
      </trkpt>
      <trkpt lat="59.86983426846564" lon="29.89283323287964">
        <ele>27.6</ele>
      </trkpt>
      <trkpt lat="59.869834184646606" lon="29.89283323287964">
        <ele>27.53</ele>
      </trkpt>
      <trkpt lat="59.86983426846564" lon="29.89283323287964">
        <ele>27.14</ele>
      </trkpt>
      <trkpt lat="59.869818007573485" lon="29.89248337224126">
        <ele>26.94</ele>
      </trkpt>
      <trkpt lat="59.86980199813843" lon="29.892135858535767">
        <ele>26.71</ele>
      </trkpt>
      <trkpt lat="59.86979126930237" lon="29.891953468322754">
        <ele>26.45</ele>
      </trkpt>
      <trkpt lat="59.86976989544928" lon="29.891449213027954">
        <ele>26.16</ele>
      </trkpt>
      <trkpt lat="59.86982345581055" lon="29.891352653503418">
        <ele>25.9</ele>
      </trkpt>
      <trkpt lat="59.86982882022858" lon="29.890932803973556">
        <ele>25.5</ele>
      </trkpt>
      <trkpt lat="59.86983426846564" lon="29.89051580429077">
        <ele>25.14</ele>
      </trkpt>
      <trkpt lat="59.869839549064636" lon="29.889950612559915">
        <ele>24.71</ele>
      </trkpt>
      <trkpt lat="59.869844913482666" lon="29.889389276504517">
        <ele>24.42</ele>
      </trkpt>
      <trkpt lat="59.869844913482666" lon="29.88887974061072">
        <ele>24.15</ele>
      </trkpt>
      <trkpt lat="59.869844913482666" lon="29.88837020471692">
        <ele>23.88</ele>
      </trkpt>
      <trkpt lat="59.869844913482666" lon="29.887865781784058">
        <ele>23.62</ele>
      </trkpt>
      <trkpt lat="59.8698449973017" lon="29.88776922225952">
        <ele>23.45</ele>
      </trkpt>
      <trkpt lat="59.869844913482666" lon="29.88776922225952">
        <ele>23.32</ele>
      </trkpt>
      <trkpt lat="59.869844913482666" lon="29.8871642164886">
        <ele>23.25</ele>
      </trkpt>
      <trkpt lat="59.869844913482666" lon="29.886559210717678">
        <ele>23.21</ele>
      </trkpt>
      <trkpt lat="59.869844913482666" lon="29.885954204946756">
        <ele>23.22</ele>
      </trkpt>
      <trkpt lat="59.8698449973017" lon="29.885349282994866">
        <ele>23.34</ele>
      </trkpt>
      <trkpt lat="59.8698449973017" lon="29.884754419326782">
        <ele>23.43</ele>
      </trkpt>
      <trkpt lat="59.869844913482666" lon="29.88420892506838">
        <ele>23.55</ele>
      </trkpt>
      <trkpt lat="59.869844913482666" lon="29.883663514629006">
        <ele>23.68</ele>
      </trkpt>
      <trkpt lat="59.869844913482666" lon="29.883123636245728">
        <ele>23.85</ele>
      </trkpt>
      <trkpt lat="59.869850277900696" lon="29.882795233279467">
        <ele>24.07</ele>
      </trkpt>
      <trkpt lat="59.86985572613776" lon="29.882469177246094">
        <ele>24.34</ele>
      </trkpt>
      <trkpt lat="59.86985572613776" lon="29.881964921951294">
        <ele>24.57</ele>
      </trkpt>
      <trkpt lat="59.86985572613776" lon="29.881351282820106">
        <ele>24.72</ele>
      </trkpt>
      <trkpt lat="59.86985572613776" lon="29.88073772750795">
        <ele>25.03</ele>
      </trkpt>
      <trkpt lat="59.86985572613776" lon="29.880130290985107">
        <ele>25.36</ele>
      </trkpt>
      <trkpt lat="59.8699414730072" lon="29.87982988357544">
        <ele>25.6</ele>
      </trkpt>
      <trkpt lat="59.87016577273607" lon="29.8793950304389">
        <ele>25.91</ele>
      </trkpt>
      <trkpt lat="59.87039007246494" lon="29.878960261121392">
        <ele>26.07</ele>
      </trkpt>
      <trkpt lat="59.870614456012845" lon="29.878525407984853">
        <ele>26.29</ele>
      </trkpt>
      <trkpt lat="59.870838755741715" lon="29.878090638667345">
        <ele>26.52</ele>
      </trkpt>
      <trkpt lat="59.87106313928962" lon="29.877655785530806">
        <ele>26.82</ele>
      </trkpt>
      <trkpt lat="59.87128743901849" lon="29.877220932394266">
        <ele>27.14</ele>
      </trkpt>
      <trkpt lat="59.87150796689093" lon="29.87679362297058">
        <ele>27.44</ele>
      </trkpt>
      <trkpt lat="59.8715078830719" lon="29.87679362297058">
        <ele>27.58</ele>
      </trkpt>
      <trkpt lat="59.87169060856104" lon="29.87659472040832">
        <ele>27.72</ele>
      </trkpt>
      <trkpt lat="59.87187274731696" lon="29.876396656036377">
        <ele>27.78</ele>
      </trkpt>
      <trkpt lat="59.87202689051628" lon="29.87602014094591">
        <ele>27.71</ele>
      </trkpt>
      <trkpt lat="59.87218111753464" lon="29.875643625855446">
        <ele>27.59</ele>
      </trkpt>
      <trkpt lat="59.87233408726752" lon="29.875270128250122">
        <ele>27.54</ele>
      </trkpt>
      <trkpt lat="59.872409189119935" lon="29.87508773803711">
        <ele>27.65</ele>
      </trkpt>
      <trkpt lat="59.87260633148253" lon="29.874617932364345">
        <ele>27.76</ele>
      </trkpt>
      <trkpt lat="59.872803557664156" lon="29.87414821051061">
        <ele>27.81</ele>
      </trkpt>
      <trkpt lat="59.87299927510321" lon="29.873682260513306">
        <ele>27.8</ele>
      </trkpt>
      <trkpt lat="59.873196417465806" lon="29.873198121786118">
        <ele>27.83</ele>
      </trkpt>
      <trkpt lat="59.87339364364743" lon="29.87271406687796">
        <ele>27.85</ele>
      </trkpt>
      <trkpt lat="59.87358936108649" lon="29.872233867645264">
        <ele>27.94</ele>
      </trkpt>
      <trkpt lat="59.8737181071192" lon="29.871933460235596">
        <ele>27.95</ele>
      </trkpt>
      <trkpt lat="59.87371802330017" lon="29.871933460235596">
        <ele>27.86</ele>
      </trkpt>
      <trkpt lat="59.87388507463038" lon="29.871495589613914">
        <ele>27.71</ele>
      </trkpt>
      <trkpt lat="59.87405212596059" lon="29.871057718992233">
        <ele>27.39</ele>
      </trkpt>
      <trkpt lat="59.8742191772908" lon="29.870619848370552">
        <ele>26.99</ele>
      </trkpt>
      <trkpt lat="59.874386228621006" lon="29.87018197774887">
        <ele>26.7</ele>
      </trkpt>
      <trkpt lat="59.874553279951215" lon="29.86974410712719">
        <ele>26.38</ele>
      </trkpt>
      <trkpt lat="59.87471764907241" lon="29.869313361123204">
        <ele>26.19</ele>
      </trkpt>
    </trkseg>
  </trk>
</gpx>
