<?xml version="1.0" encoding="UTF-8"?>
<gpx creator="Garmin Connect" version="1.1"
  xsi:schemaLocation="http://www.topografix.com/GPX/1/1 http://www.topografix.com/GPX/11.xsd"
  xmlns:ns3="http://www.garmin.com/xmlschemas/TrackPointExtension/v1"
  xmlns="http://www.topografix.com/GPX/1/1"
  xmlns:xsi="http://www.w3.org/2001/XMLSchema-instance" xmlns:ns2="http://www.garmin.com/xmlschemas/GpxExtensions/v3">
  <metadata>
    <name>Луговой парк( Петергоф)Бег 5,02 км</name>
    <link href="connect.garmin.com">
      <text>Garmin Connect</text>
    </link>
    <time>2026-10-03T12:14:47.000Z</time>
  </metadata>
  <trk>
    <name>Луговой парк( Петергоф)Бег 5,02 км</name>
    <trkseg>
      <trkpt lat="59.86171782016754" lon="29.897083612158895">
        <ele>27.77</ele>
      </trkpt>
      <trkpt lat="59.86142151989043" lon="29.89691429771483">
        <ele>27.77</ele>
      </trkpt>
      <trkpt lat="59.861125219613314" lon="29.896745067089796">
        <ele>27.84</ele>
      </trkpt>
      <trkpt lat="59.8608289193362" lon="29.896575836464763">
        <ele>27.94</ele>
      </trkpt>
      <trkpt lat="59.860532619059086" lon="29.89640660583973">
        <ele>27.63</ele>
      </trkpt>
      <trkpt lat="59.86023631878197" lon="29.896237375214696">
        <ele>27.25</ele>
      </trkpt>
      <trkpt lat="59.85994010232389" lon="29.896068144589663">
        <ele>27.32</ele>
      </trkpt>
      <trkpt lat="59.859643802046776" lon="29.89589891396463">
        <ele>27.73</ele>
      </trkpt>
      <trkpt lat="59.85934750176966" lon="29.895729683339596">
        <ele>27.96</ele>
      </trkpt>
      <trkpt lat="59.85905120149255" lon="29.895560452714562">
        <ele>28.12</ele>
      </trkpt>
      <trkpt lat="59.858754901215434" lon="29.89539122208953">
        <ele>28.4</ele>
      </trkpt>
      <trkpt lat="59.85845868475735" lon="29.895221991464496">
        <ele>28.46</ele>
      </trkpt>
      <trkpt lat="59.85816238448024" lon="29.895052760839462">
        <ele>28.57</ele>
      </trkpt>
      <trkpt lat="59.857866084203124" lon="29.89488353021443">
        <ele>28.71</ele>
      </trkpt>
      <trkpt lat="59.85756978392601" lon="29.894714383408427">
        <ele>28.8</ele>
      </trkpt>
      <trkpt lat="59.85728144645691" lon="29.89454984664917">
        <ele>28.93</ele>
      </trkpt>
      <trkpt lat="59.856980787590146" lon="29.89438514225185">
        <ele>28.87</ele>
      </trkpt>
      <trkpt lat="59.856680212542415" lon="29.89422043785453">
        <ele>28.77</ele>
      </trkpt>
      <trkpt lat="59.85637963749468" lon="29.894055733457208">
        <ele>28.64</ele>
      </trkpt>
      <trkpt lat="59.85607906244695" lon="29.89389111287892">
        <ele>28.4</ele>
      </trkpt>
      <trkpt lat="59.85577840358019" lon="29.893726408481598">
        <ele>28.31</ele>
      </trkpt>
      <trkpt lat="59.85547782853246" lon="29.893561704084277">
        <ele>28.28</ele>
      </trkpt>
      <trkpt lat="59.855177253484726" lon="29.893397083505988">
        <ele>28.02</ele>
      </trkpt>
      <trkpt lat="59.85488095320761" lon="29.893234809860587">
        <ele>27.83</ele>
      </trkpt>
      <trkpt lat="59.85481381416321" lon="29.893198013305664">
        <ele>27.62</ele>
      </trkpt>
      <trkpt lat="59.85484600067139" lon="29.893798828125">
        <ele>27.56</ele>
      </trkpt>
      <trkpt lat="59.85513115301728" lon="29.893950037658215">
        <ele>27.61</ele>
      </trkpt>
      <trkpt lat="59.85541638918221" lon="29.89410133101046">
        <ele>27.63</ele>
      </trkpt>
      <trkpt lat="59.85570162534714" lon="29.894252624362707">
        <ele>27.54</ele>
      </trkpt>
      <trkpt lat="59.855986861512065" lon="29.894403917714953">
        <ele>27.45</ele>
      </trkpt>
      <trkpt lat="59.85627209767699" lon="29.8945552110672">
        <ele>27.45</ele>
      </trkpt>
      <trkpt lat="59.85655733384192" lon="29.894706504419446">
        <ele>27.49</ele>
      </trkpt>
      <trkpt lat="59.85684257000685" lon="29.894857797771692">
        <ele>27.53</ele>
      </trkpt>
      <trkpt lat="59.857127806171775" lon="29.89500909112394">
        <ele>27.55</ele>
      </trkpt>
      <trkpt lat="59.8574130423367" lon="29.895160384476185">
        <ele>27.49</ele>
      </trkpt>
      <trkpt lat="59.85769827850163" lon="29.89531167782843">
        <ele>27.38</ele>
      </trkpt>
      <trkpt lat="59.85798351466656" lon="29.895462887361646">
        <ele>27.37</ele>
      </trkpt>
      <trkpt lat="59.85826866701245" lon="29.895614180713892">
        <ele>27.46</ele>
      </trkpt>
      <trkpt lat="59.85854744911194" lon="29.8957622051239">
        <ele>27.5</ele>
      </trkpt>
      <trkpt lat="59.85876202583313" lon="29.895998239517212">
        <ele>27.48</ele>
      </trkpt>
      <trkpt lat="59.85886420123279" lon="29.896267130970955">
        <ele>27.41</ele>
      </trkpt>
      <trkpt lat="59.85896587371826" lon="29.89653468132019">
        <ele>27.39</ele>
      </trkpt>
      <trkpt lat="59.85921263694763" lon="29.896845817565918">
        <ele>27.45</ele>
      </trkpt>
      <trkpt lat="59.85947054810822" lon="29.89695536904037">
        <ele>27.45</ele>
      </trkpt>
      <trkpt lat="59.85972845926881" lon="29.897065004333854">
        <ele>27.37</ele>
      </trkpt>
      <trkpt lat="59.8599863704294" lon="29.897174639627337">
        <ele>27.3</ele>
      </trkpt>
      <trkpt lat="59.86024436540902" lon="29.89728427492082">
        <ele>27.26</ele>
      </trkpt>
      <trkpt lat="59.86050009727478" lon="29.897392988204956">
        <ele>27.26</ele>
      </trkpt>
      <trkpt lat="59.86071509309113" lon="29.897683253511786">
        <ele>27.21</ele>
      </trkpt>
      <trkpt lat="59.86092925071716" lon="29.897972345352173">
        <ele>27.23</ele>
      </trkpt>
      <trkpt lat="59.86119973473251" lon="29.898115592077374">
        <ele>27.18</ele>
      </trkpt>
      <trkpt lat="59.861470218747854" lon="29.898258922621608">
        <ele>27.04</ele>
      </trkpt>
      <trkpt lat="59.8617407027632" lon="29.89840216934681">
        <ele>27.05</ele>
      </trkpt>
      <trkpt lat="59.862011186778545" lon="29.898545499891043">
        <ele>26.96</ele>
      </trkpt>
      <trkpt lat="59.86228167079389" lon="29.898688830435276">
        <ele>26.78</ele>
      </trkpt>
      <trkpt lat="59.86254930496216" lon="29.89883065223694">
        <ele>26.66</ele>
      </trkpt>
      <trkpt lat="59.86272666603327" lon="29.899013377726078">
        <ele>26.59</ele>
      </trkpt>
      <trkpt lat="59.862903356552124" lon="29.899195432662964">
        <ele>26.59</ele>
      </trkpt>
      <trkpt lat="59.86313436180353" lon="29.899243712425232">
        <ele>26.5</ele>
      </trkpt>
      <trkpt lat="59.863364696502686" lon="29.8992919921875">
        <ele>26.48</ele>
      </trkpt>
      <trkpt lat="59.863622607663274" lon="29.899369860067964">
        <ele>26.57</ele>
      </trkpt>
      <trkpt lat="59.86388051882386" lon="29.89944781176746">
        <ele>26.67</ele>
      </trkpt>
      <trkpt lat="59.86413851380348" lon="29.899525679647923">
        <ele>26.73</ele>
      </trkpt>
      <trkpt lat="59.864394748583436" lon="29.899603128433228">
        <ele>26.69</ele>
      </trkpt>
      <trkpt lat="59.86443649046123" lon="29.899465749040246">
        <ele>26.62</ele>
      </trkpt>
      <trkpt lat="59.86456607468426" lon="29.899039613083005">
        <ele>26.51</ele>
      </trkpt>
      <trkpt lat="59.86469507217407" lon="29.898616075515747">
        <ele>26.42</ele>
      </trkpt>
      <trkpt lat="59.86477017402649" lon="29.898144006729126">
        <ele>26.3</ele>
      </trkpt>
      <trkpt lat="59.86477025784552" lon="29.898144006729126">
        <ele>26.19</ele>
      </trkpt>
      <trkpt lat="59.86480236053467" lon="29.897929430007935">
        <ele>26.07</ele>
      </trkpt>
      <trkpt lat="59.86483454704285" lon="29.89755392074585">
        <ele>25.84</ele>
      </trkpt>
      <trkpt lat="59.86479163169861" lon="29.897392988204956">
        <ele>25.66</ele>
      </trkpt>
      <trkpt lat="59.86451209522784" lon="29.897188721224666">
        <ele>25.54</ele>
      </trkpt>
      <trkpt lat="59.86423373222351" lon="29.896985292434692">
        <ele>25.44</ele>
      </trkpt>
      <trkpt lat="59.864126443862915" lon="29.896609783172607">
        <ele>25.29</ele>
      </trkpt>
      <trkpt lat="59.864110266789794" lon="29.89606076851487">
        <ele>25.08</ele>
      </trkpt>
      <trkpt lat="59.864094257354736" lon="29.89551544189453">
        <ele>24.98</ele>
      </trkpt>
      <trkpt lat="59.864110350608826" lon="29.89516558125615">
        <ele>24.95</ele>
      </trkpt>
      <trkpt lat="59.864126443862915" lon="29.89481806755066">
        <ele>24.96</ele>
      </trkpt>
      <trkpt lat="59.864185620099306" lon="29.894522102549672">
        <ele>25.05</ele>
      </trkpt>
      <trkpt lat="59.86424446105957" lon="29.894227981567383">
        <ele>25.17</ele>
      </trkpt>
      <trkpt lat="59.86439139582217" lon="29.893894465640187">
        <ele>25.22</ele>
      </trkpt>
      <trkpt lat="59.864538414403796" lon="29.893561033532023">
        <ele>25.28</ele>
      </trkpt>
      <trkpt lat="59.86468434333801" lon="29.893230199813843">
        <ele>25.3</ele>
      </trkpt>
      <trkpt lat="59.86498064361513" lon="29.893165659159422">
        <ele>25.33</ele>
      </trkpt>
      <trkpt lat="59.86527694389224" lon="29.893101202324033">
        <ele>25.46</ele>
      </trkpt>
      <trkpt lat="59.865573244169354" lon="29.893036745488644">
        <ele>25.62</ele>
      </trkpt>
      <trkpt lat="59.86586954444647" lon="29.892972204834223">
        <ele>25.72</ele>
      </trkpt>
      <trkpt lat="59.86616584472358" lon="29.892907747998834">
        <ele>25.78</ele>
      </trkpt>
      <trkpt lat="59.866462145000696" lon="29.892843291163445">
        <ele>25.76</ele>
      </trkpt>
      <trkpt lat="59.86675500869751" lon="29.89277958869934">
        <ele>25.78</ele>
      </trkpt>
      <trkpt lat="59.8669159412384" lon="29.892929792404175">
        <ele>25.83</ele>
      </trkpt>
      <trkpt lat="59.86714887432754" lon="29.893334805965424">
        <ele>25.92</ele>
      </trkpt>
      <trkpt lat="59.86738189123571" lon="29.893739903345704">
        <ele>25.97</ele>
      </trkpt>
      <trkpt lat="59.867613315582275" lon="29.894142150878906">
        <ele>25.98</ele>
      </trkpt>
      <trkpt lat="59.86769772134721" lon="29.89423125050962">
        <ele>26.09</ele>
      </trkpt>
      <trkpt lat="59.86780643463135" lon="29.894345998764038">
        <ele>26.33</ele>
      </trkpt>
      <trkpt lat="59.8680853843689" lon="29.894453287124634">
        <ele>26.49</ele>
      </trkpt>
      <trkpt lat="59.86833524890244" lon="29.894372653216124">
        <ele>26.52</ele>
      </trkpt>
      <trkpt lat="59.868585113435984" lon="29.894292019307613">
        <ele>26.61</ele>
      </trkpt>
      <trkpt lat="59.86883497796953" lon="29.894211469218135">
        <ele>26.86</ele>
      </trkpt>
      <trkpt lat="59.86908316612244" lon="29.894131422042847">
        <ele>27.09</ele>
      </trkpt>
      <trkpt lat="59.86927133984864" lon="29.893806036561728">
        <ele>27.16</ele>
      </trkpt>
      <trkpt lat="59.86945951357484" lon="29.89348073489964">
        <ele>27.15</ele>
      </trkpt>
      <trkpt lat="59.86964777112007" lon="29.893155433237553">
        <ele>27.08</ele>
      </trkpt>
      <trkpt lat="59.869834184646606" lon="29.89283323287964">
        <ele>27.11</ele>
      </trkpt>
      <trkpt lat="59.86983426846564" lon="29.89283323287964">
        <ele>27.13</ele>
      </trkpt>
      <trkpt lat="59.869818007573485" lon="29.89248337224126">
        <ele>27.13</ele>
      </trkpt>
      <trkpt lat="59.86980199813843" lon="29.892135858535767">
        <ele>27.14</ele>
      </trkpt>
      <trkpt lat="59.86979126930237" lon="29.891953468322754">
        <ele>27.15</ele>
      </trkpt>
      <trkpt lat="59.86976981163025" lon="29.891449213027954">
        <ele>27.16</ele>
      </trkpt>
      <trkpt lat="59.86959245055914" lon="29.891422307118773">
        <ele>27.08</ele>
      </trkpt>
      <trkpt lat="59.86941576004028" lon="29.891395568847656">
        <ele>27.1</ele>
      </trkpt>
      <trkpt lat="59.86911476589739" lon="29.891470754519105">
        <ele>27.2</ele>
      </trkpt>
      <trkpt lat="59.86881494522095" lon="29.89154577255249">
        <ele>27.34</ele>
      </trkpt>
      <trkpt lat="59.868632052093744" lon="29.891871996223927">
        <ele>27.49</ele>
      </trkpt>
      <trkpt lat="59.86844924278557" lon="29.892198219895363">
        <ele>27.64</ele>
      </trkpt>
      <trkpt lat="59.86826777458191" lon="29.89252209663391">
        <ele>27.68</ele>
      </trkpt>
      <trkpt lat="59.86817934550345" lon="29.892561994493008">
        <ele>27.69</ele>
      </trkpt>
      <trkpt lat="59.86793518066406" lon="29.892672300338745">
        <ele>27.54</ele>
      </trkpt>
      <trkpt lat="59.86775279045105" lon="29.89256501197815">
        <ele>27.37</ele>
      </trkpt>
      <trkpt lat="59.867577105760574" lon="29.892281787469983">
        <ele>27.18</ele>
      </trkpt>
      <trkpt lat="59.8674014210701" lon="29.891998562961817">
        <ele>27.05</ele>
      </trkpt>
      <trkpt lat="59.86722707748413" lon="29.891717433929443">
        <ele>27.02</ele>
      </trkpt>
      <trkpt lat="59.86706052906811" lon="29.891647528856993">
        <ele>26.97</ele>
      </trkpt>
      <trkpt lat="59.866894567385316" lon="29.89157795906067">
        <ele>26.85</ele>
      </trkpt>
      <trkpt lat="59.866631124168634" lon="29.89176068454981">
        <ele>26.6</ele>
      </trkpt>
      <trkpt lat="59.866368770599365" lon="29.891942739486694">
        <ele>26.37</ele>
      </trkpt>
      <trkpt lat="59.86608009785414" lon="29.891992527991533">
        <ele>26.25</ele>
      </trkpt>
      <trkpt lat="59.86579251475632" lon="29.892042316496372">
        <ele>26.13</ele>
      </trkpt>
      <trkpt lat="59.86549973487854" lon="29.89209294319153">
        <ele>25.83</ele>
      </trkpt>
      <trkpt lat="59.865281134843826" lon="29.89231145940721">
        <ele>25.58</ele>
      </trkpt>
      <trkpt lat="59.86506253480911" lon="29.892530059441924">
        <ele>25.37</ele>
      </trkpt>
      <trkpt lat="59.864845275878906" lon="29.892747402191162">
        <ele>25.24</ele>
      </trkpt>
      <trkpt lat="59.86478090286255" lon="29.892994165420532">
        <ele>25.14</ele>
      </trkpt>
      <trkpt lat="59.864684427157044" lon="29.893230199813843">
        <ele>25.07</ele>
      </trkpt>
      <trkpt lat="59.864537324756384" lon="29.893563631922007">
        <ele>25.03</ele>
      </trkpt>
      <trkpt lat="59.864390306174755" lon="29.89389706403017">
        <ele>24.97</ele>
      </trkpt>
      <trkpt lat="59.86424446105957" lon="29.894227981567383">
        <ele>24.93</ele>
      </trkpt>
      <trkpt lat="59.86418520100415" lon="29.894523862749338">
        <ele>24.84</ele>
      </trkpt>
      <trkpt lat="59.864126443862915" lon="29.89481806755066">
        <ele>24.79</ele>
      </trkpt>
      <trkpt lat="59.864110266789794" lon="29.895167844370008">
        <ele>24.84</ele>
      </trkpt>
      <trkpt lat="59.864094257354736" lon="29.89551544189453">
        <ele>24.94</ele>
      </trkpt>
      <trkpt lat="59.864110350608826" lon="29.896064372733235">
        <ele>25.12</ele>
      </trkpt>
      <trkpt lat="59.864126443862915" lon="29.896609783172607">
        <ele>25.42</ele>
      </trkpt>
      <trkpt lat="59.86423373222351" lon="29.896985292434692">
        <ele>25.67</ele>
      </trkpt>
      <trkpt lat="59.864030135795474" lon="29.897272204980254">
        <ele>25.92</ele>
      </trkpt>
      <trkpt lat="59.8639976978302" lon="29.89731788635254">
        <ele>26.36</ele>
      </trkpt>
      <trkpt lat="59.86382570117712" lon="29.897296344861388">
        <ele>26.64</ele>
      </trkpt>
      <trkpt lat="59.863654375076294" lon="29.8972749710083">
        <ele>26.89</ele>
      </trkpt>
      <trkpt lat="59.863439882174134" lon="29.897156953811646">
        <ele>27.13</ele>
      </trkpt>
      <trkpt lat="59.86317643895745" lon="29.897001050412655">
        <ele>27.27</ele>
      </trkpt>
      <trkpt lat="59.862914085388184" lon="29.896845817565918">
        <ele>27.37</ele>
      </trkpt>
      <trkpt lat="59.862871170043945" lon="29.8968243598938">
        <ele>27.44</ele>
      </trkpt>
      <trkpt lat="59.862629352137446" lon="29.896684549748898">
        <ele>27.5</ele>
      </trkpt>
      <trkpt lat="59.86238753423095" lon="29.89654490724206">
        <ele>27.37</ele>
      </trkpt>
      <trkpt lat="59.86214571632445" lon="29.89640518091619">
        <ele>27.32</ele>
      </trkpt>
      <trkpt lat="59.861905658617616" lon="29.8962664604187">
        <ele>27.31</ele>
      </trkpt>
      <trkpt lat="59.861642215400934" lon="29.89612128585577">
        <ele>27.19</ele>
      </trkpt>
      <trkpt lat="59.861379861831665" lon="29.895976781845093">
        <ele>26.97</ele>
      </trkpt>
      <trkpt lat="59.86108750104904" lon="29.89587787538767">
        <ele>26.82</ele>
      </trkpt>
      <trkpt lat="59.86079522408545" lon="29.895778968930244">
        <ele>26.65</ele>
      </trkpt>
      <trkpt lat="59.86050294712186" lon="29.895680146291852">
        <ele>26.48</ele>
      </trkpt>
      <trkpt lat="59.860210586339235" lon="29.895581239834428">
        <ele>26.51</ele>
      </trkpt>
      <trkpt lat="59.859920823946595" lon="29.895483255386353">
        <ele>26.71</ele>
      </trkpt>
      <trkpt lat="59.85992074012756" lon="29.895483255386353">
        <ele>26.78</ele>
      </trkpt>
      <trkpt lat="59.85985309816897" lon="29.89546255208552">
        <ele>26.93</ele>
      </trkpt>
      <trkpt lat="59.85962360166013" lon="29.89539231173694">
        <ele>27.31</ele>
      </trkpt>
      <trkpt lat="59.859395027160645" lon="29.89532232284546">
        <ele>27.49</ele>
      </trkpt>
      <trkpt lat="59.85909713432193" lon="29.895127275958657">
        <ele>27.66</ele>
      </trkpt>
      <trkpt lat="59.85879924148321" lon="29.894932229071856">
        <ele>27.85</ele>
      </trkpt>
      <trkpt lat="59.858501348644495" lon="29.894737266004086">
        <ele>28.04</ele>
      </trkpt>
      <trkpt lat="59.85820353962481" lon="29.894542219117284">
        <ele>28.29</ele>
      </trkpt>
      <trkpt lat="59.857905646786094" lon="29.894347256049514">
        <ele>28.44</ele>
      </trkpt>
      <trkpt lat="59.85760775394738" lon="29.894152209162712">
        <ele>28.55</ele>
      </trkpt>
      <trkpt lat="59.85731371678412" lon="29.893959760665894">
        <ele>28.62</ele>
      </trkpt>
      <trkpt lat="59.85731363296509" lon="29.893959760665894">
        <ele>28.67</ele>
      </trkpt>
      <trkpt lat="59.857046669349074" lon="29.893820034340024">
        <ele>28.7</ele>
      </trkpt>
      <trkpt lat="59.85677978955209" lon="29.893680308014154">
        <ele>28.67</ele>
      </trkpt>
      <trkpt lat="59.85651290975511" lon="29.893540581688285">
        <ele>28.55</ele>
      </trkpt>
      <trkpt lat="59.85624602995813" lon="29.893400855362415">
        <ele>28.43</ele>
      </trkpt>
      <trkpt lat="59.85597915016115" lon="29.893261129036546">
        <ele>28.55</ele>
      </trkpt>
      <trkpt lat="59.855715120211244" lon="29.893122911453247">
        <ele>28.7</ele>
      </trkpt>
      <trkpt lat="59.85571503639221" lon="29.893122911453247">
        <ele>28.56</ele>
      </trkpt>
      <trkpt lat="59.85544069670141" lon="29.892955692484975">
        <ele>28.26</ele>
      </trkpt>
      <trkpt lat="59.85516736283898" lon="29.892789144068956">
        <ele>27.88</ele>
      </trkpt>
    </trkseg>
  </trk>
</gpx>
