<?xml version="1.0" encoding="UTF-8"?>
<gpx creator="Garmin Connect" version="1.1"
  xsi:schemaLocation="http://www.topografix.com/GPX/1/1 http://www.topografix.com/GPX/11.xsd"
  xmlns:ns3="http://www.garmin.com/xmlschemas/TrackPointExtension/v1"
  xmlns="http://www.topografix.com/GPX/1/1"
  xmlns:xsi="http://www.w3.org/2001/XMLSchema-instance" xmlns:ns2="http://www.garmin.com/xmlschemas/GpxExtensions/v3">
  <metadata>
    <name>Александрийский парк (Петергоф)Бег 10 км</name>
    <link href="connect.garmin.com">
      <text>Garmin Connect</text>
    </link>
    <time>2026-09-30T22:16:34.000Z</time>
  </metadata>
  <trk>
    <name>Александрийский парк (Петергоф)Бег 10 км</name>
    <trkseg>
      <trkpt lat="59.876238126307726" lon="29.927775794640183">
        <ele>25.56</ele>
      </trkpt>
      <trkpt lat="59.87600217573345" lon="29.927615113556385">
        <ele>25.72</ele>
      </trkpt>
      <trkpt lat="59.87576723098755" lon="29.927455186843872">
        <ele>25.67</ele>
      </trkpt>
      <trkpt lat="59.87553069368005" lon="29.927160562947392">
        <ele>25.7</ele>
      </trkpt>
      <trkpt lat="59.87529415637255" lon="29.926865939050913">
        <ele>25.86</ele>
      </trkpt>
      <trkpt lat="59.875057619065046" lon="29.926571315154433">
        <ele>25.74</ele>
      </trkpt>
      <trkpt lat="59.874821081757545" lon="29.926276691257954">
        <ele>25.5</ele>
      </trkpt>
      <trkpt lat="59.874587059020996" lon="29.92598533630371">
        <ele>25.24</ele>
      </trkpt>
      <trkpt lat="59.87433711066842" lon="29.92578643374145">
        <ele>25.12</ele>
      </trkpt>
      <trkpt lat="59.874087162315845" lon="29.92558753117919">
        <ele>25.13</ele>
      </trkpt>
      <trkpt lat="59.8738372977823" lon="29.92538871243596">
        <ele>25.22</ele>
      </trkpt>
      <trkpt lat="59.873589277267456" lon="29.925191402435303">
        <ele>25.42</ele>
      </trkpt>
      <trkpt lat="59.87336698919535" lon="29.924875907599926">
        <ele>25.84</ele>
      </trkpt>
      <trkpt lat="59.87314478494227" lon="29.92456049658358">
        <ele>26.57</ele>
      </trkpt>
      <trkpt lat="59.87292408943176" lon="29.92424726486206">
        <ele>27.43</ele>
      </trkpt>
      <trkpt lat="59.87265586853027" lon="29.92403268814087">
        <ele>28.23</ele>
      </trkpt>
      <trkpt lat="59.87247356213629" lon="29.92402195930481">
        <ele>28.86</ele>
      </trkpt>
      <trkpt lat="59.87230181694031" lon="29.924182891845703">
        <ele>29.3</ele>
      </trkpt>
      <trkpt lat="59.87221598625183" lon="29.92424726486206">
        <ele>29.59</ele>
      </trkpt>
      <trkpt lat="59.87202253192663" lon="29.92425262928009">
        <ele>29.78</ele>
      </trkpt>
      <trkpt lat="59.87182974815369" lon="29.92425799369812">
        <ele>29.86</ele>
      </trkpt>
      <trkpt lat="59.87153738737106" lon="29.924164451658726">
        <ele>29.83</ele>
      </trkpt>
      <trkpt lat="59.87124511040747" lon="29.92407090961933">
        <ele>29.61</ele>
      </trkpt>
      <trkpt lat="59.87095274962485" lon="29.92397745139897">
        <ele>29.37</ele>
      </trkpt>
      <trkpt lat="59.87066047266126" lon="29.923883909359574">
        <ele>29.16</ele>
      </trkpt>
      <trkpt lat="59.87036811187863" lon="29.92379045113921">
        <ele>29.07</ele>
      </trkpt>
      <trkpt lat="59.87007583491504" lon="29.923696909099817">
        <ele>29.02</ele>
      </trkpt>
      <trkpt lat="59.86978347413242" lon="29.923603450879455">
        <ele>28.95</ele>
      </trkpt>
      <trkpt lat="59.86949119716883" lon="29.92350990884006">
        <ele>28.9</ele>
      </trkpt>
      <trkpt lat="59.869198836386204" lon="29.923416450619698">
        <ele>28.82</ele>
      </trkpt>
      <trkpt lat="59.86891150474548" lon="29.923324584960938">
        <ele>28.86</ele>
      </trkpt>
      <trkpt lat="59.868712686002254" lon="29.923286950215697">
        <ele>28.95</ele>
      </trkpt>
      <trkpt lat="59.86851453781128" lon="29.92324948310852">
        <ele>29.03</ele>
      </trkpt>
      <trkpt lat="59.868407249450684" lon="29.92327094078064">
        <ele>29.22</ele>
      </trkpt>
      <trkpt lat="59.868385875597596" lon="29.92327094078064">
        <ele>29.46</ele>
      </trkpt>
      <trkpt lat="59.86815738491714" lon="29.923434806987643">
        <ele>29.77</ele>
      </trkpt>
      <trkpt lat="59.867928978055716" lon="29.92359875701368">
        <ele>30.18</ele>
      </trkpt>
      <trkpt lat="59.86770057119429" lon="29.923762623220682">
        <ele>30.56</ele>
      </trkpt>
      <trkpt lat="59.86747392453253" lon="29.923925399780273">
        <ele>30.99</ele>
      </trkpt>
      <trkpt lat="59.86725884489715" lon="29.924199571833014">
        <ele>31.35</ele>
      </trkpt>
      <trkpt lat="59.86704477109015" lon="29.92447257041931">
        <ele>31.61</ele>
      </trkpt>
      <trkpt lat="59.86679800786078" lon="29.924848079681396">
        <ele>31.86</ele>
      </trkpt>
      <trkpt lat="59.866658532992005" lon="29.925137758255005">
        <ele>31.99</ele>
      </trkpt>
      <trkpt lat="59.86660681664944" lon="29.92523373104632">
        <ele>32.05</ele>
      </trkpt>
      <trkpt lat="59.86650824546814" lon="29.925416707992554">
        <ele>31.93</ele>
      </trkpt>
      <trkpt lat="59.86650832928717" lon="29.925416707992554">
        <ele>31.76</ele>
      </trkpt>
      <trkpt lat="59.86634152941406" lon="29.925798503682017">
        <ele>31.48</ele>
      </trkpt>
      <trkpt lat="59.866175735369325" lon="29.926178455352783">
        <ele>31.03</ele>
      </trkpt>
      <trkpt lat="59.86612209118903" lon="29.926371574401855">
        <ele>30.61</ele>
      </trkpt>
      <trkpt lat="59.86607540398836" lon="29.92679494433105">
        <ele>30.07</ele>
      </trkpt>
      <trkpt lat="59.866028716787696" lon="29.927218314260244">
        <ele>29.56</ele>
      </trkpt>
      <trkpt lat="59.86598253250122" lon="29.927637577056885">
        <ele>29.2</ele>
      </trkpt>
      <trkpt lat="59.86598261632025" lon="29.927637577056885">
        <ele>28.8</ele>
      </trkpt>
      <trkpt lat="59.86599334515631" lon="29.92822313681245">
        <ele>28.5</ele>
      </trkpt>
      <trkpt lat="59.86600407399237" lon="29.928808780387044">
        <ele>28.21</ele>
      </trkpt>
      <trkpt lat="59.86601480282843" lon="29.929394340142608">
        <ele>27.82</ele>
      </trkpt>
      <trkpt lat="59.86602561548352" lon="29.929979983717203">
        <ele>27.44</ele>
      </trkpt>
      <trkpt lat="59.86603617668152" lon="29.930555820465088">
        <ele>27.01</ele>
      </trkpt>
      <trkpt lat="59.86598772928119" lon="29.93102403357625">
        <ele>26.55</ele>
      </trkpt>
      <trkpt lat="59.86593961715698" lon="29.93148922920227">
        <ele>26.17</ele>
      </trkpt>
      <trkpt lat="59.86587499268353" lon="29.931806651875377">
        <ele>25.9</ele>
      </trkpt>
      <trkpt lat="59.86581087112427" lon="29.932122230529785">
        <ele>25.72</ele>
      </trkpt>
      <trkpt lat="59.86599803902209" lon="29.932617014274">
        <ele>25.48</ele>
      </trkpt>
      <trkpt lat="59.86618520691991" lon="29.93311188183725">
        <ele>25.47</ele>
      </trkpt>
      <trkpt lat="59.86637237481773" lon="29.933606749400496">
        <ele>25.36</ele>
      </trkpt>
      <trkpt lat="59.86655962653458" lon="29.934101616963744">
        <ele>25.28</ele>
      </trkpt>
      <trkpt lat="59.86674427986145" lon="29.934589862823486">
        <ele>25.22</ele>
      </trkpt>
      <trkpt lat="59.86685550771654" lon="29.935032846406102">
        <ele>25.32</ele>
      </trkpt>
      <trkpt lat="59.86696673557162" lon="29.93547591380775">
        <ele>25.37</ele>
      </trkpt>
      <trkpt lat="59.86707796342671" lon="29.935918981209397">
        <ele>25.45</ele>
      </trkpt>
      <trkpt lat="59.86718793399632" lon="29.936356768012047">
        <ele>25.54</ele>
      </trkpt>
      <trkpt lat="59.86727208830416" lon="29.936691960319877">
        <ele>25.77</ele>
      </trkpt>
      <trkpt lat="59.867355823516846" lon="29.93702530860901">
        <ele>25.9</ele>
      </trkpt>
      <trkpt lat="59.86753502860665" lon="29.937383802607656">
        <ele>26.05</ele>
      </trkpt>
      <trkpt lat="59.86771431751549" lon="29.937742296606302">
        <ele>26.2</ele>
      </trkpt>
      <trkpt lat="59.867892265319824" lon="29.938098192214966">
        <ele>26.42</ele>
      </trkpt>
      <trkpt lat="59.86791372299194" lon="29.9382483959198">
        <ele>26.6</ele>
      </trkpt>
      <trkpt lat="59.86795663833618" lon="29.93825912475586">
        <ele>26.75</ele>
      </trkpt>
      <trkpt lat="59.86816082149744" lon="29.938377309590578">
        <ele>26.9</ele>
      </trkpt>
      <trkpt lat="59.868364334106445" lon="29.93849515914917">
        <ele>27.06</ele>
      </trkpt>
      <trkpt lat="59.868568601086736" lon="29.938738821074367">
        <ele>27.26</ele>
      </trkpt>
      <trkpt lat="59.868772868067026" lon="29.938982482999563">
        <ele>27.36</ele>
      </trkpt>
      <trkpt lat="59.86897587776184" lon="29.93922472000122">
        <ele>27.42</ele>
      </trkpt>
      <trkpt lat="59.86916296184063" lon="29.93958824314177">
        <ele>27.59</ele>
      </trkpt>
      <trkpt lat="59.86935012973845" lon="29.93995176628232">
        <ele>27.68</ele>
      </trkpt>
      <trkpt lat="59.86953729763627" lon="29.94031528942287">
        <ele>27.75</ele>
      </trkpt>
      <trkpt lat="59.86972438171506" lon="29.94067881256342">
        <ele>27.77</ele>
      </trkpt>
      <trkpt lat="59.86990928649902" lon="29.941037893295288">
        <ele>27.77</ele>
      </trkpt>
      <trkpt lat="59.87012428231537" lon="29.94133352302015">
        <ele>27.78</ele>
      </trkpt>
      <trkpt lat="59.870338439941406" lon="29.941627979278564">
        <ele>27.89</ele>
      </trkpt>
      <trkpt lat="59.87056290730834" lon="29.941815650090575">
        <ele>27.96</ele>
      </trkpt>
      <trkpt lat="59.870787458494306" lon="29.942003404721618">
        <ele>28.04</ele>
      </trkpt>
      <trkpt lat="59.87101192586124" lon="29.94219115935266">
        <ele>28.12</ele>
      </trkpt>
      <trkpt lat="59.87123480066657" lon="29.942377489060163">
        <ele>28.21</ele>
      </trkpt>
      <trkpt lat="59.87140914425254" lon="29.94252333417535">
        <ele>28.21</ele>
      </trkpt>
      <trkpt lat="59.871582984924316" lon="29.942668676376343">
        <ele>28.16</ele>
      </trkpt>
      <trkpt lat="59.87179429270327" lon="29.94270807132125">
        <ele>28.09</ele>
      </trkpt>
      <trkpt lat="59.87200568430126" lon="29.942747466266155">
        <ele>28.02</ele>
      </trkpt>
      <trkpt lat="59.87221598625183" lon="29.942786693572998">
        <ele>27.88</ele>
      </trkpt>
      <trkpt lat="59.87221607007086" lon="29.942786693572998">
        <ele>27.79</ele>
      </trkpt>
      <trkpt lat="59.872355461120605" lon="29.942786693572998">
        <ele>27.66</ele>
      </trkpt>
      <trkpt lat="59.872565008699894" lon="29.942775880917907">
        <ele>27.49</ele>
      </trkpt>
      <trkpt lat="59.87277388572693" lon="29.94276523590088">
        <ele>27.35</ele>
      </trkpt>
      <trkpt lat="59.87299969419837" lon="29.94243993423879">
        <ele>27.36</ele>
      </trkpt>
      <trkpt lat="59.87322550266981" lon="29.942114632576704">
        <ele>27.38</ele>
      </trkpt>
      <trkpt lat="59.87345131114125" lon="29.94178941473365">
        <ele>27.34</ele>
      </trkpt>
      <trkpt lat="59.87367510795593" lon="29.94146704673767">
        <ele>27.38</ele>
      </trkpt>
      <trkpt lat="59.87395456060767" lon="29.94134877808392">
        <ele>27.28</ele>
      </trkpt>
      <trkpt lat="59.87423401325941" lon="29.9412305932492">
        <ele>27.2</ele>
      </trkpt>
      <trkpt lat="59.87451204098761" lon="29.941112995147705">
        <ele>27.04</ele>
      </trkpt>
      <trkpt lat="59.87451195716858" lon="29.941112995147705">
        <ele>27.02</ele>
      </trkpt>
      <trkpt lat="59.87448697909713" lon="29.941226234659553">
        <ele>27.0</ele>
      </trkpt>
      <trkpt lat="59.87451195716858" lon="29.941112995147705">
        <ele>27.06</ele>
      </trkpt>
      <trkpt lat="59.87451204098761" lon="29.941112995147705">
        <ele>27.12</ele>
      </trkpt>
      <trkpt lat="59.87463567405939" lon="29.940612595528364">
        <ele>27.27</ele>
      </trkpt>
      <trkpt lat="59.87475872039795" lon="29.940115213394165">
        <ele>27.35</ele>
      </trkpt>
      <trkpt lat="59.87481253221631" lon="29.939607102423906">
        <ele>27.5</ele>
      </trkpt>
      <trkpt lat="59.87486634403467" lon="29.93909907527268">
        <ele>27.65</ele>
      </trkpt>
      <trkpt lat="59.87492015585303" lon="29.93859096430242">
        <ele>27.71</ele>
      </trkpt>
      <trkpt lat="59.874973967671394" lon="29.938082937151194">
        <ele>27.78</ele>
      </trkpt>
      <trkpt lat="59.87502694129944" lon="29.937583208084106">
        <ele>27.91</ele>
      </trkpt>
      <trkpt lat="59.87502702511847" lon="29.937583208084106">
        <ele>28.05</ele>
      </trkpt>
      <trkpt lat="59.8749893065542" lon="29.93702882900834">
        <ele>28.27</ele>
      </trkpt>
      <trkpt lat="59.87495192326605" lon="29.93647813796997">
        <ele>28.46</ele>
      </trkpt>
      <trkpt lat="59.87489802762866" lon="29.9359377566725">
        <ele>28.72</ele>
      </trkpt>
      <trkpt lat="59.8748442158103" lon="29.935397375375032">
        <ele>28.86</ele>
      </trkpt>
      <trkpt lat="59.87479040399194" lon="29.934856994077563">
        <ele>28.87</ele>
      </trkpt>
      <trkpt lat="59.874736508354545" lon="29.934316612780094">
        <ele>28.85</ele>
      </trkpt>
      <trkpt lat="59.87468361854553" lon="29.93378520011902">
        <ele>28.83</ele>
      </trkpt>
      <trkpt lat="59.874687138944864" lon="29.93324331007898">
        <ele>28.79</ele>
      </trkpt>
      <trkpt lat="59.87469074316323" lon="29.93270150385797">
        <ele>28.75</ele>
      </trkpt>
      <trkpt lat="59.87469434738159" lon="29.932165145874023">
        <ele>28.76</ele>
      </trkpt>
      <trkpt lat="59.87469443120062" lon="29.932165145874023">
        <ele>28.77</ele>
      </trkpt>
      <trkpt lat="59.87473382614553" lon="29.931709421798587">
        <ele>28.89</ele>
      </trkpt>
      <trkpt lat="59.87477330490947" lon="29.93125369772315">
        <ele>29.0</ele>
      </trkpt>
      <trkpt lat="59.87481236457825" lon="29.930802583694458">
        <ele>29.03</ele>
      </trkpt>
      <trkpt lat="59.87491990439594" lon="29.93037569336593">
        <ele>28.98</ele>
      </trkpt>
      <trkpt lat="59.87502752803266" lon="29.929948803037405">
        <ele>28.92</ele>
      </trkpt>
      <trkpt lat="59.875134229660034" lon="29.92952585220337">
        <ele>28.83</ele>
      </trkpt>
      <trkpt lat="59.875349309295416" lon="29.929074067622423">
        <ele>28.56</ele>
      </trkpt>
      <trkpt lat="59.87556338310242" lon="29.928624629974365">
        <ele>28.1</ele>
      </trkpt>
      <trkpt lat="59.875814421102405" lon="29.92833168245852">
        <ele>27.76</ele>
      </trkpt>
      <trkpt lat="59.87606445327401" lon="29.928040076047182">
        <ele>27.44</ele>
      </trkpt>
      <trkpt lat="59.87627157010138" lon="29.92779850959778">
        <ele>26.79</ele>
      </trkpt>
      <trkpt lat="59.87601885572076" lon="29.9276265129447">
        <ele>26.58</ele>
      </trkpt>
      <trkpt lat="59.87576723098755" lon="29.927455186843872">
        <ele>26.3</ele>
      </trkpt>
      <trkpt lat="59.87553069368005" lon="29.927160562947392">
        <ele>26.11</ele>
      </trkpt>
      <trkpt lat="59.87529415637255" lon="29.926865939050913">
        <ele>25.99</ele>
      </trkpt>
      <trkpt lat="59.875057619065046" lon="29.926571315154433">
        <ele>25.76</ele>
      </trkpt>
      <trkpt lat="59.874821081757545" lon="29.926276691257954">
        <ele>25.56</ele>
      </trkpt>
      <trkpt lat="59.874587059020996" lon="29.92598533630371">
        <ele>25.42</ele>
      </trkpt>
      <trkpt lat="59.87433711066842" lon="29.92578643374145">
        <ele>25.39</ele>
      </trkpt>
      <trkpt lat="59.874087162315845" lon="29.92558753117919">
        <ele>25.46</ele>
      </trkpt>
      <trkpt lat="59.8738372977823" lon="29.92538871243596">
        <ele>25.58</ele>
      </trkpt>
      <trkpt lat="59.873589277267456" lon="29.925191402435303">
        <ele>25.78</ele>
      </trkpt>
      <trkpt lat="59.87336698919535" lon="29.924875907599926">
        <ele>26.11</ele>
      </trkpt>
      <trkpt lat="59.87314478494227" lon="29.92456049658358">
        <ele>26.62</ele>
      </trkpt>
      <trkpt lat="59.87292408943176" lon="29.92424726486206">
        <ele>27.17</ele>
      </trkpt>
      <trkpt lat="59.87265586853027" lon="29.92403268814087">
        <ele>27.65</ele>
      </trkpt>
      <trkpt lat="59.87247356213629" lon="29.92402195930481">
        <ele>28.02</ele>
      </trkpt>
      <trkpt lat="59.87230181694031" lon="29.924182891845703">
        <ele>28.31</ele>
      </trkpt>
      <trkpt lat="59.87221598625183" lon="29.92424726486206">
        <ele>28.53</ele>
      </trkpt>
      <trkpt lat="59.87202253192663" lon="29.92425262928009">
        <ele>28.73</ele>
      </trkpt>
      <trkpt lat="59.87182974815369" lon="29.92425799369812">
        <ele>28.88</ele>
      </trkpt>
      <trkpt lat="59.87153738737106" lon="29.924164451658726">
        <ele>28.97</ele>
      </trkpt>
      <trkpt lat="59.87124511040747" lon="29.92407090961933">
        <ele>28.94</ele>
      </trkpt>
      <trkpt lat="59.87095274962485" lon="29.92397745139897">
        <ele>28.91</ele>
      </trkpt>
      <trkpt lat="59.87066047266126" lon="29.923883909359574">
        <ele>28.91</ele>
      </trkpt>
      <trkpt lat="59.87036811187863" lon="29.92379045113921">
        <ele>29.0</ele>
      </trkpt>
      <trkpt lat="59.87007583491504" lon="29.923696909099817">
        <ele>29.09</ele>
      </trkpt>
      <trkpt lat="59.86978347413242" lon="29.923603450879455">
        <ele>29.13</ele>
      </trkpt>
      <trkpt lat="59.86949119716883" lon="29.92350990884006">
        <ele>29.17</ele>
      </trkpt>
      <trkpt lat="59.869198836386204" lon="29.923416450619698">
        <ele>29.17</ele>
      </trkpt>
      <trkpt lat="59.86891150474548" lon="29.923324584960938">
        <ele>29.25</ele>
      </trkpt>
      <trkpt lat="59.868712686002254" lon="29.923286950215697">
        <ele>29.36</ele>
      </trkpt>
      <trkpt lat="59.86851453781128" lon="29.92324948310852">
        <ele>29.44</ele>
      </trkpt>
      <trkpt lat="59.868407249450684" lon="29.92327094078064">
        <ele>29.61</ele>
      </trkpt>
      <trkpt lat="59.868385875597596" lon="29.92327094078064">
        <ele>29.81</ele>
      </trkpt>
      <trkpt lat="59.86815738491714" lon="29.923434806987643">
        <ele>30.05</ele>
      </trkpt>
      <trkpt lat="59.867928978055716" lon="29.92359875701368">
        <ele>30.37</ele>
      </trkpt>
      <trkpt lat="59.86770057119429" lon="29.923762623220682">
        <ele>30.63</ele>
      </trkpt>
      <trkpt lat="59.86747392453253" lon="29.923925399780273">
        <ele>30.93</ele>
      </trkpt>
      <trkpt lat="59.86725884489715" lon="29.924199571833014">
        <ele>31.16</ele>
      </trkpt>
      <trkpt lat="59.86704477109015" lon="29.92447257041931">
        <ele>31.29</ele>
      </trkpt>
      <trkpt lat="59.86679800786078" lon="29.924848079681396">
        <ele>31.4</ele>
      </trkpt>
      <trkpt lat="59.866658532992005" lon="29.925137758255005">
        <ele>31.43</ele>
      </trkpt>
      <trkpt lat="59.86650824546814" lon="29.925416707992554">
        <ele>31.38</ele>
      </trkpt>
      <trkpt lat="59.86650832928717" lon="29.925416707992554">
        <ele>31.28</ele>
      </trkpt>
      <trkpt lat="59.86634152941406" lon="29.925798503682017">
        <ele>31.07</ele>
      </trkpt>
      <trkpt lat="59.866175735369325" lon="29.926178455352783">
        <ele>30.72</ele>
      </trkpt>
      <trkpt lat="59.86612209118903" lon="29.926371574401855">
        <ele>30.4</ele>
      </trkpt>
      <trkpt lat="59.86607540398836" lon="29.92679494433105">
        <ele>29.96</ele>
      </trkpt>
      <trkpt lat="59.866028716787696" lon="29.927218314260244">
        <ele>29.56</ele>
      </trkpt>
      <trkpt lat="59.86598253250122" lon="29.927637577056885">
        <ele>29.29</ele>
      </trkpt>
      <trkpt lat="59.86598261632025" lon="29.927637577056885">
        <ele>28.97</ele>
      </trkpt>
      <trkpt lat="59.86599334515631" lon="29.92822313681245">
        <ele>28.73</ele>
      </trkpt>
      <trkpt lat="59.86600407399237" lon="29.928808780387044">
        <ele>28.49</ele>
      </trkpt>
      <trkpt lat="59.86601480282843" lon="29.929394340142608">
        <ele>28.15</ele>
      </trkpt>
      <trkpt lat="59.86602561548352" lon="29.929979983717203">
        <ele>27.8</ele>
      </trkpt>
      <trkpt lat="59.86603617668152" lon="29.930555820465088">
        <ele>27.39</ele>
      </trkpt>
      <trkpt lat="59.86602980643511" lon="29.930617092177272">
        <ele>27.06</ele>
      </trkpt>
      <trkpt lat="59.86598454415798" lon="29.931054543703794">
        <ele>26.37</ele>
      </trkpt>
      <trkpt lat="59.86593961715698" lon="29.93148922920227">
        <ele>26.05</ele>
      </trkpt>
      <trkpt lat="59.86587499268353" lon="29.931806651875377">
        <ele>25.82</ele>
      </trkpt>
      <trkpt lat="59.86581087112427" lon="29.932122230529785">
        <ele>25.68</ele>
      </trkpt>
      <trkpt lat="59.86599803902209" lon="29.932617014274">
        <ele>25.51</ele>
      </trkpt>
      <trkpt lat="59.86618520691991" lon="29.93311188183725">
        <ele>25.53</ele>
      </trkpt>
      <trkpt lat="59.86637237481773" lon="29.933606749400496">
        <ele>25.45</ele>
      </trkpt>
      <trkpt lat="59.86655962653458" lon="29.934101616963744">
        <ele>25.39</ele>
      </trkpt>
      <trkpt lat="59.86674427986145" lon="29.934589862823486">
        <ele>25.36</ele>
      </trkpt>
      <trkpt lat="59.86686690710485" lon="29.935078360140324">
        <ele>25.48</ele>
      </trkpt>
      <trkpt lat="59.86698961816728" lon="29.935566941276193">
        <ele>25.55</ele>
      </trkpt>
      <trkpt lat="59.86711224541068" lon="29.93605543859303">
        <ele>25.64</ele>
      </trkpt>
      <trkpt lat="59.86723495647311" lon="29.9365440197289">
        <ele>25.75</ele>
      </trkpt>
      <trkpt lat="59.867355823516846" lon="29.93702530860901">
        <ele>25.88</ele>
      </trkpt>
      <trkpt lat="59.86753502860665" lon="29.937383802607656">
        <ele>26.02</ele>
      </trkpt>
      <trkpt lat="59.86771431751549" lon="29.937742296606302">
        <ele>26.17</ele>
      </trkpt>
      <trkpt lat="59.867892265319824" lon="29.938098192214966">
        <ele>26.39</ele>
      </trkpt>
      <trkpt lat="59.86791372299194" lon="29.9382483959198">
        <ele>26.57</ele>
      </trkpt>
      <trkpt lat="59.86795663833618" lon="29.93825912475586">
        <ele>26.72</ele>
      </trkpt>
      <trkpt lat="59.86816082149744" lon="29.938377309590578">
        <ele>26.88</ele>
      </trkpt>
      <trkpt lat="59.868364334106445" lon="29.93849515914917">
        <ele>27.03</ele>
      </trkpt>
      <trkpt lat="59.868568601086736" lon="29.938738821074367">
        <ele>27.23</ele>
      </trkpt>
      <trkpt lat="59.868772868067026" lon="29.938982482999563">
        <ele>27.33</ele>
      </trkpt>
      <trkpt lat="59.86897587776184" lon="29.93922472000122">
        <ele>27.38</ele>
      </trkpt>
      <trkpt lat="59.86916296184063" lon="29.93958824314177">
        <ele>27.54</ele>
      </trkpt>
      <trkpt lat="59.86935012973845" lon="29.93995176628232">
        <ele>27.62</ele>
      </trkpt>
      <trkpt lat="59.86953729763627" lon="29.94031528942287">
        <ele>27.68</ele>
      </trkpt>
      <trkpt lat="59.86972438171506" lon="29.94067881256342">
        <ele>27.68</ele>
      </trkpt>
      <trkpt lat="59.86990928649902" lon="29.941037893295288">
        <ele>27.66</ele>
      </trkpt>
      <trkpt lat="59.87012428231537" lon="29.94133352302015">
        <ele>27.64</ele>
      </trkpt>
      <trkpt lat="59.870338439941406" lon="29.941627979278564">
        <ele>27.73</ele>
      </trkpt>
      <trkpt lat="59.87058780156076" lon="29.94183643721044">
        <ele>27.76</ele>
      </trkpt>
      <trkpt lat="59.87083716318011" lon="29.94204497896135">
        <ele>27.83</ele>
      </trkpt>
      <trkpt lat="59.871086524799466" lon="29.942253520712256">
        <ele>27.89</ele>
      </trkpt>
      <trkpt lat="59.87133597023785" lon="29.942462062463164">
        <ele>27.92</ele>
      </trkpt>
      <trkpt lat="59.871582984924316" lon="29.942668676376343">
        <ele>27.89</ele>
      </trkpt>
      <trkpt lat="59.87179429270327" lon="29.94270807132125">
        <ele>27.84</ele>
      </trkpt>
      <trkpt lat="59.87200568430126" lon="29.942747466266155">
        <ele>27.78</ele>
      </trkpt>
      <trkpt lat="59.87221598625183" lon="29.942786693572998">
        <ele>27.66</ele>
      </trkpt>
      <trkpt lat="59.87221607007086" lon="29.942786693572998">
        <ele>27.6</ele>
      </trkpt>
      <trkpt lat="59.872355461120605" lon="29.942786693572998">
        <ele>27.5</ele>
      </trkpt>
      <trkpt lat="59.87257246859372" lon="29.94277554564178">
        <ele>27.37</ele>
      </trkpt>
      <trkpt lat="59.87277388572693" lon="29.94276523590088">
        <ele>27.25</ele>
      </trkpt>
      <trkpt lat="59.87299969419837" lon="29.94243993423879">
        <ele>27.33</ele>
      </trkpt>
      <trkpt lat="59.87322550266981" lon="29.942114632576704">
        <ele>27.42</ele>
      </trkpt>
      <trkpt lat="59.87345131114125" lon="29.94178941473365">
        <ele>27.46</ele>
      </trkpt>
      <trkpt lat="59.87367510795593" lon="29.94146704673767">
        <ele>27.57</ele>
      </trkpt>
      <trkpt lat="59.87395456060767" lon="29.94134877808392">
        <ele>27.56</ele>
      </trkpt>
      <trkpt lat="59.87423401325941" lon="29.9412305932492">
        <ele>27.56</ele>
      </trkpt>
      <trkpt lat="59.87451204098761" lon="29.941112995147705">
        <ele>27.48</ele>
      </trkpt>
      <trkpt lat="59.87463567405939" lon="29.940612595528364">
        <ele>27.61</ele>
      </trkpt>
      <trkpt lat="59.87475872039795" lon="29.940115213394165">
        <ele>27.67</ele>
      </trkpt>
      <trkpt lat="59.87481253221631" lon="29.939607102423906">
        <ele>27.78</ele>
      </trkpt>
      <trkpt lat="59.87486634403467" lon="29.93909907527268">
        <ele>27.9</ele>
      </trkpt>
      <trkpt lat="59.87492015585303" lon="29.93859096430242">
        <ele>27.91</ele>
      </trkpt>
      <trkpt lat="59.874973967671394" lon="29.938082937151194">
        <ele>27.95</ele>
      </trkpt>
      <trkpt lat="59.87502694129944" lon="29.937583208084106">
        <ele>28.05</ele>
      </trkpt>
      <trkpt lat="59.87502702511847" lon="29.937583208084106">
        <ele>28.16</ele>
      </trkpt>
      <trkpt lat="59.8749893065542" lon="29.93702882900834">
        <ele>28.35</ele>
      </trkpt>
      <trkpt lat="59.87495192326605" lon="29.93647813796997">
        <ele>28.51</ele>
      </trkpt>
      <trkpt lat="59.87489802762866" lon="29.9359377566725">
        <ele>28.75</ele>
      </trkpt>
      <trkpt lat="59.8748442158103" lon="29.935397375375032">
        <ele>28.87</ele>
      </trkpt>
      <trkpt lat="59.87479040399194" lon="29.934856994077563">
        <ele>28.87</ele>
      </trkpt>
      <trkpt lat="59.874736508354545" lon="29.934316612780094">
        <ele>28.84</ele>
      </trkpt>
      <trkpt lat="59.87468361854553" lon="29.93378520011902">
        <ele>28.82</ele>
      </trkpt>
      <trkpt lat="59.874687138944864" lon="29.93324331007898">
        <ele>28.78</ele>
      </trkpt>
      <trkpt lat="59.87469074316323" lon="29.93270150385797">
        <ele>28.73</ele>
      </trkpt>
      <trkpt lat="59.87469434738159" lon="29.932165145874023">
        <ele>28.75</ele>
      </trkpt>
      <trkpt lat="59.87469443120062" lon="29.932165145874023">
        <ele>28.77</ele>
      </trkpt>
      <trkpt lat="59.87473382614553" lon="29.931709421798587">
        <ele>28.91</ele>
      </trkpt>
      <trkpt lat="59.87477330490947" lon="29.93125369772315">
        <ele>29.03</ele>
      </trkpt>
      <trkpt lat="59.87481236457825" lon="29.930802583694458">
        <ele>29.08</ele>
      </trkpt>
      <trkpt lat="59.87491990439594" lon="29.93037569336593">
        <ele>29.04</ele>
      </trkpt>
      <trkpt lat="59.87502752803266" lon="29.929948803037405">
        <ele>29.0</ele>
      </trkpt>
      <trkpt lat="59.875134229660034" lon="29.92952585220337">
        <ele>28.92</ele>
      </trkpt>
      <trkpt lat="59.875349309295416" lon="29.929074067622423">
        <ele>28.66</ele>
      </trkpt>
      <trkpt lat="59.87556338310242" lon="29.928624629974365">
        <ele>28.22</ele>
      </trkpt>
      <trkpt lat="59.87571995705366" lon="29.928441820666194">
        <ele>27.92</ele>
      </trkpt>
      <trkpt lat="59.875876028090715" lon="29.92825984954834">
        <ele>27.59</ele>
      </trkpt>
      <trkpt lat="59.87607417628169" lon="29.92802867665887">
        <ele>27.0</ele>
      </trkpt>
      <trkpt lat="59.87627157010138" lon="29.92779850959778">
        <ele>26.64</ele>
      </trkpt>
      <trkpt lat="59.87601885572076" lon="29.9276265129447">
        <ele>26.43</ele>
      </trkpt>
      <trkpt lat="59.87576723098755" lon="29.927455186843872">
        <ele>26.17</ele>
      </trkpt>
      <trkpt lat="59.87553069368005" lon="29.927160562947392">
        <ele>25.98</ele>
      </trkpt>
      <trkpt lat="59.87529415637255" lon="29.926865939050913">
        <ele>25.87</ele>
      </trkpt>
      <trkpt lat="59.875057619065046" lon="29.926571315154433">
        <ele>25.66</ele>
      </trkpt>
      <trkpt lat="59.874821081757545" lon="29.926276691257954">
        <ele>25.47</ele>
      </trkpt>
      <trkpt lat="59.874587059020996" lon="29.92598533630371">
        <ele>25.34</ele>
      </trkpt>
      <trkpt lat="59.87433711066842" lon="29.92578643374145">
        <ele>25.33</ele>
      </trkpt>
      <trkpt lat="59.874087162315845" lon="29.92558753117919">
        <ele>25.42</ele>
      </trkpt>
      <trkpt lat="59.8738372977823" lon="29.92538871243596">
        <ele>25.56</ele>
      </trkpt>
      <trkpt lat="59.873589277267456" lon="29.925191402435303">
        <ele>25.78</ele>
      </trkpt>
      <trkpt lat="59.87336698919535" lon="29.924875907599926">
        <ele>26.13</ele>
      </trkpt>
      <trkpt lat="59.87314478494227" lon="29.92456049658358">
        <ele>26.67</ele>
      </trkpt>
      <trkpt lat="59.87292408943176" lon="29.92424726486206">
        <ele>27.25</ele>
      </trkpt>
      <trkpt lat="59.87265586853027" lon="29.92403268814087">
        <ele>27.75</ele>
      </trkpt>
      <trkpt lat="59.87247356213629" lon="29.92402195930481">
        <ele>28.15</ele>
      </trkpt>
      <trkpt lat="59.87230181694031" lon="29.924182891845703">
        <ele>28.46</ele>
      </trkpt>
      <trkpt lat="59.87221598625183" lon="29.92424726486206">
        <ele>28.71</ele>
      </trkpt>
      <trkpt lat="59.87202253192663" lon="29.92425262928009">
        <ele>28.93</ele>
      </trkpt>
      <trkpt lat="59.87182974815369" lon="29.92425799369812">
        <ele>29.11</ele>
      </trkpt>
      <trkpt lat="59.87153738737106" lon="29.924164451658726">
        <ele>29.21</ele>
      </trkpt>
      <trkpt lat="59.87124511040747" lon="29.92407090961933">
        <ele>29.2</ele>
      </trkpt>
      <trkpt lat="59.87095274962485" lon="29.92397745139897">
        <ele>29.19</ele>
      </trkpt>
      <trkpt lat="59.87066047266126" lon="29.923883909359574">
        <ele>29.2</ele>
      </trkpt>
      <trkpt lat="59.87036811187863" lon="29.92379045113921">
        <ele>29.29</ele>
      </trkpt>
      <trkpt lat="59.87007583491504" lon="29.923696909099817">
        <ele>29.38</ele>
      </trkpt>
      <trkpt lat="59.86978347413242" lon="29.923603450879455">
        <ele>29.4</ele>
      </trkpt>
      <trkpt lat="59.86949119716883" lon="29.92350990884006">
        <ele>29.4</ele>
      </trkpt>
      <trkpt lat="59.869198836386204" lon="29.923416450619698">
        <ele>29.36</ele>
      </trkpt>
      <trkpt lat="59.86891150474548" lon="29.923324584960938">
        <ele>29.39</ele>
      </trkpt>
      <trkpt lat="59.86899733543396" lon="29.923464059829712">
        <ele>29.43</ele>
      </trkpt>
      <trkpt lat="59.8689918871969" lon="29.923916179686785">
        <ele>29.55</ele>
      </trkpt>
      <trkpt lat="59.8689866065979" lon="29.924365282058716">
        <ele>29.68</ele>
      </trkpt>
      <trkpt lat="59.86900806427002" lon="29.924676418304443">
        <ele>29.73</ele>
      </trkpt>
      <trkpt lat="59.869136810302734" lon="29.925084114074707">
        <ele>29.77</ele>
      </trkpt>
      <trkpt lat="59.86918953247368" lon="29.925174470990896">
        <ele>29.81</ele>
      </trkpt>
      <trkpt lat="59.869351303204894" lon="29.92545174434781">
        <ele>29.96</ele>
      </trkpt>
      <trkpt lat="59.86951231956482" lon="29.92572784423828">
        <ele>29.99</ele>
      </trkpt>
      <trkpt lat="59.86970543861389" lon="29.925888776779175">
        <ele>30.01</ele>
      </trkpt>
      <trkpt lat="59.8700035829097" lon="29.925951221957803">
        <ele>30.08</ele>
      </trkpt>
      <trkpt lat="59.870300805196166" lon="29.9260135833174">
        <ele>30.07</ele>
      </trkpt>
      <trkpt lat="59.87037071026862" lon="29.92602825164795">
        <ele>30.02</ele>
      </trkpt>
      <trkpt lat="59.870402812957764" lon="29.926092624664307">
        <ele>30.0</ele>
      </trkpt>
      <trkpt lat="59.87028479576111" lon="29.92624282836914">
        <ele>30.01</ele>
      </trkpt>
      <trkpt lat="59.87028487958014" lon="29.92624282836914">
        <ele>29.97</ele>
      </trkpt>
      <trkpt lat="59.870044654235244" lon="29.926601238548756">
        <ele>29.92</ele>
      </trkpt>
      <trkpt lat="59.86980451270938" lon="29.92695964872837">
        <ele>29.76</ele>
      </trkpt>
      <trkpt lat="59.86956596374512" lon="29.927315711975098">
        <ele>29.71</ele>
      </trkpt>
      <trkpt lat="59.86939019523561" lon="29.927796246483922">
        <ele>29.71</ele>
      </trkpt>
      <trkpt lat="59.869214510545135" lon="29.928276780992746">
        <ele>29.73</ele>
      </trkpt>
      <trkpt lat="59.8690402507782" lon="29.92875337600708">
        <ele>29.69</ele>
      </trkpt>
      <trkpt lat="59.86896514892578" lon="29.929161071777344">
        <ele>29.8</ele>
      </trkpt>
      <trkpt lat="59.86894369125366" lon="29.929450750350952">
        <ele>29.92</ele>
      </trkpt>
      <trkpt lat="59.86888443119824" lon="29.92979516275227">
        <ele>30.09</ele>
      </trkpt>
      <trkpt lat="59.86882567405701" lon="29.930137395858765">
        <ele>30.25</ele>
      </trkpt>
      <trkpt lat="59.868981493636966" lon="29.929981492459774">
        <ele>30.45</ele>
      </trkpt>
      <trkpt lat="59.869136810302734" lon="29.929826259613037">
        <ele>30.61</ele>
      </trkpt>
      <trkpt lat="59.86931945197284" lon="29.929874539375305">
        <ele>30.83</ele>
      </trkpt>
      <trkpt lat="59.86950159072876" lon="29.929922819137573">
        <ele>31.05</ele>
      </trkpt>
      <trkpt lat="59.8697326797992" lon="29.930148543789983">
        <ele>31.19</ele>
      </trkpt>
      <trkpt lat="59.86996293067932" lon="29.930373430252075">
        <ele>31.24</ele>
      </trkpt>
      <trkpt lat="59.86996301449835" lon="29.930373430252075">
        <ele>31.34</ele>
      </trkpt>
      <trkpt lat="59.870145320892334" lon="29.930609464645386">
        <ele>31.42</ele>
      </trkpt>
      <trkpt lat="59.870204497128725" lon="29.930959241464734">
        <ele>31.52</ele>
      </trkpt>
      <trkpt lat="59.87026333808899" lon="29.931306838989258">
        <ele>31.51</ele>
      </trkpt>
      <trkpt lat="59.87020407803357" lon="29.931893404573202">
        <ele>31.66</ele>
      </trkpt>
      <trkpt lat="59.870145320892334" lon="29.93247628211975">
        <ele>31.59</ele>
      </trkpt>
      <trkpt lat="59.870156049728394" lon="29.933052118867636">
        <ele>31.4</ele>
      </trkpt>
      <trkpt lat="59.87016677856445" lon="29.933624267578125">
        <ele>31.35</ele>
      </trkpt>
      <trkpt lat="59.870166862383485" lon="29.933624267578125">
        <ele>31.33</ele>
      </trkpt>
      <trkpt lat="59.870236767455935" lon="29.934108573943377">
        <ele>31.35</ele>
      </trkpt>
      <trkpt lat="59.87030625343323" lon="29.934589862823486">
        <ele>31.33</ele>
      </trkpt>
      <trkpt lat="59.870445728302" lon="29.934890270233154">
        <ele>31.24</ele>
      </trkpt>
      <trkpt lat="59.870628118515015" lon="29.934868812561035">
        <ele>31.22</ele>
      </trkpt>
      <trkpt lat="59.870674135163426" lon="29.934835955500603">
        <ele>31.12</ele>
      </trkpt>
      <trkpt lat="59.87095199525356" lon="29.93463738821447">
        <ele>30.84</ele>
      </trkpt>
      <trkpt lat="59.87122893333435" lon="29.934439659118652">
        <ele>30.75</ele>
      </trkpt>
      <trkpt lat="59.87135793082416" lon="29.93425684981048">
        <ele>30.48</ele>
      </trkpt>
      <trkpt lat="59.87148642539978" lon="29.934074878692627">
        <ele>30.16</ele>
      </trkpt>
      <trkpt lat="59.87148650921881" lon="29.934074878692627">
        <ele>29.84</ele>
      </trkpt>
      <trkpt lat="59.871615171432495" lon="29.93375301361084">
        <ele>29.36</ele>
      </trkpt>
      <trkpt lat="59.87169588916004" lon="29.93334942497313">
        <ele>28.9</ele>
      </trkpt>
      <trkpt lat="59.87177618779242" lon="29.932948350906372">
        <ele>28.52</ele>
      </trkpt>
      <trkpt lat="59.87187299877405" lon="29.932388607412577">
        <ele>28.41</ele>
      </trkpt>
      <trkpt lat="59.87196922302246" lon="29.931832551956177">
        <ele>28.48</ele>
      </trkpt>
      <trkpt lat="59.87207139842212" lon="29.931321339681745">
        <ele>28.44</ele>
      </trkpt>
      <trkpt lat="59.87217307090759" lon="29.930813312530518">
        <ele>28.45</ele>
      </trkpt>
      <trkpt lat="59.87225890159607" lon="29.93046998977661">
        <ele>28.53</ele>
      </trkpt>
      <trkpt lat="59.8722589854151" lon="29.93046998977661">
        <ele>28.69</ele>
      </trkpt>
      <trkpt lat="59.87241757102311" lon="29.93004770949483">
        <ele>28.9</ele>
      </trkpt>
      <trkpt lat="59.872576240450144" lon="29.929625429213047">
        <ele>29.31</ele>
      </trkpt>
      <trkpt lat="59.87273490987718" lon="29.929203148931265">
        <ele>29.65</ele>
      </trkpt>
      <trkpt lat="59.872891902923584" lon="29.92878556251526">
        <ele>29.86</ele>
      </trkpt>
      <trkpt lat="59.87312835641205" lon="29.928502421826124">
        <ele>29.98</ele>
      </trkpt>
      <trkpt lat="59.873364893719554" lon="29.92821928113699">
        <ele>30.24</ele>
      </trkpt>
      <trkpt lat="59.873600006103516" lon="29.927937984466553">
        <ele>30.39</ele>
      </trkpt>
      <trkpt lat="59.873890187591314" lon="29.927733717486262">
        <ele>30.48</ele>
      </trkpt>
      <trkpt lat="59.87417936325073" lon="29.92753028869629">
        <ele>30.48</ele>
      </trkpt>
      <trkpt lat="59.87441036850214" lon="29.92744965478778">
        <ele>30.36</ele>
      </trkpt>
      <trkpt lat="59.874640703201294" lon="29.927369356155396">
        <ele>30.09</ele>
      </trkpt>
      <trkpt lat="59.874922754243016" lon="29.927390813827515">
        <ele>29.67</ele>
      </trkpt>
      <trkpt lat="59.87520488910377" lon="29.927412271499634">
        <ele>29.16</ele>
      </trkpt>
      <trkpt lat="59.87548694014549" lon="29.927433812990785">
        <ele>28.51</ele>
      </trkpt>
      <trkpt lat="59.87576723098755" lon="29.927455186843872">
        <ele>28.03</ele>
      </trkpt>
      <trkpt lat="59.87576731480658" lon="29.927455186843872">
        <ele>27.81</ele>
      </trkpt>
      <trkpt lat="59.87588985823095" lon="29.92753867059946">
        <ele>27.65</ele>
      </trkpt>
    </trkseg>
  </trk>
</gpx>
