<?xml version="1.0" encoding="UTF-8"?>
<gpx creator="Garmin Connect" version="1.1"
  xsi:schemaLocation="http://www.topografix.com/GPX/1/1 http://www.topografix.com/GPX/11.xsd"
  xmlns:ns3="http://www.garmin.com/xmlschemas/TrackPointExtension/v1"
  xmlns="http://www.topografix.com/GPX/1/1"
  xmlns:xsi="http://www.w3.org/2001/XMLSchema-instance" xmlns:ns2="http://www.garmin.com/xmlschemas/GpxExtensions/v3">
  <metadata>
    <name>Александрийский парк (Петергоф)Бег 5 км</name>
    <link href="connect.garmin.com">
      <text>Garmin Connect</text>
    </link>
    <time>2026-09-30T22:20:53.000Z</time>
  </metadata>
  <trk>
    <name>Александрийский парк (Петергоф)Бег 5 км</name>
    <trkseg>
      <trkpt lat="59.876142824068666" lon="29.92794862948358">
        <ele>25.86</ele>
      </trkpt>
      <trkpt lat="59.87627157010138" lon="29.92779850959778">
        <ele>25.66</ele>
      </trkpt>
      <trkpt lat="59.87601885572076" lon="29.9276265129447">
        <ele>25.72</ele>
      </trkpt>
      <trkpt lat="59.87576723098755" lon="29.927455186843872">
        <ele>25.63</ele>
      </trkpt>
      <trkpt lat="59.87553069368005" lon="29.927160562947392">
        <ele>25.65</ele>
      </trkpt>
      <trkpt lat="59.87529415637255" lon="29.926865939050913">
        <ele>25.78</ele>
      </trkpt>
      <trkpt lat="59.875057619065046" lon="29.926571315154433">
        <ele>25.66</ele>
      </trkpt>
      <trkpt lat="59.874821081757545" lon="29.926276691257954">
        <ele>25.44</ele>
      </trkpt>
      <trkpt lat="59.874587059020996" lon="29.92598533630371">
        <ele>25.2</ele>
      </trkpt>
      <trkpt lat="59.87433711066842" lon="29.92578643374145">
        <ele>25.1</ele>
      </trkpt>
      <trkpt lat="59.874087162315845" lon="29.92558753117919">
        <ele>25.12</ele>
      </trkpt>
      <trkpt lat="59.8738372977823" lon="29.92538871243596">
        <ele>25.23</ele>
      </trkpt>
      <trkpt lat="59.873589277267456" lon="29.925191402435303">
        <ele>25.45</ele>
      </trkpt>
      <trkpt lat="59.87336698919535" lon="29.924875907599926">
        <ele>25.88</ele>
      </trkpt>
      <trkpt lat="59.87314478494227" lon="29.92456049658358">
        <ele>26.62</ele>
      </trkpt>
      <trkpt lat="59.87292408943176" lon="29.92424726486206">
        <ele>27.47</ele>
      </trkpt>
      <trkpt lat="59.87265586853027" lon="29.92403268814087">
        <ele>28.27</ele>
      </trkpt>
      <trkpt lat="59.87247356213629" lon="29.92402195930481">
        <ele>28.89</ele>
      </trkpt>
      <trkpt lat="59.87230181694031" lon="29.924182891845703">
        <ele>29.33</ele>
      </trkpt>
      <trkpt lat="59.87221598625183" lon="29.92424726486206">
        <ele>29.62</ele>
      </trkpt>
      <trkpt lat="59.87202253192663" lon="29.92425262928009">
        <ele>29.81</ele>
      </trkpt>
      <trkpt lat="59.87182974815369" lon="29.92425799369812">
        <ele>29.9</ele>
      </trkpt>
      <trkpt lat="59.87153738737106" lon="29.924164451658726">
        <ele>29.87</ele>
      </trkpt>
      <trkpt lat="59.87124511040747" lon="29.92407090961933">
        <ele>29.66</ele>
      </trkpt>
      <trkpt lat="59.87095274962485" lon="29.92397745139897">
        <ele>29.43</ele>
      </trkpt>
      <trkpt lat="59.87066047266126" lon="29.923883909359574">
        <ele>29.22</ele>
      </trkpt>
      <trkpt lat="59.87036811187863" lon="29.92379045113921">
        <ele>29.13</ele>
      </trkpt>
      <trkpt lat="59.87007583491504" lon="29.923696909099817">
        <ele>29.08</ele>
      </trkpt>
      <trkpt lat="59.86978347413242" lon="29.923603450879455">
        <ele>29.0</ele>
      </trkpt>
      <trkpt lat="59.86949119716883" lon="29.92350990884006">
        <ele>28.94</ele>
      </trkpt>
      <trkpt lat="59.869198836386204" lon="29.923416450619698">
        <ele>28.85</ele>
      </trkpt>
      <trkpt lat="59.86891150474548" lon="29.923324584960938">
        <ele>28.87</ele>
      </trkpt>
      <trkpt lat="59.868712686002254" lon="29.923286950215697">
        <ele>28.94</ele>
      </trkpt>
      <trkpt lat="59.86851453781128" lon="29.92324948310852">
        <ele>28.99</ele>
      </trkpt>
      <trkpt lat="59.868407249450684" lon="29.92327094078064">
        <ele>29.17</ele>
      </trkpt>
      <trkpt lat="59.868385875597596" lon="29.92327094078064">
        <ele>29.37</ele>
      </trkpt>
      <trkpt lat="59.86815738491714" lon="29.923434806987643">
        <ele>29.65</ele>
      </trkpt>
      <trkpt lat="59.867928978055716" lon="29.92359875701368">
        <ele>30.03</ele>
      </trkpt>
      <trkpt lat="59.86770057119429" lon="29.923762623220682">
        <ele>30.35</ele>
      </trkpt>
      <trkpt lat="59.86747392453253" lon="29.923925399780273">
        <ele>30.74</ele>
      </trkpt>
      <trkpt lat="59.86725884489715" lon="29.924199571833014">
        <ele>31.04</ele>
      </trkpt>
      <trkpt lat="59.86704477109015" lon="29.92447257041931">
        <ele>31.24</ele>
      </trkpt>
      <trkpt lat="59.86679800786078" lon="29.924848079681396">
        <ele>31.41</ele>
      </trkpt>
      <trkpt lat="59.866658532992005" lon="29.925137758255005">
        <ele>31.48</ele>
      </trkpt>
      <trkpt lat="59.86650824546814" lon="29.925416707992554">
        <ele>31.47</ele>
      </trkpt>
      <trkpt lat="59.86650832928717" lon="29.925416707992554">
        <ele>31.39</ele>
      </trkpt>
      <trkpt lat="59.86634152941406" lon="29.925798503682017">
        <ele>31.18</ele>
      </trkpt>
      <trkpt lat="59.866175735369325" lon="29.926178455352783">
        <ele>30.82</ele>
      </trkpt>
      <trkpt lat="59.86612209118903" lon="29.926371574401855">
        <ele>30.47</ele>
      </trkpt>
      <trkpt lat="59.86607540398836" lon="29.92679494433105">
        <ele>30.01</ele>
      </trkpt>
      <trkpt lat="59.866028716787696" lon="29.927218314260244">
        <ele>29.57</ele>
      </trkpt>
      <trkpt lat="59.86598253250122" lon="29.927637577056885">
        <ele>29.3</ele>
      </trkpt>
      <trkpt lat="59.86598261632025" lon="29.927637577056885">
        <ele>28.97</ele>
      </trkpt>
      <trkpt lat="59.86599242314696" lon="29.928174437955022">
        <ele>28.74</ele>
      </trkpt>
      <trkpt lat="59.866002229973674" lon="29.92871138267219">
        <ele>28.49</ele>
      </trkpt>
      <trkpt lat="59.866012120619416" lon="29.92924832738936">
        <ele>28.19</ele>
      </trkpt>
      <trkpt lat="59.866021843627095" lon="29.929778147488832">
        <ele>27.89</ele>
      </trkpt>
      <trkpt lat="59.866021843627095" lon="29.9297780636698">
        <ele>27.6</ele>
      </trkpt>
      <trkpt lat="59.86602896824479" lon="29.930168241262436">
        <ele>27.29</ele>
      </trkpt>
      <trkpt lat="59.86603617668152" lon="29.930555820465088">
        <ele>26.93</ele>
      </trkpt>
      <trkpt lat="59.86598772928119" lon="29.93102403357625">
        <ele>26.55</ele>
      </trkpt>
      <trkpt lat="59.86593961715698" lon="29.93148922920227">
        <ele>26.25</ele>
      </trkpt>
      <trkpt lat="59.86587499268353" lon="29.931806651875377">
        <ele>26.07</ele>
      </trkpt>
      <trkpt lat="59.86581087112427" lon="29.932122230529785">
        <ele>25.99</ele>
      </trkpt>
      <trkpt lat="59.8658109549433" lon="29.932122230529785">
        <ele>25.92</ele>
      </trkpt>
      <trkpt lat="59.86607322469354" lon="29.93240595795214">
        <ele>25.97</ele>
      </trkpt>
      <trkpt lat="59.866335494443774" lon="29.93268976919353">
        <ele>26.04</ele>
      </trkpt>
      <trkpt lat="59.86659784801304" lon="29.93297358043492">
        <ele>26.12</ele>
      </trkpt>
      <trkpt lat="59.86686011776328" lon="29.93325747549534">
        <ele>26.18</ele>
      </trkpt>
      <trkpt lat="59.867119789123535" lon="29.93353843688965">
        <ele>26.33</ele>
      </trkpt>
      <trkpt lat="59.86737317405641" lon="29.933774890378118">
        <ele>26.56</ele>
      </trkpt>
      <trkpt lat="59.867626558989286" lon="29.934011343866587">
        <ele>26.79</ele>
      </trkpt>
      <trkpt lat="59.86787994392216" lon="29.934247881174088">
        <ele>26.97</ele>
      </trkpt>
      <trkpt lat="59.86813332885504" lon="29.934484334662557">
        <ele>27.02</ele>
      </trkpt>
      <trkpt lat="59.86838671378791" lon="29.934720871970057">
        <ele>27.17</ele>
      </trkpt>
      <trkpt lat="59.86864009872079" lon="29.934957325458527">
        <ele>27.39</ele>
      </trkpt>
      <trkpt lat="59.868890047073364" lon="29.935190677642822">
        <ele>27.7</ele>
      </trkpt>
      <trkpt lat="59.868890130892396" lon="29.935190677642822">
        <ele>28.08</ele>
      </trkpt>
      <trkpt lat="59.868965400382876" lon="29.935648078098893">
        <ele>28.19</ele>
      </trkpt>
      <trkpt lat="59.8690402507782" lon="29.936102628707886">
        <ele>28.25</ele>
      </trkpt>
      <trkpt lat="59.869007896631956" lon="29.936473947018385">
        <ele>28.23</ele>
      </trkpt>
      <trkpt lat="59.86897587776184" lon="29.936842918395996">
        <ele>28.18</ele>
      </trkpt>
      <trkpt lat="59.86879348754883" lon="29.937314987182617">
        <ele>28.05</ele>
      </trkpt>
      <trkpt lat="59.8685999494046" lon="29.937486900016665">
        <ele>27.88</ele>
      </trkpt>
      <trkpt lat="59.8684064950794" lon="29.937658896669745">
        <ele>27.69</ele>
      </trkpt>
      <trkpt lat="59.86821413040161" lon="29.937829971313477">
        <ele>27.49</ele>
      </trkpt>
      <trkpt lat="59.86808504909277" lon="29.93804505094886">
        <ele>27.36</ele>
      </trkpt>
      <trkpt lat="59.86795663833618" lon="29.93825912475586">
        <ele>27.23</ele>
      </trkpt>
      <trkpt lat="59.86791372299194" lon="29.9382483959198">
        <ele>27.07</ele>
      </trkpt>
      <trkpt lat="59.86791112460196" lon="29.938337663188577">
        <ele>26.9</ele>
      </trkpt>
      <trkpt lat="59.86791112460196" lon="29.93833774700761">
        <ele>26.74</ele>
      </trkpt>
      <trkpt lat="59.86791372299194" lon="29.9382483959198">
        <ele>26.58</ele>
      </trkpt>
      <trkpt lat="59.867892265319824" lon="29.938098192214966">
        <ele>26.4</ele>
      </trkpt>
      <trkpt lat="59.867712976410985" lon="29.937739614397287">
        <ele>26.21</ele>
      </trkpt>
      <trkpt lat="59.867533687502146" lon="29.93738112039864">
        <ele>26.08</ele>
      </trkpt>
      <trkpt lat="59.867355823516846" lon="29.93702530860901">
        <ele>25.98</ele>
      </trkpt>
      <trkpt lat="59.867233112454414" lon="29.93653672747314">
        <ele>25.9</ele>
      </trkpt>
      <trkpt lat="59.86711040139198" lon="29.93604814633727">
        <ele>25.84</ele>
      </trkpt>
      <trkpt lat="59.86698777414858" lon="29.9355595652014">
        <ele>25.8</ele>
      </trkpt>
      <trkpt lat="59.86686506308615" lon="29.935070984065533">
        <ele>25.79</ele>
      </trkpt>
      <trkpt lat="59.86674427986145" lon="29.934589862823486">
        <ele>25.74</ele>
      </trkpt>
      <trkpt lat="59.8665570281446" lon="29.934094911441207">
        <ele>25.83</ele>
      </trkpt>
      <trkpt lat="59.86636986024678" lon="29.93360004387796">
        <ele>25.96</ele>
      </trkpt>
      <trkpt lat="59.86618269234896" lon="29.93310517631471">
        <ele>26.09</ele>
      </trkpt>
      <trkpt lat="59.86599552445114" lon="29.932610224932432">
        <ele>26.12</ele>
      </trkpt>
      <trkpt lat="59.8658109549433" lon="29.932122230529785">
        <ele>26.18</ele>
      </trkpt>
      <trkpt lat="59.86574926413596" lon="29.932350385934114">
        <ele>26.39</ele>
      </trkpt>
      <trkpt lat="59.86574926413596" lon="29.932350302115083">
        <ele>26.55</ele>
      </trkpt>
      <trkpt lat="59.865618171170354" lon="29.932835614308715">
        <ele>26.87</ele>
      </trkpt>
      <trkpt lat="59.86548707820475" lon="29.93332101032138">
        <ele>27.09</ele>
      </trkpt>
      <trkpt lat="59.86535606905818" lon="29.933806406334043">
        <ele>27.28</ele>
      </trkpt>
      <trkpt lat="59.86522497609258" lon="29.934291802346706">
        <ele>27.47</ele>
      </trkpt>
      <trkpt lat="59.865093966946006" lon="29.93477719835937">
        <ele>27.44</ele>
      </trkpt>
      <trkpt lat="59.8649628739804" lon="29.935262594372034">
        <ele>27.42</ele>
      </trkpt>
      <trkpt lat="59.86483454704285" lon="29.93573784828186">
        <ele>27.45</ele>
      </trkpt>
      <trkpt lat="59.864829098805785" lon="29.936206061393023">
        <ele>27.67</ele>
      </trkpt>
      <trkpt lat="59.86482381820679" lon="29.936671257019043">
        <ele>27.95</ele>
      </trkpt>
      <trkpt lat="59.86493680626154" lon="29.9371016677469">
        <ele>28.24</ele>
      </trkpt>
      <trkpt lat="59.86504920758307" lon="29.93752956390381">
        <ele>28.46</ele>
      </trkpt>
      <trkpt lat="59.86521583981812" lon="29.93779300712049">
        <ele>28.57</ele>
      </trkpt>
      <trkpt lat="59.865381717681885" lon="29.938055276870728">
        <ele>28.63</ele>
      </trkpt>
      <trkpt lat="59.86558590084314" lon="29.938189554959536">
        <ele>28.65</ele>
      </trkpt>
      <trkpt lat="59.86578941345215" lon="29.938323497772217">
        <ele>28.59</ele>
      </trkpt>
      <trkpt lat="59.866015054285526" lon="29.938344955444336">
        <ele>28.52</ele>
      </trkpt>
      <trkpt lat="59.86624002456665" lon="29.938366413116455">
        <ele>28.42</ele>
      </trkpt>
      <trkpt lat="59.86651947721839" lon="29.938296508044004">
        <ele>28.25</ele>
      </trkpt>
      <trkpt lat="59.86679800786078" lon="29.93822693824768">
        <ele>28.07</ele>
      </trkpt>
      <trkpt lat="59.8669801466167" lon="29.93823037482798">
        <ele>27.84</ele>
      </trkpt>
      <trkpt lat="59.86716169863939" lon="29.938233895227313">
        <ele>27.67</ele>
      </trkpt>
      <trkpt lat="59.86741273663938" lon="29.93823867291212">
        <ele>27.46</ele>
      </trkpt>
      <trkpt lat="59.8676638584584" lon="29.93824353441596">
        <ele>27.43</ele>
      </trkpt>
      <trkpt lat="59.86791372299194" lon="29.9382483959198">
        <ele>27.36</ele>
      </trkpt>
      <trkpt lat="59.86795663833618" lon="29.93825912475586">
        <ele>27.31</ele>
      </trkpt>
      <trkpt lat="59.86816082149744" lon="29.938377309590578">
        <ele>27.27</ele>
      </trkpt>
      <trkpt lat="59.868364334106445" lon="29.93849515914917">
        <ele>27.26</ele>
      </trkpt>
      <trkpt lat="59.868568601086736" lon="29.938738821074367">
        <ele>27.32</ele>
      </trkpt>
      <trkpt lat="59.868772868067026" lon="29.938982482999563">
        <ele>27.31</ele>
      </trkpt>
      <trkpt lat="59.86897587776184" lon="29.93922472000122">
        <ele>27.26</ele>
      </trkpt>
      <trkpt lat="59.86916296184063" lon="29.93958824314177">
        <ele>27.35</ele>
      </trkpt>
      <trkpt lat="59.86935012973845" lon="29.93995176628232">
        <ele>27.38</ele>
      </trkpt>
      <trkpt lat="59.86953729763627" lon="29.94031528942287">
        <ele>27.4</ele>
      </trkpt>
      <trkpt lat="59.86972438171506" lon="29.94067881256342">
        <ele>27.37</ele>
      </trkpt>
      <trkpt lat="59.86990928649902" lon="29.941037893295288">
        <ele>27.35</ele>
      </trkpt>
      <trkpt lat="59.87012428231537" lon="29.94133352302015">
        <ele>27.34</ele>
      </trkpt>
      <trkpt lat="59.870338439941406" lon="29.941627979278564">
        <ele>27.44</ele>
      </trkpt>
      <trkpt lat="59.87058780156076" lon="29.94183643721044">
        <ele>27.5</ele>
      </trkpt>
      <trkpt lat="59.87083716318011" lon="29.94204497896135">
        <ele>27.59</ele>
      </trkpt>
      <trkpt lat="59.871086524799466" lon="29.942253520712256">
        <ele>27.68</ele>
      </trkpt>
      <trkpt lat="59.87133597023785" lon="29.942462062463164">
        <ele>27.73</ele>
      </trkpt>
      <trkpt lat="59.871582984924316" lon="29.942668676376343">
        <ele>27.71</ele>
      </trkpt>
      <trkpt lat="59.87179429270327" lon="29.94270807132125">
        <ele>27.67</ele>
      </trkpt>
      <trkpt lat="59.87200568430126" lon="29.942747466266155">
        <ele>27.61</ele>
      </trkpt>
      <trkpt lat="59.87221598625183" lon="29.942786693572998">
        <ele>27.5</ele>
      </trkpt>
      <trkpt lat="59.87221607007086" lon="29.942786693572998">
        <ele>27.44</ele>
      </trkpt>
      <trkpt lat="59.872355461120605" lon="29.942786693572998">
        <ele>27.34</ele>
      </trkpt>
      <trkpt lat="59.872515220195055" lon="29.94277847930789">
        <ele>27.23</ele>
      </trkpt>
      <trkpt lat="59.872674476355314" lon="29.942770348861814">
        <ele>27.13</ele>
      </trkpt>
      <trkpt lat="59.87277388572693" lon="29.94276523590088">
        <ele>27.11</ele>
      </trkpt>
      <trkpt lat="59.87299969419837" lon="29.94243993423879">
        <ele>27.24</ele>
      </trkpt>
      <trkpt lat="59.87322550266981" lon="29.942114632576704">
        <ele>27.37</ele>
      </trkpt>
      <trkpt lat="59.87345131114125" lon="29.94178941473365">
        <ele>27.43</ele>
      </trkpt>
      <trkpt lat="59.87367510795593" lon="29.94146704673767">
        <ele>27.56</ele>
      </trkpt>
      <trkpt lat="59.87395456060767" lon="29.94134877808392">
        <ele>27.55</ele>
      </trkpt>
      <trkpt lat="59.87423401325941" lon="29.9412305932492">
        <ele>27.54</ele>
      </trkpt>
      <trkpt lat="59.87451204098761" lon="29.941112995147705">
        <ele>27.45</ele>
      </trkpt>
      <trkpt lat="59.87463567405939" lon="29.940612595528364">
        <ele>27.6</ele>
      </trkpt>
      <trkpt lat="59.87475872039795" lon="29.940115213394165">
        <ele>27.65</ele>
      </trkpt>
      <trkpt lat="59.87481253221631" lon="29.939607102423906">
        <ele>27.76</ele>
      </trkpt>
      <trkpt lat="59.87486634403467" lon="29.93909907527268">
        <ele>27.86</ele>
      </trkpt>
      <trkpt lat="59.87492015585303" lon="29.93859096430242">
        <ele>27.84</ele>
      </trkpt>
      <trkpt lat="59.874973967671394" lon="29.938082937151194">
        <ele>27.86</ele>
      </trkpt>
      <trkpt lat="59.87502694129944" lon="29.937583208084106">
        <ele>27.95</ele>
      </trkpt>
      <trkpt lat="59.87502702511847" lon="29.937583208084106">
        <ele>28.06</ele>
      </trkpt>
      <trkpt lat="59.8749893065542" lon="29.93702882900834">
        <ele>28.24</ele>
      </trkpt>
      <trkpt lat="59.87495192326605" lon="29.93647813796997">
        <ele>28.36</ele>
      </trkpt>
      <trkpt lat="59.87489802762866" lon="29.9359377566725">
        <ele>28.54</ele>
      </trkpt>
      <trkpt lat="59.8748442158103" lon="29.935397375375032">
        <ele>28.53</ele>
      </trkpt>
      <trkpt lat="59.87479040399194" lon="29.934856994077563">
        <ele>28.36</ele>
      </trkpt>
      <trkpt lat="59.874736508354545" lon="29.934316612780094">
        <ele>28.18</ele>
      </trkpt>
      <trkpt lat="59.87468361854553" lon="29.93378520011902">
        <ele>28.05</ele>
      </trkpt>
      <trkpt lat="59.874687138944864" lon="29.93324331007898">
        <ele>27.97</ele>
      </trkpt>
      <trkpt lat="59.87469074316323" lon="29.93270150385797">
        <ele>27.97</ele>
      </trkpt>
      <trkpt lat="59.87469434738159" lon="29.932165145874023">
        <ele>28.14</ele>
      </trkpt>
      <trkpt lat="59.87469443120062" lon="29.932165145874023">
        <ele>28.42</ele>
      </trkpt>
      <trkpt lat="59.87473382614553" lon="29.931709421798587">
        <ele>28.9</ele>
      </trkpt>
      <trkpt lat="59.87477330490947" lon="29.93125369772315">
        <ele>29.35</ele>
      </trkpt>
      <trkpt lat="59.87481236457825" lon="29.930802583694458">
        <ele>29.68</ele>
      </trkpt>
      <trkpt lat="59.87491990439594" lon="29.93037569336593">
        <ele>29.86</ele>
      </trkpt>
      <trkpt lat="59.87502752803266" lon="29.929948803037405">
        <ele>29.98</ele>
      </trkpt>
      <trkpt lat="59.875134229660034" lon="29.92952585220337">
        <ele>29.92</ele>
      </trkpt>
      <trkpt lat="59.875349309295416" lon="29.929074067622423">
        <ele>29.45</ele>
      </trkpt>
      <trkpt lat="59.87556338310242" lon="29.928624629974365">
        <ele>28.71</ele>
      </trkpt>
      <trkpt lat="59.87579992040992" lon="29.928348613902926">
        <ele>28.27</ele>
      </trkpt>
      <trkpt lat="59.87603645771742" lon="29.92807268165052">
        <ele>27.88</ele>
      </trkpt>
      <trkpt lat="59.87627157010138" lon="29.92779850959778">
        <ele>27.44</ele>
      </trkpt>
      <trkpt lat="59.876135531812906" lon="29.927705889567733">
        <ele>27.3</ele>
      </trkpt>
    </trkseg>
  </trk>
</gpx>
