<?xml version="1.0" encoding="UTF-8"?>
<gpx creator="Garmin Connect" version="1.1"
  xsi:schemaLocation="http://www.topografix.com/GPX/1/1 http://www.topografix.com/GPX/11.xsd"
  xmlns:ns3="http://www.garmin.com/xmlschemas/TrackPointExtension/v1"
  xmlns="http://www.topografix.com/GPX/1/1"
  xmlns:xsi="http://www.w3.org/2001/XMLSchema-instance" xmlns:ns2="http://www.garmin.com/xmlschemas/GpxExtensions/v3">
  <metadata>
    <name>Приморский парк Победы
Крестовский остров Бег 10 км</name>
    <link href="connect.garmin.com">
      <text>Garmin Connect</text>
    </link>
    <time>2026-09-24T21:35:51.000Z</time>
  </metadata>
  <trk>
    <name>Приморский парк Победы
Крестовский остров Бег 10 км</name>
    <trkseg>
      <trkpt lat="59.971264600753784" lon="30.258654356002808">
        <ele>7.28</ele>
      </trkpt>
      <trkpt lat="59.971264684572816" lon="30.258654356002808">
        <ele>7.55</ele>
      </trkpt>
      <trkpt lat="59.971264600753784" lon="30.258654356002808">
        <ele>7.71</ele>
      </trkpt>
      <trkpt lat="59.971050107851624" lon="30.258675813674927">
        <ele>8.2</ele>
      </trkpt>
      <trkpt lat="59.97099646367133" lon="30.258686542510986">
        <ele>8.58</ele>
      </trkpt>
      <trkpt lat="59.970691949129105" lon="30.258743790909648">
        <ele>8.77</ele>
      </trkpt>
      <trkpt lat="59.97038743458688" lon="30.25880112312734">
        <ele>9.01</ele>
      </trkpt>
      <trkpt lat="59.97008451260626" lon="30.25885820388794">
        <ele>9.21</ele>
      </trkpt>
      <trkpt lat="59.96984847821295" lon="30.258901119232178">
        <ele>9.37</ele>
      </trkpt>
      <trkpt lat="59.96960842050612" lon="30.258940514177084">
        <ele>9.61</ele>
      </trkpt>
      <trkpt lat="59.96936836279929" lon="30.25897990912199">
        <ele>9.81</ele>
      </trkpt>
      <trkpt lat="59.96912956237793" lon="30.259019136428833">
        <ele>9.99</ele>
      </trkpt>
      <trkpt lat="59.969043815508485" lon="30.258986949920654">
        <ele>10.14</ele>
      </trkpt>
      <trkpt lat="59.96892579831183" lon="30.259029865264893">
        <ele>10.32</ele>
      </trkpt>
      <trkpt lat="59.96886134147644" lon="30.259040594100952">
        <ele>10.55</ele>
      </trkpt>
      <trkpt lat="59.96886142529547" lon="30.259040594100952">
        <ele>11.12</ele>
      </trkpt>
      <trkpt lat="59.96885061264038" lon="30.259008407592773">
        <ele>11.3</ele>
      </trkpt>
      <trkpt lat="59.96879696846008" lon="30.259201526641846">
        <ele>11.5</ele>
      </trkpt>
      <trkpt lat="59.96859320439398" lon="30.259233713150024">
        <ele>11.73</ele>
      </trkpt>
      <trkpt lat="59.96840000152588" lon="30.259265899658203">
        <ele>11.98</ele>
      </trkpt>
      <trkpt lat="59.96840008534491" lon="30.259265899658203">
        <ele>12.32</ele>
      </trkpt>
      <trkpt lat="59.96809909120202" lon="30.259316945448518">
        <ele>12.22</ele>
      </trkpt>
      <trkpt lat="59.96779818087816" lon="30.259367991238832">
        <ele>12.11</ele>
      </trkpt>
      <trkpt lat="59.967497270554304" lon="30.259419037029147">
        <ele>11.96</ele>
      </trkpt>
      <trkpt lat="59.96719845570624" lon="30.259469747543335">
        <ele>11.83</ele>
      </trkpt>
      <trkpt lat="59.96718202717602" lon="30.259475195780396">
        <ele>11.62</ele>
      </trkpt>
      <trkpt lat="59.96716618537903" lon="30.259480476379395">
        <ele>11.08</ele>
      </trkpt>
      <trkpt lat="59.96710181236267" lon="30.2593195438385">
        <ele>10.81</ele>
      </trkpt>
      <trkpt lat="59.96693015098572" lon="30.259287357330322">
        <ele>10.38</ele>
      </trkpt>
      <trkpt lat="59.96687659062445" lon="30.259147882461548">
        <ele>8.46</ele>
      </trkpt>
      <trkpt lat="59.96667768806219" lon="30.258997343480587">
        <ele>7.72</ele>
      </trkpt>
      <trkpt lat="59.966479539871216" lon="30.25884747505188">
        <ele>6.92</ele>
      </trkpt>
      <trkpt lat="59.96647962369025" lon="30.25884747505188">
        <ele>6.39</ele>
      </trkpt>
      <trkpt lat="59.966343669220805" lon="30.25869458913803">
        <ele>5.86</ele>
      </trkpt>
      <trkpt lat="59.96613630093634" lon="30.258461236953735">
        <ele>4.93</ele>
      </trkpt>
      <trkpt lat="59.96616119518876" lon="30.257937535643578">
        <ele>4.72</ele>
      </trkpt>
      <trkpt lat="59.96616848744452" lon="30.257785320281982">
        <ele>4.41</ele>
      </trkpt>
      <trkpt lat="59.96628675609827" lon="30.257505616173148">
        <ele>4.51</ele>
      </trkpt>
      <trkpt lat="59.96640452183783" lon="30.257227420806885">
        <ele>4.62</ele>
      </trkpt>
      <trkpt lat="59.966490268707275" lon="30.25709867477417">
        <ele>4.79</ele>
      </trkpt>
      <trkpt lat="59.96660836972296" lon="30.25681972503662">
        <ele>5.07</ele>
      </trkpt>
      <trkpt lat="59.9665976408869" lon="30.256229639053345">
        <ele>5.2</ele>
      </trkpt>
      <trkpt lat="59.96659755706787" lon="30.256229639053345">
        <ele>5.56</ele>
      </trkpt>
      <trkpt lat="59.96675890870392" lon="30.25584591552615">
        <ele>7.19</ele>
      </trkpt>
      <trkpt lat="59.966920260339975" lon="30.25546227581799">
        <ele>7.9</ele>
      </trkpt>
      <trkpt lat="59.96708035469055" lon="30.25508165359497">
        <ele>8.55</ele>
      </trkpt>
      <trkpt lat="59.96710181236267" lon="30.255028009414673">
        <ele>9.09</ele>
      </trkpt>
      <trkpt lat="59.96713399887085" lon="30.254909992218018">
        <ele>9.58</ele>
      </trkpt>
      <trkpt lat="59.96726844459772" lon="30.254404228180647">
        <ele>10.03</ele>
      </trkpt>
      <trkpt lat="59.96740221977234" lon="30.253901481628418">
        <ele>10.46</ele>
      </trkpt>
      <trkpt lat="59.96761729940772" lon="30.253476602956653">
        <ele>10.97</ele>
      </trkpt>
      <trkpt lat="59.96783145703375" lon="30.253053903579712">
        <ele>11.06</ele>
      </trkpt>
      <trkpt lat="59.96801300905645" lon="30.252638161182404">
        <ele>11.14</ele>
      </trkpt>
      <trkpt lat="59.968193639069796" lon="30.25222459807992">
        <ele>11.16</ele>
      </trkpt>
      <trkpt lat="59.968193639069796" lon="30.252224514260888">
        <ele>11.13</ele>
      </trkpt>
      <trkpt lat="59.968239068984985" lon="30.25212049484253">
        <ele>11.0</ele>
      </trkpt>
      <trkpt lat="59.9683141708374" lon="30.25184154510498">
        <ele>10.7</ele>
      </trkpt>
      <trkpt lat="59.96829262934625" lon="30.25150777772069">
        <ele>10.46</ele>
      </trkpt>
      <trkpt lat="59.968271255493164" lon="30.251176357269287">
        <ele>10.22</ele>
      </trkpt>
      <trkpt lat="59.96824041008949" lon="30.251032523810863">
        <ele>9.99</ele>
      </trkpt>
      <trkpt lat="59.96820696629584" lon="30.25087594985962">
        <ele>9.52</ele>
      </trkpt>
      <trkpt lat="59.9681674875319" lon="30.250255186110735">
        <ele>9.24</ele>
      </trkpt>
      <trkpt lat="59.96812800876796" lon="30.24963442236185">
        <ele>9.0</ele>
      </trkpt>
      <trkpt lat="59.96808894909918" lon="30.249019861221313">
        <ele>8.81</ele>
      </trkpt>
      <trkpt lat="59.96808886528015" lon="30.249019861221313">
        <ele>8.64</ele>
      </trkpt>
      <trkpt lat="59.9681104067713" lon="30.248944759368896">
        <ele>8.5</ele>
      </trkpt>
      <trkpt lat="59.96811032295227" lon="30.248944759368896">
        <ele>8.38</ele>
      </trkpt>
      <trkpt lat="59.96812105178833" lon="30.248783826828003">
        <ele>8.29</ele>
      </trkpt>
      <trkpt lat="59.96809967793524" lon="30.248461961746216">
        <ele>8.26</ele>
      </trkpt>
      <trkpt lat="59.96807268820703" lon="30.248074382543564">
        <ele>8.28</ele>
      </trkpt>
      <trkpt lat="59.968046033754945" lon="30.247689485549927">
        <ele>8.27</ele>
      </trkpt>
      <trkpt lat="59.96804594993591" lon="30.247689485549927">
        <ele>8.28</ele>
      </trkpt>
      <trkpt lat="59.96802097186446" lon="30.2473022416234">
        <ele>8.24</ele>
      </trkpt>
      <trkpt lat="59.967996161431074" lon="30.24691759608686">
        <ele>8.31</ele>
      </trkpt>
      <trkpt lat="59.96798166073859" lon="30.246691703796387">
        <ele>8.51</ele>
      </trkpt>
      <trkpt lat="59.96804594993591" lon="30.246680974960327">
        <ele>8.61</ele>
      </trkpt>
      <trkpt lat="59.968046033754945" lon="30.246680974960327">
        <ele>8.71</ele>
      </trkpt>
      <trkpt lat="59.96804594993591" lon="30.246680974960327">
        <ele>8.82</ele>
      </trkpt>
      <trkpt lat="59.968046033754945" lon="30.246680974960327">
        <ele>9.12</ele>
      </trkpt>
      <trkpt lat="59.968228340148926" lon="30.24664878845215">
        <ele>9.23</ele>
      </trkpt>
      <trkpt lat="59.96822842396796" lon="30.24664878845215">
        <ele>9.44</ele>
      </trkpt>
      <trkpt lat="59.968217611312866" lon="30.246293479576707">
        <ele>9.55</ele>
      </trkpt>
      <trkpt lat="59.96820688247681" lon="30.245940685272217">
        <ele>9.57</ele>
      </trkpt>
      <trkpt lat="59.96817477978766" lon="30.24565100669861">
        <ele>9.57</ele>
      </trkpt>
      <trkpt lat="59.96809967793524" lon="30.24513602256775">
        <ele>9.57</ele>
      </trkpt>
      <trkpt lat="59.96807453222573" lon="30.244608549401164">
        <ele>9.45</ele>
      </trkpt>
      <trkpt lat="59.96804938651621" lon="30.24408107623458">
        <ele>9.41</ele>
      </trkpt>
      <trkpt lat="59.968024576082826" lon="30.243558883666992">
        <ele>9.4</ele>
      </trkpt>
      <trkpt lat="59.968024492263794" lon="30.243558883666992">
        <ele>9.31</ele>
      </trkpt>
      <trkpt lat="59.96801904402673" lon="30.243047503754497">
        <ele>9.17</ele>
      </trkpt>
      <trkpt lat="59.9680136796087" lon="30.242536207661033">
        <ele>8.93</ele>
      </trkpt>
      <trkpt lat="59.96800831519067" lon="30.242024827748537">
        <ele>8.75</ele>
      </trkpt>
      <trkpt lat="59.968003034591675" lon="30.241520404815674">
        <ele>8.67</ele>
      </trkpt>
      <trkpt lat="59.96808299794793" lon="30.241222511976957">
        <ele>8.58</ele>
      </trkpt>
      <trkpt lat="59.96816254220903" lon="30.24092654697597">
        <ele>8.51</ele>
      </trkpt>
      <trkpt lat="59.96819615364075" lon="30.240801572799683">
        <ele>8.41</ele>
      </trkpt>
      <trkpt lat="59.96820696629584" lon="30.240747928619385">
        <ele>8.37</ele>
      </trkpt>
      <trkpt lat="59.96822842396796" lon="30.240672826766968">
        <ele>8.32</ele>
      </trkpt>
      <trkpt lat="59.968228340148926" lon="30.240672826766968">
        <ele>8.28</ele>
      </trkpt>
      <trkpt lat="59.96833227574825" lon="30.24030695669353">
        <ele>8.25</ele>
      </trkpt>
      <trkpt lat="59.96843629516661" lon="30.239941086620092">
        <ele>8.25</ele>
      </trkpt>
      <trkpt lat="59.96853947639465" lon="30.23957848548889">
        <ele>8.19</ele>
      </trkpt>
      <trkpt lat="59.968609465286136" lon="30.23918017745018">
        <ele>8.11</ele>
      </trkpt>
      <trkpt lat="59.96867903508246" lon="30.238784551620483">
        <ele>7.93</ele>
      </trkpt>
      <trkpt lat="59.96867895126343" lon="30.238784551620483">
        <ele>7.83</ele>
      </trkpt>
      <trkpt lat="59.96870049275458" lon="30.23864507675171">
        <ele>7.72</ele>
      </trkpt>
      <trkpt lat="59.96870040893555" lon="30.23864507675171">
        <ele>7.59</ele>
      </trkpt>
      <trkpt lat="59.96870049275458" lon="30.23864507675171">
        <ele>7.29</ele>
      </trkpt>
      <trkpt lat="59.96870585717261" lon="30.23804761469364">
        <ele>7.06</ele>
      </trkpt>
      <trkpt lat="59.96871122159064" lon="30.237454175949097">
        <ele>6.94</ele>
      </trkpt>
      <trkpt lat="59.96871122159064" lon="30.236917734146118">
        <ele>6.76</ele>
      </trkpt>
      <trkpt lat="59.9687219504267" lon="30.236735343933105">
        <ele>6.55</ele>
      </trkpt>
      <trkpt lat="59.96878799982369" lon="30.23620929569006">
        <ele>6.37</ele>
      </trkpt>
      <trkpt lat="59.96885413303971" lon="30.235683331266046">
        <ele>6.15</ele>
      </trkpt>
      <trkpt lat="59.968920266255736" lon="30.23515736684203">
        <ele>5.87</ele>
      </trkpt>
      <trkpt lat="59.96898639947176" lon="30.234631318598986">
        <ele>5.63</ele>
      </trkpt>
      <trkpt lat="59.96905244886875" lon="30.23410535417497">
        <ele>5.33</ele>
      </trkpt>
      <trkpt lat="59.969118582084775" lon="30.233579389750957">
        <ele>5.08</ele>
      </trkpt>
      <trkpt lat="59.96918320655823" lon="30.233065327629447">
        <ele>4.93</ele>
      </trkpt>
      <trkpt lat="59.96919401921332" lon="30.232980251312256">
        <ele>4.88</ele>
      </trkpt>
      <trkpt lat="59.96919393539429" lon="30.232980251312256">
        <ele>4.94</ele>
      </trkpt>
      <trkpt lat="59.969258392229676" lon="30.232422351837158">
        <ele>5.09</ele>
      </trkpt>
      <trkpt lat="59.969269121065736" lon="30.23188591003418">
        <ele>5.38</ele>
      </trkpt>
      <trkpt lat="59.969269037246704" lon="30.23184299468994">
        <ele>5.59</ele>
      </trkpt>
      <trkpt lat="59.969290578737855" lon="30.231435298919678">
        <ele>5.93</ele>
      </trkpt>
      <trkpt lat="59.969312036409974" lon="30.23141384124756">
        <ele>6.17</ele>
      </trkpt>
      <trkpt lat="59.96935486793518" lon="30.23137092590332">
        <ele>6.42</ele>
      </trkpt>
      <trkpt lat="59.96935486793518" lon="30.231252908706665">
        <ele>6.68</ele>
      </trkpt>
      <trkpt lat="59.96935495175421" lon="30.231252908706665">
        <ele>6.89</ele>
      </trkpt>
      <trkpt lat="59.96935486793518" lon="30.23113489151001">
        <ele>7.11</ele>
      </trkpt>
      <trkpt lat="59.969296948984265" lon="30.23105383850634">
        <ele>7.47</ele>
      </trkpt>
      <trkpt lat="59.969247579574585" lon="30.230984687805176">
        <ele>7.29</ele>
      </trkpt>
      <trkpt lat="59.96924766339362" lon="30.230984687805176">
        <ele>7.14</ele>
      </trkpt>
      <trkpt lat="59.969247579574585" lon="30.230984687805176">
        <ele>6.93</ele>
      </trkpt>
      <trkpt lat="59.96924766339362" lon="30.230984687805176">
        <ele>6.03</ele>
      </trkpt>
      <trkpt lat="59.96929870918393" lon="30.23046257905662">
        <ele>5.61</ele>
      </trkpt>
      <trkpt lat="59.96934983879328" lon="30.229940554127097">
        <ele>5.0</ele>
      </trkpt>
      <trkpt lat="59.969400968402624" lon="30.229418445378542">
        <ele>4.5</ele>
      </trkpt>
      <trkpt lat="59.96945142745972" lon="30.22890329360962">
        <ele>4.05</ele>
      </trkpt>
      <trkpt lat="59.96945151127875" lon="30.22890329360962">
        <ele>3.66</ele>
      </trkpt>
      <trkpt lat="59.96945142745972" lon="30.22890329360962">
        <ele>3.3</ele>
      </trkpt>
      <trkpt lat="59.96945151127875" lon="30.22890329360962">
        <ele>2.37</ele>
      </trkpt>
      <trkpt lat="59.96940851211548" lon="30.22889256477356">
        <ele>2.11</ele>
      </trkpt>
      <trkpt lat="59.96934422291815" lon="30.2288818359375">
        <ele>1.87</ele>
      </trkpt>
      <trkpt lat="59.969408763572574" lon="30.228284373879433">
        <ele>1.72</ele>
      </trkpt>
      <trkpt lat="59.969472885131836" lon="30.227690935134888">
        <ele>1.57</ele>
      </trkpt>
      <trkpt lat="59.96941932477057" lon="30.22766947746277">
        <ele>1.37</ele>
      </trkpt>
      <trkpt lat="59.96941924095154" lon="30.22766947746277">
        <ele>1.31</ele>
      </trkpt>
      <trkpt lat="59.96946232393384" lon="30.227158097550273">
        <ele>1.26</ele>
      </trkpt>
      <trkpt lat="59.969505155459046" lon="30.22665023803711">
        <ele>1.26</ele>
      </trkpt>
      <trkpt lat="59.96953382156789" lon="30.226176576688886">
        <ele>1.27</ele>
      </trkpt>
      <trkpt lat="59.96956248767674" lon="30.225702915340662">
        <ele>1.29</ele>
      </trkpt>
      <trkpt lat="59.96959098614752" lon="30.225234031677246">
        <ele>1.24</ele>
      </trkpt>
      <trkpt lat="59.96959090232849" lon="30.225234031677246">
        <ele>1.25</ele>
      </trkpt>
      <trkpt lat="59.96959098614752" lon="30.22513747215271">
        <ele>1.24</ele>
      </trkpt>
      <trkpt lat="59.96962987817824" lon="30.224671689793468">
        <ele>1.26</ele>
      </trkpt>
      <trkpt lat="59.96966851875186" lon="30.22420909255743">
        <ele>1.31</ele>
      </trkpt>
      <trkpt lat="59.96971746906638" lon="30.223622443154454">
        <ele>1.25</ele>
      </trkpt>
      <trkpt lat="59.969766503199935" lon="30.22303587757051">
        <ele>1.08</ele>
      </trkpt>
      <trkpt lat="59.96981553733349" lon="30.222449311986566">
        <ele>0.92</ele>
      </trkpt>
      <trkpt lat="59.96986457146704" lon="30.22186266258359">
        <ele>0.74</ele>
      </trkpt>
      <trkpt lat="59.96991276741028" lon="30.221285820007324">
        <ele>0.67</ele>
      </trkpt>
      <trkpt lat="59.96984847821295" lon="30.220985412597656">
        <ele>0.56</ele>
      </trkpt>
      <trkpt lat="59.96984839439392" lon="30.220985412597656">
        <ele>0.43</ele>
      </trkpt>
      <trkpt lat="59.969894997775555" lon="30.22044712677598">
        <ele>0.23</ele>
      </trkpt>
      <trkpt lat="59.96994168497622" lon="30.219908924773335">
        <ele>0.08</ele>
      </trkpt>
      <trkpt lat="59.96998795308173" lon="30.21937608718872">
        <ele>-0.07</ele>
      </trkpt>
      <trkpt lat="59.969987869262695" lon="30.21937608718872">
        <ele>-0.19</ele>
      </trkpt>
      <trkpt lat="59.970047045499086" lon="30.21899395622313">
        <ele>-0.25</ele>
      </trkpt>
      <trkpt lat="59.97010588645935" lon="30.21861433982849">
        <ele>-0.35</ele>
      </trkpt>
      <trkpt lat="59.97020252980292" lon="30.21836757659912">
        <ele>-0.48</ele>
      </trkpt>
      <trkpt lat="59.97022398747504" lon="30.218249559402466">
        <ele>-0.53</ele>
      </trkpt>
      <trkpt lat="59.970223903656006" lon="30.218249559402466">
        <ele>-0.57</ele>
      </trkpt>
      <trkpt lat="59.970261538401246" lon="30.217931969091296">
        <ele>-0.57</ele>
      </trkpt>
      <trkpt lat="59.97029900550842" lon="30.21761655807495">
        <ele>-0.56</ele>
      </trkpt>
      <trkpt lat="59.9702347163111" lon="30.217251777648926">
        <ele>-0.62</ele>
      </trkpt>
      <trkpt lat="59.970256173983216" lon="30.21718740463257">
        <ele>-0.57</ele>
      </trkpt>
      <trkpt lat="59.97035834938288" lon="30.21684307605028">
        <ele>-0.46</ele>
      </trkpt>
      <trkpt lat="59.97046002186835" lon="30.216500759124756">
        <ele>-0.38</ele>
      </trkpt>
      <trkpt lat="59.970459938049316" lon="30.216500759124756">
        <ele>-0.28</ele>
      </trkpt>
      <trkpt lat="59.97062095440924" lon="30.21611452102661">
        <ele>-0.1</ele>
      </trkpt>
      <trkpt lat="59.97079295106232" lon="30.215824088081717">
        <ele>0.07</ele>
      </trkpt>
      <trkpt lat="59.97096503153443" lon="30.215533738955855">
        <ele>0.17</ele>
      </trkpt>
      <trkpt lat="59.9711359385401" lon="30.215245485305786">
        <ele>0.26</ele>
      </trkpt>
      <trkpt lat="59.97135629877448" lon="30.214949771761894">
        <ele>0.34</ele>
      </trkpt>
      <trkpt lat="59.97157573699951" lon="30.21465539932251">
        <ele>0.4</ele>
      </trkpt>
      <trkpt lat="59.97150038369" lon="30.21424636244774">
        <ele>0.44</ele>
      </trkpt>
      <trkpt lat="59.97142553329468" lon="30.213840007781982">
        <ele>0.35</ele>
      </trkpt>
      <trkpt lat="59.97134297154844" lon="30.213380763307214">
        <ele>0.34</ele>
      </trkpt>
      <trkpt lat="59.97126049362123" lon="30.212921518832445">
        <ele>0.38</ele>
      </trkpt>
      <trkpt lat="59.97117885388434" lon="30.212466716766357">
        <ele>0.3</ele>
      </trkpt>
      <trkpt lat="59.97111959382892" lon="30.212143762037158">
        <ele>0.23</ele>
      </trkpt>
      <trkpt lat="59.971060836687684" lon="30.211822986602783">
        <ele>0.13</ele>
      </trkpt>
      <trkpt lat="59.971007192507386" lon="30.211576223373413">
        <ele>0.0</ele>
      </trkpt>
      <trkpt lat="59.97094281949103" lon="30.211265087127686">
        <ele>-0.07</ele>
      </trkpt>
      <trkpt lat="59.97093200683594" lon="30.210996866226196">
        <ele>-0.13</ele>
      </trkpt>
      <trkpt lat="59.971007108688354" lon="30.21087884902954">
        <ele>-0.18</ele>
      </trkpt>
      <trkpt lat="59.97080326080322" lon="30.21066427230835">
        <ele>-0.22</ele>
      </trkpt>
      <trkpt lat="59.97100744396448" lon="30.2105460036546">
        <ele>-0.25</ele>
      </trkpt>
      <trkpt lat="59.971210956573486" lon="30.21042823791504">
        <ele>-0.2</ele>
      </trkpt>
      <trkpt lat="59.971436597406864" lon="30.21037987433374">
        <ele>-0.16</ele>
      </trkpt>
      <trkpt lat="59.97166156768799" lon="30.210331678390503">
        <ele>-0.15</ele>
      </trkpt>
      <trkpt lat="59.97166165150702" lon="30.210331678390503">
        <ele>-0.16</ele>
      </trkpt>
      <trkpt lat="59.97191419824958" lon="30.210283314809203">
        <ele>-0.2</ele>
      </trkpt>
      <trkpt lat="59.97216590680182" lon="30.210235118865967">
        <ele>-0.28</ele>
      </trkpt>
      <trkpt lat="59.97233061119914" lon="30.210232017561793">
        <ele>-0.33</ele>
      </trkpt>
      <trkpt lat="59.97249481268227" lon="30.21022900007665">
        <ele>-0.29</ele>
      </trkpt>
      <trkpt lat="59.972745180130005" lon="30.210224390029907">
        <ele>-0.23</ele>
      </trkpt>
      <trkpt lat="59.97305681928992" lon="30.210256576538086">
        <ele>-0.22</ele>
      </trkpt>
      <trkpt lat="59.97336845844984" lon="30.210288846865296">
        <ele>-0.24</ele>
      </trkpt>
      <trkpt lat="59.97368009760976" lon="30.210321033373475">
        <ele>-0.18</ele>
      </trkpt>
      <trkpt lat="59.973989725112915" lon="30.210353136062622">
        <ele>-0.06</ele>
      </trkpt>
      <trkpt lat="59.97429063543677" lon="30.2105304133147">
        <ele>-0.03</ele>
      </trkpt>
      <trkpt lat="59.97459053993225" lon="30.210707187652588">
        <ele>0.02</ele>
      </trkpt>
      <trkpt lat="59.97485565952957" lon="30.210961578413844">
        <ele>0.07</ele>
      </trkpt>
      <trkpt lat="59.975120862945914" lon="30.2112159691751">
        <ele>0.2</ele>
      </trkpt>
      <trkpt lat="59.97538447380066" lon="30.211468935012817">
        <ele>0.19</ele>
      </trkpt>
      <trkpt lat="59.975624615326524" lon="30.21185601130128">
        <ele>0.24</ele>
      </trkpt>
      <trkpt lat="59.97586475685239" lon="30.212243171408772">
        <ele>0.29</ele>
      </trkpt>
      <trkpt lat="59.97610330581665" lon="30.21262764930725">
        <ele>0.34</ele>
      </trkpt>
      <trkpt lat="59.97625317424536" lon="30.213012378662825">
        <ele>0.38</ele>
      </trkpt>
      <trkpt lat="59.976403042674065" lon="30.2133971080184">
        <ele>0.46</ele>
      </trkpt>
      <trkpt lat="59.97655173763633" lon="30.21377881988883">
        <ele>0.52</ele>
      </trkpt>
      <trkpt lat="59.97668727301061" lon="30.214126836508512">
        <ele>0.52</ele>
      </trkpt>
      <trkpt lat="59.97682213783264" lon="30.214473009109497">
        <ele>0.52</ele>
      </trkpt>
      <trkpt lat="59.976911740377545" lon="30.214892691001296">
        <ele>0.53</ele>
      </trkpt>
      <trkpt lat="59.97700142674148" lon="30.215312372893095">
        <ele>0.49</ele>
      </trkpt>
      <trkpt lat="59.97709035873413" lon="30.215728282928467">
        <ele>0.51</ele>
      </trkpt>
      <trkpt lat="59.97716562822461" lon="30.216126423329115">
        <ele>0.45</ele>
      </trkpt>
      <trkpt lat="59.977240562438965" lon="30.216522216796875">
        <ele>0.39</ele>
      </trkpt>
      <trkpt lat="59.977272832766175" lon="30.21705505438149">
        <ele>0.38</ele>
      </trkpt>
      <trkpt lat="59.97730493545532" lon="30.217584371566772">
        <ele>0.3</ele>
      </trkpt>
      <trkpt lat="59.977272748947144" lon="30.21816372871399">
        <ele>0.25</ele>
      </trkpt>
      <trkpt lat="59.97714400291443" lon="30.21836757659912">
        <ele>0.17</ele>
      </trkpt>
      <trkpt lat="59.97711525298655" lon="30.21896319463849">
        <ele>-0.17</ele>
      </trkpt>
      <trkpt lat="59.977086586877704" lon="30.21955881267786">
        <ele>-0.32</ele>
      </trkpt>
      <trkpt lat="59.97705817222595" lon="30.22014856338501">
        <ele>-0.33</ele>
      </trkpt>
      <trkpt lat="59.97704744338989" lon="30.220491886138916">
        <ele>-0.23</ele>
      </trkpt>
      <trkpt lat="59.97702741064131" lon="30.22107157856226">
        <ele>-0.2</ele>
      </trkpt>
      <trkpt lat="59.977007461711764" lon="30.221651354804635">
        <ele>0.0</ele>
      </trkpt>
      <trkpt lat="59.976987512782216" lon="30.22223113104701">
        <ele>0.13</ele>
      </trkpt>
      <trkpt lat="59.976967480033636" lon="30.222810907289386">
        <ele>0.24</ele>
      </trkpt>
      <trkpt lat="59.97694753110409" lon="30.22339068353176">
        <ele>0.51</ele>
      </trkpt>
      <trkpt lat="59.97692758217454" lon="30.223970459774137">
        <ele>0.65</ele>
      </trkpt>
      <trkpt lat="59.97690805234015" lon="30.224536657333374">
        <ele>0.72</ele>
      </trkpt>
      <trkpt lat="59.97695096768439" lon="30.224815607070923">
        <ele>0.95</ele>
      </trkpt>
      <trkpt lat="59.97688659466803" lon="30.225008726119995">
        <ele>1.18</ele>
      </trkpt>
      <trkpt lat="59.976861448958516" lon="30.225467970594764">
        <ele>1.5</ele>
      </trkpt>
      <trkpt lat="59.976836303249" lon="30.225927298888564">
        <ele>1.84</ele>
      </trkpt>
      <trkpt lat="59.976811492815614" lon="30.22638201713562">
        <ele>2.22</ele>
      </trkpt>
      <trkpt lat="59.976800763979554" lon="30.226693153381348">
        <ele>2.43</ele>
      </trkpt>
      <trkpt lat="59.976761201396585" lon="30.227285167202353">
        <ele>2.49</ele>
      </trkpt>
      <trkpt lat="59.97672172263265" lon="30.22787718102336">
        <ele>2.52</ele>
      </trkpt>
      <trkpt lat="59.97668266296387" lon="30.228463411331177">
        <ele>2.56</ele>
      </trkpt>
      <trkpt lat="59.9766827467829" lon="30.228463411331177">
        <ele>2.63</ele>
      </trkpt>
      <trkpt lat="59.9766396638006" lon="30.22900697775185">
        <ele>2.65</ele>
      </trkpt>
      <trkpt lat="59.97659691609442" lon="30.229547023773193">
        <ele>2.71</ele>
      </trkpt>
      <trkpt lat="59.9765807390213" lon="30.230026049539447">
        <ele>2.83</ele>
      </trkpt>
      <trkpt lat="59.97656456194818" lon="30.2305050753057">
        <ele>2.83</ele>
      </trkpt>
      <trkpt lat="59.97654846869409" lon="30.230984101071954">
        <ele>2.7</ele>
      </trkpt>
      <trkpt lat="59.976532543078065" lon="30.231456756591797">
        <ele>2.67</ele>
      </trkpt>
      <trkpt lat="59.97654318809509" lon="30.231682062149048">
        <ele>2.66</ele>
      </trkpt>
      <trkpt lat="59.976543271914124" lon="30.231682062149048">
        <ele>2.65</ele>
      </trkpt>
      <trkpt lat="59.976500272750854" lon="30.231853723526">
        <ele>2.66</ele>
      </trkpt>
      <trkpt lat="59.976479820907116" lon="30.232430649921298">
        <ele>2.76</ele>
      </trkpt>
      <trkpt lat="59.97645936906338" lon="30.233007660135627">
        <ele>2.77</ele>
      </trkpt>
      <trkpt lat="59.97643891721964" lon="30.233584670349956">
        <ele>2.75</ele>
      </trkpt>
      <trkpt lat="59.9764184653759" lon="30.234161680564284">
        <ele>2.75</ele>
      </trkpt>
      <trkpt lat="59.97639801353216" lon="30.234738690778613">
        <ele>2.74</ele>
      </trkpt>
      <trkpt lat="59.97637756168842" lon="30.23531561717391">
        <ele>2.85</ele>
      </trkpt>
      <trkpt lat="59.976357109844685" lon="30.23589262738824">
        <ele>3.03</ele>
      </trkpt>
      <trkpt lat="59.976336658000946" lon="30.236469637602568">
        <ele>3.19</ele>
      </trkpt>
      <trkpt lat="59.97631628997624" lon="30.237046647816896">
        <ele>3.35</ele>
      </trkpt>
      <trkpt lat="59.97629642486572" lon="30.23760437965393">
        <ele>3.46</ele>
      </trkpt>
      <trkpt lat="59.9762749671936" lon="30.237969160079956">
        <ele>3.58</ele>
      </trkpt>
      <trkpt lat="59.97625879012048" lon="30.23850199766457">
        <ele>3.75</ele>
      </trkpt>
      <trkpt lat="59.97624269686639" lon="30.239034835249186">
        <ele>3.82</ele>
      </trkpt>
      <trkpt lat="59.97622651979327" lon="30.2395676728338">
        <ele>3.87</ele>
      </trkpt>
      <trkpt lat="59.97621067799628" lon="30.24009346961975">
        <ele>3.85</ele>
      </trkpt>
      <trkpt lat="59.97618913650513" lon="30.24036169052124">
        <ele>3.83</ele>
      </trkpt>
      <trkpt lat="59.97614630497992" lon="30.24035096168518">
        <ele>3.83</ele>
      </trkpt>
      <trkpt lat="59.97609266079962" lon="30.24034023284912">
        <ele>3.8</ele>
      </trkpt>
      <trkpt lat="59.97606567107141" lon="30.240932246670127">
        <ele>3.67</ele>
      </trkpt>
      <trkpt lat="59.97603876516223" lon="30.241524344310164">
        <ele>3.74</ele>
      </trkpt>
      <trkpt lat="59.97601185925305" lon="30.24211635813117">
        <ele>3.71</ele>
      </trkpt>
      <trkpt lat="59.97598495334387" lon="30.242708455771208">
        <ele>3.46</ele>
      </trkpt>
      <trkpt lat="59.97595804743469" lon="30.243300469592214">
        <ele>3.21</ele>
      </trkpt>
      <trkpt lat="59.9759316444397" lon="30.24388074874878">
        <ele>3.09</ele>
      </trkpt>
      <trkpt lat="59.97585981152952" lon="30.244361450895667">
        <ele>3.06</ele>
      </trkpt>
      <trkpt lat="59.97578806243837" lon="30.244842236861587">
        <ele>3.04</ele>
      </trkpt>
      <trkpt lat="59.975717067718506" lon="30.24531841278076">
        <ele>3.09</ele>
      </trkpt>
      <trkpt lat="59.975760066881776" lon="30.24535059928894">
        <ele>3.13</ele>
      </trkpt>
      <trkpt lat="59.975738525390625" lon="30.245490074157715">
        <ele>3.21</ele>
      </trkpt>
      <trkpt lat="59.97584589757025" lon="30.24559736251831">
        <ele>3.67</ele>
      </trkpt>
      <trkpt lat="59.97603574767709" lon="30.245841024443507">
        <ele>3.86</ele>
      </trkpt>
      <trkpt lat="59.976225681602955" lon="30.246084770187736">
        <ele>4.03</ele>
      </trkpt>
      <trkpt lat="59.97641444206238" lon="30.24632692337036">
        <ele>4.15</ele>
      </trkpt>
      <trkpt lat="59.976478815078735" lon="30.246723890304565">
        <ele>4.28</ele>
      </trkpt>
      <trkpt lat="59.97637236490846" lon="30.24725329130888">
        <ele>4.55</ele>
      </trkpt>
      <trkpt lat="59.976266669109464" lon="30.247779423370957">
        <ele>4.79</ele>
      </trkpt>
      <trkpt lat="59.97615326195955" lon="30.248343693092465">
        <ele>5.1</ele>
      </trkpt>
      <trkpt lat="59.97603985480964" lon="30.248908046633005">
        <ele>5.17</ele>
      </trkpt>
      <trkpt lat="59.97592644765973" lon="30.249472400173545">
        <ele>5.23</ele>
      </trkpt>
      <trkpt lat="59.97581304050982" lon="30.250036753714085">
        <ele>5.32</ele>
      </trkpt>
      <trkpt lat="59.97569963335991" lon="30.250601107254624">
        <ele>5.5</ele>
      </trkpt>
      <trkpt lat="59.97558832168579" lon="30.251154899597168">
        <ele>5.5</ele>
      </trkpt>
      <trkpt lat="59.97558840550482" lon="30.251154899597168">
        <ele>5.41</ele>
      </trkpt>
      <trkpt lat="59.97548715211451" lon="30.25168656371534">
        <ele>5.25</ele>
      </trkpt>
      <trkpt lat="59.97538598254323" lon="30.25221822783351">
        <ele>4.96</ele>
      </trkpt>
      <trkpt lat="59.97528481297195" lon="30.25274989195168">
        <ele>4.6</ele>
      </trkpt>
      <trkpt lat="59.97518364340067" lon="30.25328155606985">
        <ele>4.28</ele>
      </trkpt>
      <trkpt lat="59.97508406639099" lon="30.253804922103882">
        <ele>3.81</ele>
      </trkpt>
      <trkpt lat="59.97508415021002" lon="30.253804922103882">
        <ele>3.51</ele>
      </trkpt>
      <trkpt lat="59.97502245940268" lon="30.254198368638754">
        <ele>3.31</ele>
      </trkpt>
      <trkpt lat="59.97494459152222" lon="30.254695415496826">
        <ele>2.83</ele>
      </trkpt>
      <trkpt lat="59.97490175999701" lon="30.254673957824707">
        <ele>2.56</ele>
      </trkpt>
      <trkpt lat="59.97482908889651" lon="30.25526052340865">
        <ele>1.84</ele>
      </trkpt>
      <trkpt lat="59.974756417796016" lon="30.255847172811627">
        <ele>1.67</ele>
      </trkpt>
      <trkpt lat="59.97468374669552" lon="30.256433822214603">
        <ele>1.54</ele>
      </trkpt>
      <trkpt lat="59.9746120814234" lon="30.257012844085693">
        <ele>0.77</ele>
      </trkpt>
      <trkpt lat="59.97461199760437" lon="30.257012844085693">
        <ele>0.46</ele>
      </trkpt>
      <trkpt lat="59.97455282136798" lon="30.257556410506368">
        <ele>0.26</ele>
      </trkpt>
      <trkpt lat="59.97449406422675" lon="30.25809645652771">
        <ele>0.14</ele>
      </trkpt>
      <trkpt lat="59.97459053993225" lon="30.25809645652771">
        <ele>-0.21</ele>
      </trkpt>
      <trkpt lat="59.97459062375128" lon="30.25809645652771">
        <ele>-0.34</ele>
      </trkpt>
      <trkpt lat="59.97470864094794" lon="30.25808572769165">
        <ele>-0.41</ele>
      </trkpt>
      <trkpt lat="59.97473009862006" lon="30.25812864303589">
        <ele>-0.41</ele>
      </trkpt>
      <trkpt lat="59.97474082745612" lon="30.258235931396484">
        <ele>-0.34</ele>
      </trkpt>
      <trkpt lat="59.97459053993225" lon="30.258268117904663">
        <ele>-0.19</ele>
      </trkpt>
      <trkpt lat="59.97459062375128" lon="30.25809645652771">
        <ele>0.02</ele>
      </trkpt>
      <trkpt lat="59.97459062375128" lon="30.258032083511353">
        <ele>0.32</ele>
      </trkpt>
      <trkpt lat="59.97459053993225" lon="30.258032083511353">
        <ele>0.7</ele>
      </trkpt>
      <trkpt lat="59.97459062375128" lon="30.258032083511353">
        <ele>1.66</ele>
      </trkpt>
      <trkpt lat="59.97459062375128" lon="30.25809645652771">
        <ele>2.24</ele>
      </trkpt>
      <trkpt lat="59.97459053993225" lon="30.25809645652771">
        <ele>2.86</ele>
      </trkpt>
      <trkpt lat="59.97449406422675" lon="30.25809645652771">
        <ele>3.7</ele>
      </trkpt>
      <trkpt lat="59.97442969121039" lon="30.258150100708008">
        <ele>4.52</ele>
      </trkpt>
      <trkpt lat="59.97424696572125" lon="30.258176922798157">
        <ele>5.49</ele>
      </trkpt>
      <trkpt lat="59.974064910784364" lon="30.258203744888306">
        <ele>6.18</ele>
      </trkpt>
      <trkpt lat="59.97386064380407" lon="30.258241295814514">
        <ele>6.8</ele>
      </trkpt>
      <trkpt lat="59.9736572150141" lon="30.258278846740723">
        <ele>7.4</ele>
      </trkpt>
      <trkpt lat="59.97361421585083" lon="30.258203744888306">
        <ele>7.9</ele>
      </trkpt>
      <trkpt lat="59.97363575734198" lon="30.257763862609863">
        <ele>8.29</ele>
      </trkpt>
      <trkpt lat="59.97366786003113" lon="30.257763862609863">
        <ele>8.61</ele>
      </trkpt>
      <trkpt lat="59.97367858886719" lon="30.257271341979504">
        <ele>9.27</ele>
      </trkpt>
      <trkpt lat="59.97368940152228" lon="30.256778821349144">
        <ele>9.22</ele>
      </trkpt>
      <trkpt lat="59.97370021417737" lon="30.256286384537816">
        <ele>8.98</ele>
      </trkpt>
      <trkpt lat="59.9737108591944" lon="30.255800485610962">
        <ele>8.78</ele>
      </trkpt>
      <trkpt lat="59.973728796467185" lon="30.255316011607647">
        <ele>8.64</ele>
      </trkpt>
      <trkpt lat="59.97374673373997" lon="30.254831621423364">
        <ele>8.57</ele>
      </trkpt>
      <trkpt lat="59.973764503374696" lon="30.25435209274292">
        <ele>8.68</ele>
      </trkpt>
      <trkpt lat="59.973764419555664" lon="30.25435209274292">
        <ele>8.57</ele>
      </trkpt>
      <trkpt lat="59.973791325464845" lon="30.253729484975338">
        <ele>8.61</ele>
      </trkpt>
      <trkpt lat="59.973818231374025" lon="30.253106961026788">
        <ele>8.45</ele>
      </trkpt>
      <trkpt lat="59.973845137283206" lon="30.252484353259206">
        <ele>8.32</ele>
      </trkpt>
      <trkpt lat="59.97387204319239" lon="30.251861829310656">
        <ele>8.16</ele>
      </trkpt>
      <trkpt lat="59.97389894910157" lon="30.251239305362105">
        <ele>7.84</ele>
      </trkpt>
      <trkpt lat="59.97392535209656" lon="30.25062918663025">
        <ele>7.54</ele>
      </trkpt>
      <trkpt lat="59.97398452833295" lon="30.25029550306499">
        <ele>7.23</ele>
      </trkpt>
      <trkpt lat="59.97404336929321" lon="30.249963998794556">
        <ele>6.98</ele>
      </trkpt>
      <trkpt lat="59.97415903955698" lon="30.24952009320259">
        <ele>6.85</ele>
      </trkpt>
      <trkpt lat="59.97427470982075" lon="30.249076187610626">
        <ele>6.67</ele>
      </trkpt>
      <trkpt lat="59.974390380084515" lon="30.24863228201866">
        <ele>6.59</ele>
      </trkpt>
      <trkpt lat="59.974504709243774" lon="30.248193740844727">
        <ele>6.47</ele>
      </trkpt>
      <trkpt lat="59.974606884643435" lon="30.247660987079144">
        <ele>6.26</ele>
      </trkpt>
      <trkpt lat="59.974708557128906" lon="30.24713158607483">
        <ele>5.98</ele>
      </trkpt>
      <trkpt lat="59.97474082745612" lon="30.246675861999393">
        <ele>5.64</ele>
      </trkpt>
      <trkpt lat="59.97477318160236" lon="30.246220137923956">
        <ele>5.32</ele>
      </trkpt>
      <trkpt lat="59.974805200472474" lon="30.245769023895264">
        <ele>5.15</ele>
      </trkpt>
      <trkpt lat="59.97480511665344" lon="30.245769023895264">
        <ele>5.03</ele>
      </trkpt>
      <trkpt lat="59.974730014801025" lon="30.245758295059204">
        <ele>4.87</ele>
      </trkpt>
      <trkpt lat="59.97473009862006" lon="30.245758295059204">
        <ele>5.0</ele>
      </trkpt>
      <trkpt lat="59.974751472473145" lon="30.245457887649536">
        <ele>5.13</ele>
      </trkpt>
      <trkpt lat="59.974751556292176" lon="30.245457887649536">
        <ele>5.26</ele>
      </trkpt>
      <trkpt lat="59.974773013964295" lon="30.244876518845558">
        <ele>5.55</ele>
      </trkpt>
      <trkpt lat="59.974794471636415" lon="30.244299173355103">
        <ele>5.67</ele>
      </trkpt>
      <trkpt lat="59.97482162900269" lon="30.24367849342525">
        <ele>5.8</ele>
      </trkpt>
      <trkpt lat="59.974848870188" lon="30.243057813495398">
        <ele>5.97</ele>
      </trkpt>
      <trkpt lat="59.974876111373305" lon="30.242437217384577">
        <ele>6.3</ele>
      </trkpt>
      <trkpt lat="59.974903017282486" lon="30.241824835538864">
        <ele>6.46</ele>
      </trkpt>
      <trkpt lat="59.974903017282486" lon="30.241824919357896">
        <ele>6.57</ele>
      </trkpt>
      <trkpt lat="59.974927408620715" lon="30.24126911535859">
        <ele>6.57</ele>
      </trkpt>
      <trkpt lat="59.974951799958944" lon="30.240713395178318">
        <ele>6.57</ele>
      </trkpt>
      <trkpt lat="59.974976275116205" lon="30.240157674998045">
        <ele>6.71</ele>
      </trkpt>
      <trkpt lat="59.975000666454434" lon="30.239601954817772">
        <ele>6.8</ele>
      </trkpt>
      <trkpt lat="59.975025057792664" lon="30.239046150818467">
        <ele>6.85</ele>
      </trkpt>
      <trkpt lat="59.975049532949924" lon="30.238490430638194">
        <ele>6.97</ele>
      </trkpt>
      <trkpt lat="59.97507333755493" lon="30.237947702407837">
        <ele>7.13</ele>
      </trkpt>
      <trkpt lat="59.97507342137396" lon="30.237947702407837">
        <ele>7.37</ele>
      </trkpt>
      <trkpt lat="59.97509487904608" lon="30.23747043684125">
        <ele>7.63</ele>
      </trkpt>
      <trkpt lat="59.97511642053723" lon="30.236993171274662">
        <ele>7.91</ele>
      </trkpt>
      <trkpt lat="59.97513771057129" lon="30.236520767211914">
        <ele>8.33</ele>
      </trkpt>
      <trkpt lat="59.97509479522705" lon="30.236488580703735">
        <ele>8.77</ele>
      </trkpt>
      <trkpt lat="59.97511901892722" lon="30.23592338897288">
        <ele>9.43</ele>
      </trkpt>
      <trkpt lat="59.97514324262738" lon="30.235358281061053">
        <ele>10.1</ele>
      </trkpt>
      <trkpt lat="59.97516746632755" lon="30.234793089330196">
        <ele>10.63</ele>
      </trkpt>
      <trkpt lat="59.97519143857062" lon="30.234235525131226">
        <ele>11.0</ele>
      </trkpt>
      <trkpt lat="59.975161431357265" lon="30.234235525131226">
        <ele>11.32</ele>
      </trkpt>
      <trkpt lat="59.97514852322638" lon="30.234235525131226">
        <ele>11.65</ele>
      </trkpt>
      <trkpt lat="59.97507342137396" lon="30.234246253967285">
        <ele>11.73</ele>
      </trkpt>
      <trkpt lat="59.97477603144944" lon="30.23429637774825">
        <ele>11.66</ele>
      </trkpt>
      <trkpt lat="59.97447864152491" lon="30.234346501529217">
        <ele>11.41</ele>
      </trkpt>
      <trkpt lat="59.97418284416199" lon="30.23439645767212">
        <ele>10.96</ele>
      </trkpt>
      <trkpt lat="59.97418292798102" lon="30.23439645767212">
        <ele>10.75</ele>
      </trkpt>
      <trkpt lat="59.97398402541876" lon="30.234391009435058">
        <ele>10.39</ele>
      </trkpt>
      <trkpt lat="59.97378587722778" lon="30.23438572883606">
        <ele>10.15</ele>
      </trkpt>
      <trkpt lat="59.9736450612545" lon="30.234344322234392">
        <ele>9.98</ele>
      </trkpt>
      <trkpt lat="59.97360348701477" lon="30.23433208465576">
        <ele>9.56</ele>
      </trkpt>
      <trkpt lat="59.97336745262146" lon="30.234503746032715">
        <ele>9.37</ele>
      </trkpt>
      <trkpt lat="59.97317927889526" lon="30.234767189249396">
        <ele>9.18</ele>
      </trkpt>
      <trkpt lat="59.97299202717841" lon="30.235029458999634">
        <ele>9.06</ele>
      </trkpt>
      <trkpt lat="59.97292228974402" lon="30.23533766157925">
        <ele>8.93</ele>
      </trkpt>
      <trkpt lat="59.972853139042854" lon="30.23564402014017">
        <ele>8.9</ele>
      </trkpt>
      <trkpt lat="59.972766721621156" lon="30.236027240753174">
        <ele>8.97</ele>
      </trkpt>
      <trkpt lat="59.972755992785096" lon="30.23616671562195">
        <ele>9.07</ele>
      </trkpt>
      <trkpt lat="59.972718274220824" lon="30.23659721016884">
        <ele>9.27</ele>
      </trkpt>
      <trkpt lat="59.97268080711365" lon="30.237025022506714">
        <ele>9.51</ele>
      </trkpt>
      <trkpt lat="59.97271307744086" lon="30.23738980293274">
        <ele>9.75</ele>
      </trkpt>
      <trkpt lat="59.972712993621826" lon="30.23738980293274">
        <ele>9.96</ele>
      </trkpt>
      <trkpt lat="59.97271307744086" lon="30.23738980293274">
        <ele>10.39</ele>
      </trkpt>
      <trkpt lat="59.972734451293945" lon="30.23759365081787">
        <ele>10.65</ele>
      </trkpt>
      <trkpt lat="59.972648369148374" lon="30.237873354926705">
        <ele>10.92</ele>
      </trkpt>
      <trkpt lat="59.97256278991699" lon="30.23815155029297">
        <ele>11.09</ele>
      </trkpt>
      <trkpt lat="59.97232683934271" lon="30.23838758468628">
        <ele>11.21</ele>
      </trkpt>
      <trkpt lat="59.97232675552368" lon="30.23838758468628">
        <ele>11.32</ele>
      </trkpt>
      <trkpt lat="59.97232683934271" lon="30.23838758468628">
        <ele>11.41</ele>
      </trkpt>
      <trkpt lat="59.9721444491297" lon="30.23836612701416">
        <ele>11.3</ele>
      </trkpt>
      <trkpt lat="59.97214436531067" lon="30.23836612701416">
        <ele>11.26</ele>
      </trkpt>
      <trkpt lat="59.9721444491297" lon="30.23836612701416">
        <ele>10.93</ele>
      </trkpt>
      <trkpt lat="59.97211745940149" lon="30.238985046744347">
        <ele>10.73</ele>
      </trkpt>
      <trkpt lat="59.97209072113037" lon="30.23959994316101">
        <ele>10.63</ele>
      </trkpt>
      <trkpt lat="59.9720908049494" lon="30.23959994316101">
        <ele>10.38</ele>
      </trkpt>
      <trkpt lat="59.972069347277284" lon="30.240050554275513">
        <ele>10.1</ele>
      </trkpt>
      <trkpt lat="59.97204780578613" lon="30.240508038550615">
        <ele>9.72</ele>
      </trkpt>
      <trkpt lat="59.972026431933045" lon="30.240962505340576">
        <ele>9.23</ele>
      </trkpt>
      <trkpt lat="59.972015703096986" lon="30.241262912750244">
        <ele>8.79</ele>
      </trkpt>
      <trkpt lat="59.9717903137207" lon="30.24140238761902">
        <ele>8.58</ele>
      </trkpt>
      <trkpt lat="59.97166156768799" lon="30.24186372756958">
        <ele>8.34</ele>
      </trkpt>
      <trkpt lat="59.971736669540405" lon="30.24237871170044">
        <ele>8.09</ele>
      </trkpt>
      <trkpt lat="59.9719512462616" lon="30.24261474609375">
        <ele>7.82</ele>
      </trkpt>
      <trkpt lat="59.97194060124457" lon="30.24286150932312">
        <ele>7.69</ele>
      </trkpt>
      <trkpt lat="59.97194051742554" lon="30.24286150932312">
        <ele>7.61</ele>
      </trkpt>
      <trkpt lat="59.97194060124457" lon="30.24286150932312">
        <ele>7.59</ele>
      </trkpt>
      <trkpt lat="59.971924340352416" lon="30.24325436912477">
        <ele>7.68</ele>
      </trkpt>
      <trkpt lat="59.97190833091736" lon="30.24364471435547">
        <ele>7.78</ele>
      </trkpt>
      <trkpt lat="59.97190841473639" lon="30.24364471435547">
        <ele>7.88</ele>
      </trkpt>
      <trkpt lat="59.971883269026875" lon="30.24422239512205">
        <ele>8.11</ele>
      </trkpt>
      <trkpt lat="59.97185812331736" lon="30.244800075888634">
        <ele>8.32</ele>
      </trkpt>
      <trkpt lat="59.97183331288397" lon="30.24537205696106">
        <ele>8.36</ele>
      </trkpt>
      <trkpt lat="59.971815291792154" lon="30.245838509872556">
        <ele>8.3</ele>
      </trkpt>
      <trkpt lat="59.97179735451937" lon="30.246304962784052">
        <ele>8.26</ele>
      </trkpt>
      <trkpt lat="59.971779668703675" lon="30.246766805648804">
        <ele>8.06</ele>
      </trkpt>
      <trkpt lat="59.97175804339349" lon="30.24727483280003">
        <ele>7.9</ele>
      </trkpt>
      <trkpt lat="59.97173650190234" lon="30.24778294377029">
        <ele>7.82</ele>
      </trkpt>
      <trkpt lat="59.97171496041119" lon="30.248291054740548">
        <ele>7.92</ele>
      </trkpt>
      <trkpt lat="59.97169341892004" lon="30.248799165710807">
        <ele>8.12</ele>
      </trkpt>
      <trkpt lat="59.97167229652405" lon="30.249298810958862">
        <ele>8.31</ele>
      </trkpt>
      <trkpt lat="59.97167238034308" lon="30.249298810958862">
        <ele>8.41</ele>
      </trkpt>
      <trkpt lat="59.971647234633565" lon="30.249826200306416">
        <ele>8.55</ele>
      </trkpt>
      <trkpt lat="59.97162208892405" lon="30.250353673473">
        <ele>8.69</ele>
      </trkpt>
      <trkpt lat="59.97159727849066" lon="30.25087594985962">
        <ele>8.81</ele>
      </trkpt>
      <trkpt lat="59.97158646583557" lon="30.251193456351757">
        <ele>9.06</ele>
      </trkpt>
      <trkpt lat="59.97157582081854" lon="30.251508951187134">
        <ele>9.35</ele>
      </trkpt>
      <trkpt lat="59.971565091982484" lon="30.25161623954773">
        <ele>9.7</ele>
      </trkpt>
      <trkpt lat="59.97153894044459" lon="30.252237506210804">
        <ele>10.14</ele>
      </trkpt>
      <trkpt lat="59.97151278890669" lon="30.25285877287388">
        <ele>10.59</ele>
      </trkpt>
      <trkpt lat="59.9714866373688" lon="30.253480039536953">
        <ele>10.88</ele>
      </trkpt>
      <trkpt lat="59.9714604858309" lon="30.254101306200027">
        <ele>10.95</ele>
      </trkpt>
      <trkpt lat="59.97143433429301" lon="30.254722572863102">
        <ele>10.79</ele>
      </trkpt>
      <trkpt lat="59.97140818275511" lon="30.255343923345208">
        <ele>10.28</ele>
      </trkpt>
      <trkpt lat="59.97138261795044" lon="30.255950689315796">
        <ele>9.63</ele>
      </trkpt>
      <trkpt lat="59.97138270176947" lon="30.255950689315796">
        <ele>9.34</ele>
      </trkpt>
      <trkpt lat="59.97138270176947" lon="30.255961418151855">
        <ele>8.93</ele>
      </trkpt>
      <trkpt lat="59.97137197293341" lon="30.256272554397583">
        <ele>8.27</ele>
      </trkpt>
      <trkpt lat="59.97135051526129" lon="30.256755352020264">
        <ele>7.91</ele>
      </trkpt>
      <trkpt lat="59.971341295167804" lon="30.256972443312407">
        <ele>7.64</ele>
      </trkpt>
    </trkseg>
  </trk>
</gpx>
