<?xml version="1.0" encoding="UTF-8"?>
<gpx creator="Garmin Connect" version="1.1"
  xsi:schemaLocation="http://www.topografix.com/GPX/1/1 http://www.topografix.com/GPX/11.xsd"
  xmlns:ns3="http://www.garmin.com/xmlschemas/TrackPointExtension/v1"
  xmlns="http://www.topografix.com/GPX/1/1"
  xmlns:xsi="http://www.w3.org/2001/XMLSchema-instance" xmlns:ns2="http://www.garmin.com/xmlschemas/GpxExtensions/v3">
  <metadata>
    <name>Приморский парк Победы
Крестовский остров Бег 5 км</name>
    <link href="connect.garmin.com">
      <text>Garmin Connect</text>
    </link>
    <time>2026-09-24T21:18:41.000Z</time>
  </metadata>
  <trk>
    <name>Приморский парк Победы
Крестовский остров Бег 5 км</name>
    <trkseg>
      <trkpt lat="59.97137188911438" lon="30.256272554397583">
        <ele>7.48</ele>
      </trkpt>
      <trkpt lat="59.97137197293341" lon="30.256272554397583">
        <ele>8.45</ele>
      </trkpt>
      <trkpt lat="59.97138270176947" lon="30.255961418151855">
        <ele>9.02</ele>
      </trkpt>
      <trkpt lat="59.97138270176947" lon="30.255950689315796">
        <ele>9.41</ele>
      </trkpt>
      <trkpt lat="59.97138261795044" lon="30.255950689315796">
        <ele>9.72</ele>
      </trkpt>
      <trkpt lat="59.97139485552907" lon="30.25566017255187">
        <ele>10.26</ele>
      </trkpt>
      <trkpt lat="59.97139485552907" lon="30.255660256370902">
        <ele>10.55</ele>
      </trkpt>
      <trkpt lat="59.9714192468673" lon="30.25508056394756">
        <ele>10.95</ele>
      </trkpt>
      <trkpt lat="59.97144363820553" lon="30.254500955343246">
        <ele>11.18</ele>
      </trkpt>
      <trkpt lat="59.97146802954376" lon="30.253921262919903">
        <ele>11.19</ele>
      </trkpt>
      <trkpt lat="59.97149242088199" lon="30.25334165431559">
        <ele>11.04</ele>
      </trkpt>
      <trkpt lat="59.97151689603925" lon="30.252761961892247">
        <ele>10.67</ele>
      </trkpt>
      <trkpt lat="59.97154128737748" lon="30.252182353287935">
        <ele>10.26</ele>
      </trkpt>
      <trkpt lat="59.971565091982484" lon="30.25161623954773">
        <ele>9.84</ele>
      </trkpt>
      <trkpt lat="59.97157582081854" lon="30.251508951187134">
        <ele>9.51</ele>
      </trkpt>
      <trkpt lat="59.9715865496546" lon="30.251191360875964">
        <ele>9.22</ele>
      </trkpt>
      <trkpt lat="59.97159727849066" lon="30.25087594985962">
        <ele>8.98</ele>
      </trkpt>
      <trkpt lat="59.971622340381145" lon="30.250348476693034">
        <ele>8.85</ele>
      </trkpt>
      <trkpt lat="59.97164748609066" lon="30.24982100352645">
        <ele>8.7</ele>
      </trkpt>
      <trkpt lat="59.97167238034308" lon="30.249298810958862">
        <ele>8.54</ele>
      </trkpt>
      <trkpt lat="59.97167229652405" lon="30.249298810958862">
        <ele>8.44</ele>
      </trkpt>
      <trkpt lat="59.9716938380152" lon="30.248790699988604">
        <ele>8.25</ele>
      </trkpt>
      <trkpt lat="59.97171537950635" lon="30.248282589018345">
        <ele>8.04</ele>
      </trkpt>
      <trkpt lat="59.9717369209975" lon="30.247774478048086">
        <ele>7.94</ele>
      </trkpt>
      <trkpt lat="59.97175846248865" lon="30.247266367077827">
        <ele>8.01</ele>
      </trkpt>
      <trkpt lat="59.971779668703675" lon="30.246766805648804">
        <ele>8.15</ele>
      </trkpt>
      <trkpt lat="59.97179760597646" lon="30.246300268918276">
        <ele>8.31</ele>
      </trkpt>
      <trkpt lat="59.97181554324925" lon="30.24583381600678">
        <ele>8.32</ele>
      </trkpt>
      <trkpt lat="59.97183331288397" lon="30.24537205696106">
        <ele>8.35</ele>
      </trkpt>
      <trkpt lat="59.971858374774456" lon="30.244794292375445">
        <ele>8.26</ele>
      </trkpt>
      <trkpt lat="59.97188352048397" lon="30.244216611608863">
        <ele>8.03</ele>
      </trkpt>
      <trkpt lat="59.97190841473639" lon="30.24364471435547">
        <ele>7.76</ele>
      </trkpt>
      <trkpt lat="59.97190833091736" lon="30.24364471435547">
        <ele>7.63</ele>
      </trkpt>
      <trkpt lat="59.97192450799048" lon="30.243251770734787">
        <ele>7.47</ele>
      </trkpt>
      <trkpt lat="59.97194060124457" lon="30.24286150932312">
        <ele>7.33</ele>
      </trkpt>
      <trkpt lat="59.97195133008063" lon="30.24261474609375">
        <ele>7.25</ele>
      </trkpt>
      <trkpt lat="59.9719512462616" lon="30.24261474609375">
        <ele>7.21</ele>
      </trkpt>
      <trkpt lat="59.97195133008063" lon="30.24261474609375">
        <ele>7.25</ele>
      </trkpt>
      <trkpt lat="59.971736669540405" lon="30.24237871170044">
        <ele>7.43</ele>
      </trkpt>
      <trkpt lat="59.97166156768799" lon="30.24186372756958">
        <ele>7.58</ele>
      </trkpt>
      <trkpt lat="59.9717903137207" lon="30.24140238761902">
        <ele>7.73</ele>
      </trkpt>
      <trkpt lat="59.972015703096986" lon="30.241262912750244">
        <ele>7.85</ele>
      </trkpt>
      <trkpt lat="59.972015619277954" lon="30.241262912750244">
        <ele>8.06</ele>
      </trkpt>
      <trkpt lat="59.972026431933045" lon="30.240962505340576">
        <ele>8.96</ele>
      </trkpt>
      <trkpt lat="59.972047889605165" lon="30.240504937246442">
        <ele>9.42</ele>
      </trkpt>
      <trkpt lat="59.972069347277284" lon="30.240050554275513">
        <ele>9.76</ele>
      </trkpt>
      <trkpt lat="59.9720908049494" lon="30.23959994316101">
        <ele>10.0</ele>
      </trkpt>
      <trkpt lat="59.97209072113037" lon="30.23959994316101">
        <ele>10.22</ele>
      </trkpt>
      <trkpt lat="59.97211762703955" lon="30.238980939611793">
        <ele>10.29</ele>
      </trkpt>
      <trkpt lat="59.9721444491297" lon="30.23836612701416">
        <ele>10.46</ele>
      </trkpt>
      <trkpt lat="59.97214436531067" lon="30.23836612701416">
        <ele>10.6</ele>
      </trkpt>
      <trkpt lat="59.97216590680182" lon="30.237892465665936">
        <ele>10.76</ele>
      </trkpt>
      <trkpt lat="59.97218736447394" lon="30.237421989440918">
        <ele>10.85</ele>
      </trkpt>
      <trkpt lat="59.97220882214606" lon="30.23686752654612">
        <ele>10.8</ele>
      </trkpt>
      <trkpt lat="59.97223027981818" lon="30.236316919326782">
        <ele>10.72</ele>
      </trkpt>
      <trkpt lat="59.97224100865424" lon="30.236048698425293">
        <ele>10.71</ele>
      </trkpt>
      <trkpt lat="59.972257101908326" lon="30.23568802513182">
        <ele>10.71</ele>
      </trkpt>
      <trkpt lat="59.972273195162416" lon="30.2353298664093">
        <ele>10.73</ele>
      </trkpt>
      <trkpt lat="59.972300101071596" lon="30.234775403514504">
        <ele>10.78</ele>
      </trkpt>
      <trkpt lat="59.97232683934271" lon="30.234224796295166">
        <ele>10.92</ele>
      </trkpt>
      <trkpt lat="59.97234829701483" lon="30.233748452737927">
        <ele>11.0</ele>
      </trkpt>
      <trkpt lat="59.97236983850598" lon="30.23327210918069">
        <ele>10.94</ele>
      </trkpt>
      <trkpt lat="59.972391379997134" lon="30.23279576562345">
        <ele>10.78</ele>
      </trkpt>
      <trkpt lat="59.97241267003119" lon="30.232325792312622">
        <ele>10.62</ele>
      </trkpt>
      <trkpt lat="59.97241258621216" lon="30.232325792312622">
        <ele>10.44</ele>
      </trkpt>
      <trkpt lat="59.97243412770331" lon="30.231798319146037">
        <ele>10.24</ele>
      </trkpt>
      <trkpt lat="59.97245566919446" lon="30.231270845979452">
        <ele>10.02</ele>
      </trkpt>
      <trkpt lat="59.97247704304755" lon="30.230748653411865">
        <ele>9.6</ele>
      </trkpt>
      <trkpt lat="59.97247704304755" lon="30.230684280395508">
        <ele>9.23</ele>
      </trkpt>
      <trkpt lat="59.972487688064575" lon="30.230566263198853">
        <ele>8.8</ele>
      </trkpt>
      <trkpt lat="59.97248777188361" lon="30.230469703674316">
        <ele>8.37</ele>
      </trkpt>
      <trkpt lat="59.972498416900635" lon="30.23036241531372">
        <ele>7.92</ele>
      </trkpt>
      <trkpt lat="59.97257729060948" lon="30.229960586875677">
        <ele>6.24</ele>
      </trkpt>
      <trkpt lat="59.972656248137355" lon="30.229558758437634">
        <ele>5.83</ele>
      </trkpt>
      <trkpt lat="59.972734451293945" lon="30.22916078567505">
        <ele>5.56</ele>
      </trkpt>
      <trkpt lat="59.97273570857942" lon="30.22913061082363">
        <ele>5.35</ele>
      </trkpt>
      <trkpt lat="59.972755992785096" lon="30.22865653038025">
        <ele>5.19</ele>
      </trkpt>
      <trkpt lat="59.972777450457215" lon="30.22810935974121">
        <ele>5.23</ele>
      </trkpt>
      <trkpt lat="59.97280955314636" lon="30.227572917938232">
        <ele>5.24</ele>
      </trkpt>
      <trkpt lat="59.972809636965394" lon="30.227572917938232">
        <ele>5.23</ele>
      </trkpt>
      <trkpt lat="59.97283109463751" lon="30.227015018463135">
        <ele>5.15</ele>
      </trkpt>
      <trkpt lat="59.97285255230963" lon="30.226457118988037">
        <ele>5.08</ele>
      </trkpt>
      <trkpt lat="59.97286328114569" lon="30.226199626922607">
        <ele>5.14</ele>
      </trkpt>
      <trkpt lat="59.97286319732666" lon="30.226199626922607">
        <ele>5.24</ele>
      </trkpt>
      <trkpt lat="59.97286328114569" lon="30.226199626922607">
        <ele>5.54</ele>
      </trkpt>
      <trkpt lat="59.973013484850526" lon="30.225952863693237">
        <ele>5.7</ele>
      </trkpt>
      <trkpt lat="59.97319587506354" lon="30.225995779037476">
        <ele>5.94</ele>
      </trkpt>
      <trkpt lat="59.97339972294867" lon="30.226017236709595">
        <ele>6.22</ele>
      </trkpt>
      <trkpt lat="59.97346409596503" lon="30.226017236709595">
        <ele>6.46</ele>
      </trkpt>
      <trkpt lat="59.97372552752495" lon="30.226027965545654">
        <ele>6.68</ele>
      </trkpt>
      <trkpt lat="59.9739870429039" lon="30.226038694381714">
        <ele>7.02</ele>
      </trkpt>
      <trkpt lat="59.974247300997376" lon="30.226049423217773">
        <ele>7.17</ele>
      </trkpt>
      <trkpt lat="59.974505212157965" lon="30.226060152053833">
        <ele>7.25</ele>
      </trkpt>
      <trkpt lat="59.974762285128236" lon="30.226070880889893">
        <ele>7.5</ele>
      </trkpt>
      <trkpt lat="59.97506311163306" lon="30.226086974143982">
        <ele>7.76</ele>
      </trkpt>
      <trkpt lat="59.97536309994757" lon="30.22610306739807">
        <ele>7.75</ele>
      </trkpt>
      <trkpt lat="59.97547038830817" lon="30.22609233856201">
        <ele>7.63</ele>
      </trkpt>
      <trkpt lat="59.97551774606109" lon="30.22609233856201">
        <ele>7.5</ele>
      </trkpt>
      <trkpt lat="59.97553467750549" lon="30.22609233856201">
        <ele>7.15</ele>
      </trkpt>
      <trkpt lat="59.975545490160584" lon="30.225727558135986">
        <ele>6.85</ele>
      </trkpt>
      <trkpt lat="59.97553467750549" lon="30.22513546049595">
        <ele>6.5</ele>
      </trkpt>
      <trkpt lat="59.975523948669434" lon="30.224547386169434">
        <ele>6.15</ele>
      </trkpt>
      <trkpt lat="59.975550854578614" lon="30.22407908923924">
        <ele>5.83</ele>
      </trkpt>
      <trkpt lat="59.97557759284973" lon="30.22361397743225">
        <ele>5.55</ele>
      </trkpt>
      <trkpt lat="59.97536796145141" lon="30.22342043928802">
        <ele>4.92</ele>
      </trkpt>
      <trkpt lat="59.97515916824341" lon="30.223227739334106">
        <ele>4.85</ele>
      </trkpt>
      <trkpt lat="59.974970910698175" lon="30.22365261800587">
        <ele>4.96</ele>
      </trkpt>
      <trkpt lat="59.974783742800355" lon="30.224075317382812">
        <ele>5.01</ele>
      </trkpt>
      <trkpt lat="59.97457939200103" lon="30.224414030089974">
        <ele>5.04</ele>
      </trkpt>
      <trkpt lat="59.97437604703009" lon="30.224751234054565">
        <ele>4.96</ele>
      </trkpt>
      <trkpt lat="59.97411855496466" lon="30.225073099136353">
        <ele>4.93</ele>
      </trkpt>
      <trkpt lat="59.97386592440307" lon="30.22527728229761">
        <ele>4.89</ele>
      </trkpt>
      <trkpt lat="59.97361429966986" lon="30.225480794906616">
        <ele>4.89</ele>
      </trkpt>
      <trkpt lat="59.97352838516235" lon="30.225502252578735">
        <ele>4.99</ele>
      </trkpt>
      <trkpt lat="59.973528468981385" lon="30.225502252578735">
        <ele>5.42</ele>
      </trkpt>
      <trkpt lat="59.973227977752686" lon="30.225523710250854">
        <ele>5.6</ele>
      </trkpt>
      <trkpt lat="59.97297543101013" lon="30.225480711087584">
        <ele>5.8</ele>
      </trkpt>
      <trkpt lat="59.97272288426757" lon="30.225437711924314">
        <ele>6.04</ele>
      </trkpt>
      <trkpt lat="59.97247033752501" lon="30.225394712761045">
        <ele>6.3</ele>
      </trkpt>
      <trkpt lat="59.97221955098212" lon="30.2253520488739">
        <ele>6.6</ele>
      </trkpt>
      <trkpt lat="59.97203146107495" lon="30.22527677938342">
        <ele>6.86</ele>
      </trkpt>
      <trkpt lat="59.97184404172003" lon="30.225201845169067">
        <ele>7.07</ele>
      </trkpt>
      <trkpt lat="59.97163424268365" lon="30.224911496043205">
        <ele>7.08</ele>
      </trkpt>
      <trkpt lat="59.97142553329468" lon="30.22462248802185">
        <ele>6.98</ele>
      </trkpt>
      <trkpt lat="59.97142561711371" lon="30.22462248802185">
        <ele>6.94</ele>
      </trkpt>
      <trkpt lat="59.97120031155646" lon="30.224268436431885">
        <ele>6.8</ele>
      </trkpt>
      <trkpt lat="59.971028147265315" lon="30.22385965101421">
        <ele>6.8</ele>
      </trkpt>
      <trkpt lat="59.97085690498352" lon="30.223453044891357">
        <ele>6.6</ele>
      </trkpt>
      <trkpt lat="59.97073846869171" lon="30.223017185926437">
        <ele>5.41</ele>
      </trkpt>
      <trkpt lat="59.97062087059021" lon="30.222584009170532">
        <ele>4.84</ele>
      </trkpt>
      <trkpt lat="59.97058851644397" lon="30.222239512950182">
        <ele>4.4</ele>
      </trkpt>
      <trkpt lat="59.97055649757385" lon="30.22189736366272">
        <ele>4.03</ele>
      </trkpt>
      <trkpt lat="59.97027704492211" lon="30.22182209417224">
        <ele>3.67</ele>
      </trkpt>
      <trkpt lat="59.969998598098755" lon="30.221747159957886">
        <ele>3.49</ele>
      </trkpt>
      <trkpt lat="59.97027796693146" lon="30.221822345629334">
        <ele>3.55</ele>
      </trkpt>
      <trkpt lat="59.97055649757385" lon="30.22189736366272">
        <ele>3.85</ele>
      </trkpt>
      <trkpt lat="59.97058876790106" lon="30.22224177606404">
        <ele>4.17</ele>
      </trkpt>
      <trkpt lat="59.97062087059021" lon="30.222584009170532">
        <ele>4.56</ele>
      </trkpt>
      <trkpt lat="59.97073922306299" lon="30.22301978431642">
        <ele>5.08</ele>
      </trkpt>
      <trkpt lat="59.97085690498352" lon="30.223453044891357">
        <ele>5.39</ele>
      </trkpt>
      <trkpt lat="59.97102898545563" lon="30.22386174649">
        <ele>5.67</ele>
      </trkpt>
      <trkpt lat="59.97120031155646" lon="30.224268436431885">
        <ele>5.76</ele>
      </trkpt>
      <trkpt lat="59.97142561711371" lon="30.22462248802185">
        <ele>6.02</ele>
      </trkpt>
      <trkpt lat="59.97142553329468" lon="30.22462248802185">
        <ele>6.18</ele>
      </trkpt>
      <trkpt lat="59.97163524851203" lon="30.22491275332868">
        <ele>6.42</ele>
      </trkpt>
      <trkpt lat="59.97184404172003" lon="30.225201845169067">
        <ele>6.55</ele>
      </trkpt>
      <trkpt lat="59.97203204780817" lon="30.225277030840516">
        <ele>6.48</ele>
      </trkpt>
      <trkpt lat="59.972219467163086" lon="30.2253520488739">
        <ele>6.36</ele>
      </trkpt>
      <trkpt lat="59.97232164256275" lon="30.225615575909615">
        <ele>6.25</ele>
      </trkpt>
      <trkpt lat="59.97242339886725" lon="30.22587776184082">
        <ele>6.14</ele>
      </trkpt>
      <trkpt lat="59.972552144899964" lon="30.22614598274231">
        <ele>6.01</ele>
      </trkpt>
      <trkpt lat="59.97255206108093" lon="30.22614598274231">
        <ele>5.91</ele>
      </trkpt>
      <trkpt lat="59.972541416063905" lon="30.22640347480774">
        <ele>5.63</ele>
      </trkpt>
      <trkpt lat="59.972541416063905" lon="30.226457118988037">
        <ele>5.57</ele>
      </trkpt>
      <trkpt lat="59.972519958391786" lon="30.226961374282837">
        <ele>5.61</ele>
      </trkpt>
      <trkpt lat="59.972498416900635" lon="30.227519273757935">
        <ele>5.6</ele>
      </trkpt>
      <trkpt lat="59.97249850071967" lon="30.227519273757935">
        <ele>5.61</ele>
      </trkpt>
      <trkpt lat="59.97246631421149" lon="30.228055715560913">
        <ele>5.61</ele>
      </trkpt>
      <trkpt lat="59.97244485653937" lon="30.22860288619995">
        <ele>5.58</ele>
      </trkpt>
      <trkpt lat="59.97242339886725" lon="30.22909641265869">
        <ele>5.65</ele>
      </trkpt>
      <trkpt lat="59.97244846075773" lon="30.229519782587886">
        <ele>5.88</ele>
      </trkpt>
      <trkpt lat="59.972473522648215" lon="30.22994315251708">
        <ele>6.22</ele>
      </trkpt>
      <trkpt lat="59.972498416900635" lon="30.23036241531372">
        <ele>6.75</ele>
      </trkpt>
      <trkpt lat="59.972470588982105" lon="30.230263844132423">
        <ele>7.01</ele>
      </trkpt>
      <trkpt lat="59.972498416900635" lon="30.23036241531372">
        <ele>7.79</ele>
      </trkpt>
      <trkpt lat="59.97248777188361" lon="30.230469703674316">
        <ele>8.22</ele>
      </trkpt>
      <trkpt lat="59.972487688064575" lon="30.230566263198853">
        <ele>8.65</ele>
      </trkpt>
      <trkpt lat="59.97247704304755" lon="30.230684280395508">
        <ele>9.07</ele>
      </trkpt>
      <trkpt lat="59.97247704304755" lon="30.230748653411865">
        <ele>9.44</ele>
      </trkpt>
      <trkpt lat="59.972455417737365" lon="30.23127612657845">
        <ele>9.86</ele>
      </trkpt>
      <trkpt lat="59.972433876246214" lon="30.231803599745035">
        <ele>10.08</ele>
      </trkpt>
      <trkpt lat="59.97241258621216" lon="30.232325792312622">
        <ele>10.3</ele>
      </trkpt>
      <trkpt lat="59.97241267003119" lon="30.232325792312622">
        <ele>10.49</ele>
      </trkpt>
      <trkpt lat="59.97239112854004" lon="30.23280205205083">
        <ele>10.66</ele>
      </trkpt>
      <trkpt lat="59.97236958704889" lon="30.233278395608068">
        <ele>10.83</ele>
      </trkpt>
      <trkpt lat="59.97234804555774" lon="30.233754739165306">
        <ele>10.9</ele>
      </trkpt>
      <trkpt lat="59.97232683934271" lon="30.234224796295166">
        <ele>10.83</ele>
      </trkpt>
      <trkpt lat="59.9722998496145" lon="30.23477917537093">
        <ele>10.7</ele>
      </trkpt>
      <trkpt lat="59.972273195162416" lon="30.2353298664093">
        <ele>10.68</ele>
      </trkpt>
      <trkpt lat="59.972257018089294" lon="30.23569045588374">
        <ele>10.67</ele>
      </trkpt>
      <trkpt lat="59.97224100865424" lon="30.236048698425293">
        <ele>10.69</ele>
      </trkpt>
      <trkpt lat="59.97223027981818" lon="30.236316919326782">
        <ele>10.72</ele>
      </trkpt>
      <trkpt lat="59.972208738327026" lon="30.236871298402548">
        <ele>10.82</ele>
      </trkpt>
      <trkpt lat="59.97218736447394" lon="30.237421989440918">
        <ele>10.88</ele>
      </trkpt>
      <trkpt lat="59.972165739163756" lon="30.23789556697011">
        <ele>10.8</ele>
      </trkpt>
      <trkpt lat="59.97214436531067" lon="30.23836612701416">
        <ele>10.64</ele>
      </trkpt>
      <trkpt lat="59.9721444491297" lon="30.23836612701416">
        <ele>10.51</ele>
      </trkpt>
      <trkpt lat="59.97211745940149" lon="30.238985046744347">
        <ele>10.34</ele>
      </trkpt>
      <trkpt lat="59.97209072113037" lon="30.23959994316101">
        <ele>10.27</ele>
      </trkpt>
      <trkpt lat="59.9720908049494" lon="30.23959994316101">
        <ele>10.04</ele>
      </trkpt>
      <trkpt lat="59.972069347277284" lon="30.240050554275513">
        <ele>9.79</ele>
      </trkpt>
      <trkpt lat="59.97204780578613" lon="30.240508038550615">
        <ele>9.43</ele>
      </trkpt>
      <trkpt lat="59.972026431933045" lon="30.240962505340576">
        <ele>8.96</ele>
      </trkpt>
      <trkpt lat="59.972015619277954" lon="30.241262912750244">
        <ele>8.54</ele>
      </trkpt>
      <trkpt lat="59.972015703096986" lon="30.241262912750244">
        <ele>7.83</ele>
      </trkpt>
      <trkpt lat="59.9717903137207" lon="30.24140238761902">
        <ele>7.7</ele>
      </trkpt>
      <trkpt lat="59.97166156768799" lon="30.24186372756958">
        <ele>7.56</ele>
      </trkpt>
      <trkpt lat="59.971736669540405" lon="30.24237871170044">
        <ele>7.4</ele>
      </trkpt>
      <trkpt lat="59.97195133008063" lon="30.24261474609375">
        <ele>7.22</ele>
      </trkpt>
      <trkpt lat="59.9719512462616" lon="30.24261474609375">
        <ele>7.2</ele>
      </trkpt>
      <trkpt lat="59.97194060124457" lon="30.24286150932312">
        <ele>7.41</ele>
      </trkpt>
      <trkpt lat="59.971924340352416" lon="30.24325436912477">
        <ele>7.59</ele>
      </trkpt>
      <trkpt lat="59.97190833091736" lon="30.24364471435547">
        <ele>7.78</ele>
      </trkpt>
      <trkpt lat="59.97190841473639" lon="30.24364471435547">
        <ele>7.95</ele>
      </trkpt>
      <trkpt lat="59.971883269026875" lon="30.24422239512205">
        <ele>8.26</ele>
      </trkpt>
      <trkpt lat="59.97185812331736" lon="30.244800075888634">
        <ele>8.51</ele>
      </trkpt>
      <trkpt lat="59.97183331288397" lon="30.24537205696106">
        <ele>8.58</ele>
      </trkpt>
      <trkpt lat="59.971815291792154" lon="30.245838509872556">
        <ele>8.51</ele>
      </trkpt>
      <trkpt lat="59.97179735451937" lon="30.246304962784052">
        <ele>8.45</ele>
      </trkpt>
      <trkpt lat="59.971779668703675" lon="30.246766805648804">
        <ele>8.23</ele>
      </trkpt>
      <trkpt lat="59.97175804339349" lon="30.24727483280003">
        <ele>8.03</ele>
      </trkpt>
      <trkpt lat="59.97173650190234" lon="30.24778294377029">
        <ele>7.91</ele>
      </trkpt>
      <trkpt lat="59.97171496041119" lon="30.248291054740548">
        <ele>7.97</ele>
      </trkpt>
      <trkpt lat="59.97169341892004" lon="30.248799165710807">
        <ele>8.13</ele>
      </trkpt>
      <trkpt lat="59.97167229652405" lon="30.249298810958862">
        <ele>8.25</ele>
      </trkpt>
      <trkpt lat="59.97167238034308" lon="30.249298810958862">
        <ele>8.25</ele>
      </trkpt>
      <trkpt lat="59.971647234633565" lon="30.249826200306416">
        <ele>8.29</ele>
      </trkpt>
      <trkpt lat="59.97162208892405" lon="30.250353673473">
        <ele>8.32</ele>
      </trkpt>
      <trkpt lat="59.97159727849066" lon="30.25087594985962">
        <ele>8.34</ele>
      </trkpt>
      <trkpt lat="59.97158646583557" lon="30.251193456351757">
        <ele>8.52</ele>
      </trkpt>
      <trkpt lat="59.97157582081854" lon="30.251508951187134">
        <ele>8.78</ele>
      </trkpt>
      <trkpt lat="59.971565091982484" lon="30.25161623954773">
        <ele>9.15</ele>
      </trkpt>
      <trkpt lat="59.971538772806525" lon="30.252240020781755">
        <ele>9.72</ele>
      </trkpt>
      <trkpt lat="59.9715125374496" lon="30.25286380201578">
        <ele>10.37</ele>
      </trkpt>
      <trkpt lat="59.97148621827364" lon="30.253487583249807">
        <ele>10.96</ele>
      </trkpt>
      <trkpt lat="59.97145998291671" lon="30.254111364483833">
        <ele>11.42</ele>
      </trkpt>
      <trkpt lat="59.971434166654944" lon="30.25472483597696">
        <ele>11.79</ele>
      </trkpt>
      <trkpt lat="59.971428299322724" lon="30.25486523285508">
        <ele>12.55</ele>
      </trkpt>
    </trkseg>
  </trk>
</gpx>
