<?xml version="1.0" encoding="UTF-8"?>
<gpx creator="Garmin Connect" version="1.1"
  xsi:schemaLocation="http://www.topografix.com/GPX/1/1 http://www.topografix.com/GPX/11.xsd"
  xmlns:ns3="http://www.garmin.com/xmlschemas/TrackPointExtension/v1"
  xmlns="http://www.topografix.com/GPX/1/1"
  xmlns:xsi="http://www.w3.org/2001/XMLSchema-instance" xmlns:ns2="http://www.garmin.com/xmlschemas/GpxExtensions/v3">
  <metadata>
    <name>Таврический сад
Центральный район (м. Чернышевская) Бег 10 км</name>
    <link href="connect.garmin.com">
      <text>Garmin Connect</text>
    </link>
    <time>2026-09-24T23:22:16.000Z</time>
  </metadata>
  <trk>
    <name>Таврический сад
Центральный район (м. Чернышевская) Бег 10 км</name>
    <trkseg>
      <trkpt lat="59.943777322769165" lon="30.37320613861084">
        <ele>10.87</ele>
      </trkpt>
      <trkpt lat="59.9437774065882" lon="30.37320613861084">
        <ele>10.74</ele>
      </trkpt>
      <trkpt lat="59.94383096694946" lon="30.37319540977478">
        <ele>10.71</ele>
      </trkpt>
      <trkpt lat="59.94383096694946" lon="30.37346363067627">
        <ele>10.77</ele>
      </trkpt>
      <trkpt lat="59.94395971298218" lon="30.373817682266235">
        <ele>10.89</ele>
      </trkpt>
      <trkpt lat="59.94398125447333" lon="30.374246835708618">
        <ele>10.69</ele>
      </trkpt>
      <trkpt lat="59.9439811706543" lon="30.374246835708618">
        <ele>10.59</ele>
      </trkpt>
      <trkpt lat="59.94391679763794" lon="30.374590158462524">
        <ele>10.28</ele>
      </trkpt>
      <trkpt lat="59.94398125447333" lon="30.374901294708252">
        <ele>10.02</ele>
      </trkpt>
      <trkpt lat="59.944067085161805" lon="30.3751802444458">
        <ele>9.84</ele>
      </trkpt>
      <trkpt lat="59.94406700134277" lon="30.3751802444458">
        <ele>9.8</ele>
      </trkpt>
      <trkpt lat="59.944067085161805" lon="30.3751802444458">
        <ele>9.96</ele>
      </trkpt>
      <trkpt lat="59.94398628361523" lon="30.37565373815596">
        <ele>10.22</ele>
      </trkpt>
      <trkpt lat="59.94390606880188" lon="30.376124382019043">
        <ele>10.59</ele>
      </trkpt>
      <trkpt lat="59.94389533996582" lon="30.376576501876116">
        <ele>10.92</ele>
      </trkpt>
      <trkpt lat="59.94388469494879" lon="30.377025604248047">
        <ele>11.26</ele>
      </trkpt>
      <trkpt lat="59.943927526474" lon="30.37743330001831">
        <ele>11.66</ele>
      </trkpt>
      <trkpt lat="59.944099271669984" lon="30.377519130706787">
        <ele>12.07</ele>
      </trkpt>
      <trkpt lat="59.94426045566797" lon="30.377562046051025">
        <ele>12.48</ele>
      </trkpt>
      <trkpt lat="59.94442113675177" lon="30.377604961395264">
        <ele>12.86</ele>
      </trkpt>
      <trkpt lat="59.94466111063957" lon="30.37762281484902">
        <ele>13.12</ele>
      </trkpt>
      <trkpt lat="59.94490108452737" lon="30.377640752121806">
        <ele>13.32</ele>
      </trkpt>
      <trkpt lat="59.94513996876776" lon="30.37765860557556">
        <ele>13.4</ele>
      </trkpt>
      <trkpt lat="59.94513988494873" lon="30.37765860557556">
        <ele>13.4</ele>
      </trkpt>
      <trkpt lat="59.94519352912903" lon="30.377293825149536">
        <ele>12.88</ele>
      </trkpt>
      <trkpt lat="59.94541405700147" lon="30.37684740498662">
        <ele>12.61</ele>
      </trkpt>
      <trkpt lat="59.9456334952265" lon="30.376403331756592">
        <ele>11.93</ele>
      </trkpt>
      <trkpt lat="59.945621592924" lon="30.37638363428414">
        <ele>11.6</ele>
      </trkpt>
      <trkpt lat="59.94560122489929" lon="30.376349687576294">
        <ele>11.05</ele>
      </trkpt>
      <trkpt lat="59.94547247886658" lon="30.376070737838745">
        <ele>10.95</ele>
      </trkpt>
      <trkpt lat="59.94544037617743" lon="30.376027822494507">
        <ele>10.83</ele>
      </trkpt>
      <trkpt lat="59.945247173309326" lon="30.37598490715027">
        <ele>10.81</ele>
      </trkpt>
      <trkpt lat="59.945214902982116" lon="30.37563504651189">
        <ele>10.71</ele>
      </trkpt>
      <trkpt lat="59.945182884112" lon="30.375287532806396">
        <ele>10.61</ele>
      </trkpt>
      <trkpt lat="59.94518280029297" lon="30.375287532806396">
        <ele>10.6</ele>
      </trkpt>
      <trkpt lat="59.945182884112" lon="30.375287532806396">
        <ele>10.68</ele>
      </trkpt>
      <trkpt lat="59.94519352912903" lon="30.375244617462158">
        <ele>10.75</ele>
      </trkpt>
      <trkpt lat="59.945257902145386" lon="30.37496566772461">
        <ele>10.94</ele>
      </trkpt>
      <trkpt lat="59.945268630981445" lon="30.374890565872192">
        <ele>11.06</ele>
      </trkpt>
      <trkpt lat="59.945510448887944" lon="30.37497111596167">
        <ele>11.14</ele>
      </trkpt>
      <trkpt lat="59.94575151242316" lon="30.375051498413086">
        <ele>11.14</ele>
      </trkpt>
      <trkpt lat="59.94590733200312" lon="30.374981593340635">
        <ele>11.19</ele>
      </trkpt>
      <trkpt lat="59.946062648668885" lon="30.37491202354431">
        <ele>11.3</ele>
      </trkpt>
      <trkpt lat="59.946260545402765" lon="30.374583704397082">
        <ele>11.44</ele>
      </trkpt>
      <trkpt lat="59.9464575201273" lon="30.374257061630487">
        <ele>11.4</ele>
      </trkpt>
      <trkpt lat="59.946502447128296" lon="30.37418246269226">
        <ele>11.34</ele>
      </trkpt>
      <trkpt lat="59.94650253094733" lon="30.37418246269226">
        <ele>11.27</ele>
      </trkpt>
      <trkpt lat="59.94665306992829" lon="30.373945841565728">
        <ele>11.15</ele>
      </trkpt>
      <trkpt lat="59.946802938356996" lon="30.37371039390564">
        <ele>11.01</ele>
      </trkpt>
      <trkpt lat="59.94692087173462" lon="30.373656749725342">
        <ele>10.85</ele>
      </trkpt>
      <trkpt lat="59.94716805405915" lon="30.37373729981482">
        <ele>10.67</ele>
      </trkpt>
      <trkpt lat="59.94741448201239" lon="30.373817682266235">
        <ele>10.42</ele>
      </trkpt>
      <trkpt lat="59.94755957275629" lon="30.373559519648552">
        <ele>10.1</ele>
      </trkpt>
      <trkpt lat="59.94770407676697" lon="30.373302698135376">
        <ele>9.74</ele>
      </trkpt>
      <trkpt lat="59.94772553443909" lon="30.373259782791138">
        <ele>9.35</ele>
      </trkpt>
      <trkpt lat="59.947800636291504" lon="30.373152494430542">
        <ele>8.89</ele>
      </trkpt>
      <trkpt lat="59.947822177782655" lon="30.373109579086304">
        <ele>8.47</ele>
      </trkpt>
      <trkpt lat="59.94788646697998" lon="30.372755527496338">
        <ele>7.96</ele>
      </trkpt>
      <trkpt lat="59.94790256023407" lon="30.37213115952909">
        <ele>7.44</ele>
      </trkpt>
      <trkpt lat="59.94791865348816" lon="30.371510982513428">
        <ele>7.14</ele>
      </trkpt>
      <trkpt lat="59.94791873730719" lon="30.371510982513428">
        <ele>6.88</ele>
      </trkpt>
      <trkpt lat="59.94792938232422" lon="30.371317863464355">
        <ele>6.69</ele>
      </trkpt>
      <trkpt lat="59.94792946614325" lon="30.371317863464355">
        <ele>6.56</ele>
      </trkpt>
      <trkpt lat="59.94792938232422" lon="30.371317863464355">
        <ele>6.67</ele>
      </trkpt>
      <trkpt lat="59.94767683558166" lon="30.371312415227294">
        <ele>6.85</ele>
      </trkpt>
      <trkpt lat="59.94742521084845" lon="30.371307134628296">
        <ele>7.2</ele>
      </trkpt>
      <trkpt lat="59.94717802852392" lon="30.371269499883056">
        <ele>7.58</ele>
      </trkpt>
      <trkpt lat="59.94693168438971" lon="30.37123203277588">
        <ele>8.05</ele>
      </trkpt>
      <trkpt lat="59.94673856534064" lon="30.370910167694092">
        <ele>8.45</ele>
      </trkpt>
      <trkpt lat="59.946738481521606" lon="30.370910167694092">
        <ele>8.92</ele>
      </trkpt>
      <trkpt lat="59.94655198417604" lon="30.370519319549203">
        <ele>9.48</ele>
      </trkpt>
      <trkpt lat="59.946365570649505" lon="30.370128471404314">
        <ele>10.12</ele>
      </trkpt>
      <trkpt lat="59.94618058204651" lon="30.3697407245636">
        <ele>10.68</ele>
      </trkpt>
      <trkpt lat="59.94609424844384" lon="30.369709376245737">
        <ele>11.24</ele>
      </trkpt>
      <trkpt lat="59.94609424844384" lon="30.369709292426705">
        <ele>11.76</ele>
      </trkpt>
      <trkpt lat="59.94606256484985" lon="30.36969780921936">
        <ele>12.27</ele>
      </trkpt>
      <trkpt lat="59.946030378341675" lon="30.36997675895691">
        <ele>12.83</ele>
      </trkpt>
      <trkpt lat="59.945740699768066" lon="30.370051860809326">
        <ele>13.33</ele>
      </trkpt>
      <trkpt lat="59.945536935701966" lon="30.370330810546875">
        <ele>13.82</ele>
      </trkpt>
      <trkpt lat="59.945289669558406" lon="30.370217906311154">
        <ele>14.19</ele>
      </trkpt>
      <trkpt lat="59.945043325424194" lon="30.370105504989624">
        <ele>14.43</ele>
      </trkpt>
      <trkpt lat="59.945054138079286" lon="30.369526147842407">
        <ele>15.16</ele>
      </trkpt>
      <trkpt lat="59.94506478309631" lon="30.369197744876146">
        <ele>15.23</ele>
      </trkpt>
      <trkpt lat="59.94507551193237" lon="30.368871688842773">
        <ele>15.33</ele>
      </trkpt>
      <trkpt lat="59.94508624076843" lon="30.36846399307251">
        <ele>15.42</ele>
      </trkpt>
      <trkpt lat="59.945086324587464" lon="30.36846399307251">
        <ele>15.48</ele>
      </trkpt>
      <trkpt lat="59.945086324587464" lon="30.36824941635132">
        <ele>15.58</ele>
      </trkpt>
      <trkpt lat="59.945097053423524" lon="30.367873907089233">
        <ele>15.71</ele>
      </trkpt>
      <trkpt lat="59.94509696960449" lon="30.367755889892578">
        <ele>15.75</ele>
      </trkpt>
      <trkpt lat="59.945247173309326" lon="30.367766618728638">
        <ele>15.2</ele>
      </trkpt>
      <trkpt lat="59.945429898798466" lon="30.367782711982727">
        <ele>14.91</ele>
      </trkpt>
      <trkpt lat="59.94561203755438" lon="30.367798805236816">
        <ele>14.62</ele>
      </trkpt>
      <trkpt lat="59.945837343111634" lon="30.367830991744995">
        <ele>14.32</ele>
      </trkpt>
      <trkpt lat="59.94609475135803" lon="30.367852449417114">
        <ele>13.98</ele>
      </trkpt>
      <trkpt lat="59.94621285237372" lon="30.367863178253174">
        <ele>13.58</ele>
      </trkpt>
      <trkpt lat="59.946513175964355" lon="30.367895364761353">
        <ele>12.99</ele>
      </trkpt>
      <trkpt lat="59.94670629501343" lon="30.367906093597412">
        <ele>12.44</ele>
      </trkpt>
      <trkpt lat="59.94697853922844" lon="30.367934675887227">
        <ele>11.98</ele>
      </trkpt>
      <trkpt lat="59.94725078344345" lon="30.367963341996074">
        <ele>11.6</ele>
      </trkpt>
      <trkpt lat="59.94752177037299" lon="30.36799192428589">
        <ele>11.12</ele>
      </trkpt>
      <trkpt lat="59.947779178619385" lon="30.368013381958008">
        <ele>10.6</ele>
      </trkpt>
      <trkpt lat="59.947977997362614" lon="30.368040204048157">
        <ele>10.09</ele>
      </trkpt>
      <trkpt lat="59.94817622937262" lon="30.368067026138306">
        <ele>9.55</ele>
      </trkpt>
      <trkpt lat="59.94835861958563" lon="30.368077754974365">
        <ele>9.16</ele>
      </trkpt>
      <trkpt lat="59.94845517911017" lon="30.368077754974365">
        <ele>8.85</ele>
      </trkpt>
      <trkpt lat="59.94872331619263" lon="30.368099212646484">
        <ele>8.74</ele>
      </trkpt>
      <trkpt lat="59.94872340001166" lon="30.368099212646484">
        <ele>8.2</ele>
      </trkpt>
      <trkpt lat="59.94872331619263" lon="30.368281602859497">
        <ele>8.01</ele>
      </trkpt>
      <trkpt lat="59.948776960372925" lon="30.368345975875854">
        <ele>7.91</ele>
      </trkpt>
      <trkpt lat="59.948830688372254" lon="30.368345975875854">
        <ele>7.8</ele>
      </trkpt>
      <trkpt lat="59.94890579022467" lon="30.368345975875854">
        <ele>7.7</ele>
      </trkpt>
      <trkpt lat="59.94894870556891" lon="30.368345975875854">
        <ele>7.55</ele>
      </trkpt>
      <trkpt lat="59.94895935058594" lon="30.368281602859497">
        <ele>7.35</ele>
      </trkpt>
      <trkpt lat="59.94895943440497" lon="30.368281602859497">
        <ele>7.11</ele>
      </trkpt>
      <trkpt lat="59.949002265930176" lon="30.368099212646484">
        <ele>6.93</ele>
      </trkpt>
      <trkpt lat="59.94927627034485" lon="30.368115305900574">
        <ele>6.65</ele>
      </trkpt>
      <trkpt lat="59.949549436569214" lon="30.368131399154663">
        <ele>6.3</ele>
      </trkpt>
      <trkpt lat="59.949726797640324" lon="30.368147492408752">
        <ele>5.63</ele>
      </trkpt>
      <trkpt lat="59.94990357197821" lon="30.368163585662842">
        <ele>4.86</ele>
      </trkpt>
      <trkpt lat="59.950053775683045" lon="30.368335247039795">
        <ele>4.18</ele>
      </trkpt>
      <trkpt lat="59.9501181486994" lon="30.368292331695557">
        <ele>3.58</ele>
      </trkpt>
      <trkpt lat="59.95019325055182" lon="30.36824941635132">
        <ele>3.02</ele>
      </trkpt>
      <trkpt lat="59.95036482810974" lon="30.368142127990723">
        <ele>2.45</ele>
      </trkpt>
      <trkpt lat="59.95039701461792" lon="30.368131399154663">
        <ele>2.01</ele>
      </trkpt>
      <trkpt lat="59.95045065879822" lon="30.36844253540039">
        <ele>0.82</ele>
      </trkpt>
      <trkpt lat="59.950569011271" lon="30.368955424055457">
        <ele>0.69</ele>
      </trkpt>
      <trkpt lat="59.950687447562814" lon="30.369468396529555">
        <ele>0.53</ele>
      </trkpt>
      <trkpt lat="59.950805800035596" lon="30.369981369003654">
        <ele>0.54</ele>
      </trkpt>
      <trkpt lat="59.95092423632741" lon="30.37049434147775">
        <ele>0.58</ele>
      </trkpt>
      <trkpt lat="59.95104258880019" lon="30.37100731395185">
        <ele>0.6</ele>
      </trkpt>
      <trkpt lat="59.95115884579718" lon="30.371510982513428">
        <ele>0.7</ele>
      </trkpt>
      <trkpt lat="59.95115876197815" lon="30.371510982513428">
        <ele>0.77</ele>
      </trkpt>
      <trkpt lat="59.951263619586825" lon="30.371965616941452">
        <ele>0.79</ele>
      </trkpt>
      <trkpt lat="59.95136856101453" lon="30.372420251369476">
        <ele>0.84</ele>
      </trkpt>
      <trkpt lat="59.95147350244224" lon="30.372874969616532">
        <ele>1.01</ele>
      </trkpt>
      <trkpt lat="59.95157718658447" lon="30.373324155807495">
        <ele>1.16</ele>
      </trkpt>
      <trkpt lat="59.95173241943121" lon="30.373809803277254">
        <ele>1.25</ele>
      </trkpt>
      <trkpt lat="59.95188765227795" lon="30.374295534566045">
        <ele>1.42</ele>
      </trkpt>
      <trkpt lat="59.952042968943715" lon="30.374781182035804">
        <ele>1.61</ele>
      </trkpt>
      <trkpt lat="59.95219820179045" lon="30.375266913324594">
        <ele>1.77</ele>
      </trkpt>
      <trkpt lat="59.95235343463719" lon="30.375752644613385">
        <ele>2.11</ele>
      </trkpt>
      <trkpt lat="59.95250875130296" lon="30.376238375902176">
        <ele>2.41</ele>
      </trkpt>
      <trkpt lat="59.95266088284552" lon="30.37671446800232">
        <ele>2.55</ele>
      </trkpt>
      <trkpt lat="59.95266079902649" lon="30.37671446800232">
        <ele>2.74</ele>
      </trkpt>
      <trkpt lat="59.95281142182648" lon="30.37714261561632">
        <ele>2.73</ele>
      </trkpt>
      <trkpt lat="59.952962044626474" lon="30.377570847049356">
        <ele>2.94</ele>
      </trkpt>
      <trkpt lat="59.95311266742647" lon="30.377998994663358">
        <ele>3.12</ele>
      </trkpt>
      <trkpt lat="59.95326329022646" lon="30.37842722609639">
        <ele>3.3</ele>
      </trkpt>
      <trkpt lat="59.95341181755066" lon="30.378849506378174">
        <ele>3.44</ele>
      </trkpt>
      <trkpt lat="59.95361616834998" lon="30.379319144412875">
        <ele>3.51</ele>
      </trkpt>
      <trkpt lat="59.9538205191493" lon="30.37978886626661">
        <ele>3.66</ele>
      </trkpt>
      <trkpt lat="59.95402495376766" lon="30.38025850430131">
        <ele>3.74</ele>
      </trkpt>
      <trkpt lat="59.95422930456698" lon="30.380728226155043">
        <ele>3.86</ele>
      </trkpt>
      <trkpt lat="59.95443373918533" lon="30.381197948008776">
        <ele>3.91</ele>
      </trkpt>
      <trkpt lat="59.954638089984655" lon="30.381667586043477">
        <ele>3.82</ele>
      </trkpt>
      <trkpt lat="59.95484252460301" lon="30.38213730789721">
        <ele>3.31</ele>
      </trkpt>
      <trkpt lat="59.95504687540233" lon="30.382607029750943">
        <ele>2.79</ele>
      </trkpt>
      <trkpt lat="59.955251310020685" lon="30.383076751604676">
        <ele>2.28</ele>
      </trkpt>
      <trkpt lat="59.95545566082001" lon="30.383546389639378">
        <ele>1.75</ele>
      </trkpt>
      <trkpt lat="59.95566001161933" lon="30.38401611149311">
        <ele>1.29</ele>
      </trkpt>
      <trkpt lat="59.95585799217224" lon="30.38447141647339">
        <ele>0.84</ele>
      </trkpt>
      <trkpt lat="59.95599428191781" lon="30.384984305128455">
        <ele>0.48</ele>
      </trkpt>
      <trkpt lat="59.95613057166338" lon="30.38549719378352">
        <ele>0.27</ele>
      </trkpt>
      <trkpt lat="59.956265687942505" lon="30.386005640029907">
        <ele>0.06</ele>
      </trkpt>
      <trkpt lat="59.9563158955425" lon="30.386547362431884">
        <ele>-0.2</ele>
      </trkpt>
      <trkpt lat="59.9563661031425" lon="30.387089168652892">
        <ele>-0.48</ele>
      </trkpt>
      <trkpt lat="59.95641589164734" lon="30.387625694274902">
        <ele>-0.68</ele>
      </trkpt>
      <trkpt lat="59.956390745937824" lon="30.38812441751361">
        <ele>-0.91</ele>
      </trkpt>
      <trkpt lat="59.95636560022831" lon="30.388623140752316">
        <ele>-1.09</ele>
      </trkpt>
      <trkpt lat="59.95634078979492" lon="30.389117002487183">
        <ele>-1.37</ele>
      </trkpt>
      <trkpt lat="59.95625462383032" lon="30.389622850343585">
        <ele>-1.58</ele>
      </trkpt>
      <trkpt lat="59.95616912841797" lon="30.390125513076782">
        <ele>-1.77</ele>
      </trkpt>
      <trkpt lat="59.956061504781246" lon="30.39051820524037">
        <ele>-1.91</ele>
      </trkpt>
      <trkpt lat="59.95595455169678" lon="30.39090871810913">
        <ele>-1.96</ele>
      </trkpt>
      <trkpt lat="59.95576621033251" lon="30.391410291194916">
        <ele>-1.8</ele>
      </trkpt>
      <trkpt lat="59.95557795278728" lon="30.391911948099732">
        <ele>-1.79</ele>
      </trkpt>
      <trkpt lat="59.95538969524205" lon="30.39241360500455">
        <ele>-1.85</ele>
      </trkpt>
      <trkpt lat="59.955201437696815" lon="30.392915178090334">
        <ele>-2.0</ele>
      </trkpt>
      <trkpt lat="59.95501318015158" lon="30.39341683499515">
        <ele>-2.18</ele>
      </trkpt>
      <trkpt lat="59.95482492260635" lon="30.393918408080935">
        <ele>-2.29</ele>
      </trkpt>
      <trkpt lat="59.954636665061116" lon="30.394420064985752">
        <ele>-2.3</ele>
      </trkpt>
      <trkpt lat="59.95445251464844" lon="30.39491057395935">
        <ele>-2.29</ele>
      </trkpt>
      <trkpt lat="59.95423374697566" lon="30.395330004394054">
        <ele>-2.43</ele>
      </trkpt>
      <trkpt lat="59.954015063121915" lon="30.39574951864779">
        <ele>-2.46</ele>
      </trkpt>
      <trkpt lat="59.95379637926817" lon="30.396168949082494">
        <ele>-2.3</ele>
      </trkpt>
      <trkpt lat="59.953577695414424" lon="30.39658846333623">
        <ele>-2.04</ele>
      </trkpt>
      <trkpt lat="59.95335901156068" lon="30.397007893770933">
        <ele>-2.25</ele>
      </trkpt>
      <trkpt lat="59.95314359664917" lon="30.39742112159729">
        <ele>-2.23</ele>
      </trkpt>
      <trkpt lat="59.952924912795424" lon="30.397757990285754">
        <ele>-2.13</ele>
      </trkpt>
      <trkpt lat="59.95270631276071" lon="30.39809494279325">
        <ele>-1.76</ele>
      </trkpt>
      <trkpt lat="59.95248922146857" lon="30.39842963218689">
        <ele>-1.59</ele>
      </trkpt>
      <trkpt lat="59.952489137649536" lon="30.39842963218689">
        <ele>-1.34</ele>
      </trkpt>
      <trkpt lat="59.952333234250546" lon="30.39862308651209">
        <ele>-0.9</ele>
      </trkpt>
      <trkpt lat="59.95217800140381" lon="30.398815870285034">
        <ele>-0.53</ele>
      </trkpt>
      <trkpt lat="59.95193920098245" lon="30.399073781445622">
        <ele>-0.41</ele>
      </trkpt>
      <trkpt lat="59.95190978050232" lon="30.399105548858643">
        <ele>0.48</ele>
      </trkpt>
      <trkpt lat="59.9518883228302" lon="30.398998260498047">
        <ele>1.25</ele>
      </trkpt>
      <trkpt lat="59.951834762468934" lon="30.398794412612915">
        <ele>2.12</ele>
      </trkpt>
      <trkpt lat="59.951791763305664" lon="30.39865493774414">
        <ele>2.81</ele>
      </trkpt>
      <trkpt lat="59.95160937309265" lon="30.398719310760498">
        <ele>3.46</ele>
      </trkpt>
      <trkpt lat="59.95160945691168" lon="30.398719310760498">
        <ele>4.13</ele>
      </trkpt>
      <trkpt lat="59.95159327983856" lon="30.39810030721128">
        <ele>4.94</ele>
      </trkpt>
      <trkpt lat="59.95157710276544" lon="30.39748130366206">
        <ele>5.68</ele>
      </trkpt>
      <trkpt lat="59.95156092569232" lon="30.396862300112844">
        <ele>6.33</ele>
      </trkpt>
      <trkpt lat="59.951545000076294" lon="30.396251678466797">
        <ele>6.97</ele>
      </trkpt>
      <trkpt lat="59.95138901285827" lon="30.395762091502547">
        <ele>7.63</ele>
      </trkpt>
      <trkpt lat="59.9512339476496" lon="30.395275354385376">
        <ele>8.19</ele>
      </trkpt>
      <trkpt lat="59.95105776004493" lon="30.394818037748337">
        <ele>8.64</ele>
      </trkpt>
      <trkpt lat="59.95088157244027" lon="30.39436080493033">
        <ele>9.05</ele>
      </trkpt>
      <trkpt lat="59.9507053848356" lon="30.393903572112322">
        <ele>9.44</ele>
      </trkpt>
      <trkpt lat="59.950529197230935" lon="30.393446339294314">
        <ele>9.94</ele>
      </trkpt>
      <trkpt lat="59.95035300962627" lon="30.392989106476307">
        <ele>10.37</ele>
      </trkpt>
      <trkpt lat="59.950176905840635" lon="30.3925318736583">
        <ele>10.75</ele>
      </trkpt>
      <trkpt lat="59.95000071823597" lon="30.392074640840292">
        <ele>10.81</ele>
      </trkpt>
      <trkpt lat="59.94982838630676" lon="30.391627550125122">
        <ele>10.72</ele>
      </trkpt>
      <trkpt lat="59.949828470125794" lon="30.391627550125122">
        <ele>10.7</ele>
      </trkpt>
      <trkpt lat="59.9497262109071" lon="30.391358574852347">
        <ele>10.49</ele>
      </trkpt>
      <trkpt lat="59.94962453842163" lon="30.391091108322144">
        <ele>10.29</ele>
      </trkpt>
      <trkpt lat="59.94959235191345" lon="30.390876531600952">
        <ele>9.38</ele>
      </trkpt>
      <trkpt lat="59.949538791552186" lon="30.390629768371582">
        <ele>9.09</ele>
      </trkpt>
      <trkpt lat="59.9494743347168" lon="30.390383005142212">
        <ele>8.8</ele>
      </trkpt>
      <trkpt lat="59.94932413101196" lon="30.390372276306152">
        <ele>8.53</ele>
      </trkpt>
      <trkpt lat="59.94917401112616" lon="30.39039373397827">
        <ele>8.18</ele>
      </trkpt>
      <trkpt lat="59.94917392730713" lon="30.39039373397827">
        <ele>7.86</ele>
      </trkpt>
      <trkpt lat="59.94898089207709" lon="30.39039373397827">
        <ele>7.48</ele>
      </trkpt>
      <trkpt lat="59.948744773864746" lon="30.390383005142212">
        <ele>7.1</ele>
      </trkpt>
      <trkpt lat="59.94873764924705" lon="30.39036523550749">
        <ele>6.79</ele>
      </trkpt>
      <trkpt lat="59.94870194233954" lon="30.390275716781616">
        <ele>6.25</ele>
      </trkpt>
      <trkpt lat="59.94871258735657" lon="30.38965134881437">
        <ele>5.94</ele>
      </trkpt>
      <trkpt lat="59.94872331619263" lon="30.389031171798706">
        <ele>5.74</ele>
      </trkpt>
      <trkpt lat="59.94872331619263" lon="30.388998985290527">
        <ele>5.58</ele>
      </trkpt>
      <trkpt lat="59.94873404502869" lon="30.38838534615934">
        <ele>5.47</ele>
      </trkpt>
      <trkpt lat="59.948744773864746" lon="30.387775897979736">
        <ele>5.31</ele>
      </trkpt>
      <trkpt lat="59.94874485768378" lon="30.387614965438843">
        <ele>5.25</ele>
      </trkpt>
      <trkpt lat="59.948744773864746" lon="30.387518405914307">
        <ele>5.25</ele>
      </trkpt>
      <trkpt lat="59.948750138282776" lon="30.387098556384444">
        <ele>5.31</ele>
      </trkpt>
      <trkpt lat="59.94875558651984" lon="30.38668155670166">
        <ele>5.51</ele>
      </trkpt>
      <trkpt lat="59.948766231536865" lon="30.386112928390503">
        <ele>5.7</ele>
      </trkpt>
      <trkpt lat="59.9487663153559" lon="30.38597345352173">
        <ele>5.95</ele>
      </trkpt>
      <trkpt lat="59.9487663153559" lon="30.38590908050537">
        <ele>6.21</ele>
      </trkpt>
      <trkpt lat="59.94877704419196" lon="30.385737419128418">
        <ele>6.54</ele>
      </trkpt>
      <trkpt lat="59.948776960372925" lon="30.385662317276">
        <ele>6.85</ele>
      </trkpt>
      <trkpt lat="59.94878500699997" lon="30.385040631517768">
        <ele>7.19</ele>
      </trkpt>
      <trkpt lat="59.948793137446046" lon="30.384418945759535">
        <ele>7.5</ele>
      </trkpt>
      <trkpt lat="59.94880118407309" lon="30.3837972600013">
        <ele>7.87</ele>
      </trkpt>
      <trkpt lat="59.948809230700135" lon="30.38318395614624">
        <ele>8.17</ele>
      </trkpt>
      <trkpt lat="59.9488091468811" lon="30.383076667785645">
        <ele>8.39</ele>
      </trkpt>
      <trkpt lat="59.948819959536195" lon="30.38292646408081">
        <ele>8.6</ele>
      </trkpt>
      <trkpt lat="59.94881987571716" lon="30.38271188735962">
        <ele>8.77</ele>
      </trkpt>
      <trkpt lat="59.948819959536195" lon="30.382347106933594">
        <ele>8.92</ele>
      </trkpt>
      <trkpt lat="59.948830688372254" lon="30.381767749786377">
        <ele>8.95</ele>
      </trkpt>
      <trkpt lat="59.948841417208314" lon="30.38141369819641">
        <ele>8.95</ele>
      </trkpt>
      <trkpt lat="59.948847871273756" lon="30.38083023391664">
        <ele>8.9</ele>
      </trkpt>
      <trkpt lat="59.9488543253392" lon="30.38024676963687">
        <ele>8.78</ele>
      </trkpt>
      <trkpt lat="59.94886077940464" lon="30.3796633053571">
        <ele>8.56</ele>
      </trkpt>
      <trkpt lat="59.94886723347008" lon="30.379079841077328">
        <ele>8.29</ele>
      </trkpt>
      <trkpt lat="59.94887360371649" lon="30.378506183624268">
        <ele>8.07</ele>
      </trkpt>
      <trkpt lat="59.94887351989746" lon="30.37844181060791">
        <ele>7.94</ele>
      </trkpt>
      <trkpt lat="59.94885214604437" lon="30.378302335739136">
        <ele>7.82</ele>
      </trkpt>
      <trkpt lat="59.94885206222534" lon="30.378259420394897">
        <ele>7.75</ele>
      </trkpt>
      <trkpt lat="59.94885214604437" lon="30.37816286087036">
        <ele>7.72</ele>
      </trkpt>
      <trkpt lat="59.948819959536195" lon="30.378034114837646">
        <ele>7.73</ele>
      </trkpt>
      <trkpt lat="59.94881987571716" lon="30.378034114837646">
        <ele>7.83</ele>
      </trkpt>
      <trkpt lat="59.948787773028016" lon="30.378034114837646">
        <ele>8.59</ele>
      </trkpt>
      <trkpt lat="59.94870185852051" lon="30.378034114837646">
        <ele>9.0</ele>
      </trkpt>
      <trkpt lat="59.94864829815924" lon="30.378034114837646">
        <ele>9.5</ele>
      </trkpt>
      <trkpt lat="59.94862675666809" lon="30.378077030181885">
        <ele>10.05</ele>
      </trkpt>
      <trkpt lat="59.94862684048712" lon="30.378077030181885">
        <ele>10.66</ele>
      </trkpt>
      <trkpt lat="59.94831872172654" lon="30.37806269712746">
        <ele>11.43</ele>
      </trkpt>
      <trkpt lat="59.94801060296595" lon="30.378048364073038">
        <ele>12.27</ele>
      </trkpt>
      <trkpt lat="59.9477025680244" lon="30.378034031018615">
        <ele>13.16</ele>
      </trkpt>
      <trkpt lat="59.94739444926381" lon="30.37801969796419">
        <ele>14.06</ele>
      </trkpt>
      <trkpt lat="59.947086330503225" lon="30.378005364909768">
        <ele>14.77</ele>
      </trkpt>
      <trkpt lat="59.946781396865845" lon="30.377991199493408">
        <ele>15.17</ele>
      </trkpt>
      <trkpt lat="59.946781480684876" lon="30.377991199493408">
        <ele>15.65</ele>
      </trkpt>
      <trkpt lat="59.94668483734131" lon="30.378098487854004">
        <ele>16.03</ele>
      </trkpt>
      <trkpt lat="59.94638929143548" lon="30.378076946362853">
        <ele>16.27</ele>
      </trkpt>
      <trkpt lat="59.94609374552965" lon="30.378055488690734">
        <ele>16.66</ele>
      </trkpt>
      <trkpt lat="59.94579819962382" lon="30.378033947199583">
        <ele>16.88</ele>
      </trkpt>
      <trkpt lat="59.945504665374756" lon="30.378012657165527">
        <ele>16.77</ele>
      </trkpt>
      <trkpt lat="59.94550474919379" lon="30.378012657165527">
        <ele>16.75</ele>
      </trkpt>
      <trkpt lat="59.94521272368729" lon="30.377991115674376">
        <ele>16.57</ele>
      </trkpt>
      <trkpt lat="59.944920781999826" lon="30.377969658002257">
        <ele>16.49</ele>
      </trkpt>
      <trkpt lat="59.94462884031236" lon="30.377948116511106">
        <ele>16.37</ele>
      </trkpt>
      <trkpt lat="59.944336814805865" lon="30.377926658838987">
        <ele>16.02</ele>
      </trkpt>
      <trkpt lat="59.9440448731184" lon="30.377905117347836">
        <ele>15.48</ele>
      </trkpt>
      <trkpt lat="59.943755865097046" lon="30.377883911132812">
        <ele>14.96</ele>
      </trkpt>
      <trkpt lat="59.94371294975281" lon="30.377744436264038">
        <ele>13.28</ele>
      </trkpt>
      <trkpt lat="59.9437200743705" lon="30.377317378297448">
        <ele>12.82</ele>
      </trkpt>
      <trkpt lat="59.94372728280723" lon="30.37689040414989">
        <ele>12.45</ele>
      </trkpt>
      <trkpt lat="59.94373440742493" lon="30.37646770477295">
        <ele>12.17</ele>
      </trkpt>
      <trkpt lat="59.94373449124396" lon="30.37646770477295">
        <ele>11.85</ele>
      </trkpt>
      <trkpt lat="59.943741615861654" lon="30.375922210514545">
        <ele>11.55</ele>
      </trkpt>
      <trkpt lat="59.94374882429838" lon="30.375376800075173">
        <ele>11.18</ele>
      </trkpt>
      <trkpt lat="59.94375594891608" lon="30.3748313896358">
        <ele>10.89</ele>
      </trkpt>
      <trkpt lat="59.943763157352805" lon="30.37428597919643">
        <ele>10.78</ele>
      </trkpt>
      <trkpt lat="59.9437702819705" lon="30.373740568757057">
        <ele>10.73</ele>
      </trkpt>
      <trkpt lat="59.943777322769165" lon="30.37320613861084">
        <ele>10.53</ele>
      </trkpt>
      <trkpt lat="59.9437774065882" lon="30.37320613861084">
        <ele>10.41</ele>
      </trkpt>
      <trkpt lat="59.943777322769165" lon="30.37320613861084">
        <ele>10.32</ele>
      </trkpt>
      <trkpt lat="59.9437774065882" lon="30.37320613861084">
        <ele>10.2</ele>
      </trkpt>
      <trkpt lat="59.94383096694946" lon="30.37319540977478">
        <ele>10.18</ele>
      </trkpt>
      <trkpt lat="59.94383096694946" lon="30.37346363067627">
        <ele>10.2</ele>
      </trkpt>
      <trkpt lat="59.94395971298218" lon="30.373817682266235">
        <ele>10.25</ele>
      </trkpt>
      <trkpt lat="59.94398125447333" lon="30.374246835708618">
        <ele>10.15</ele>
      </trkpt>
      <trkpt lat="59.9439811706543" lon="30.374246835708618">
        <ele>10.16</ele>
      </trkpt>
      <trkpt lat="59.94391679763794" lon="30.374590158462524">
        <ele>10.08</ele>
      </trkpt>
      <trkpt lat="59.94398125447333" lon="30.374901294708252">
        <ele>10.07</ele>
      </trkpt>
      <trkpt lat="59.944067085161805" lon="30.3751802444458">
        <ele>10.11</ele>
      </trkpt>
      <trkpt lat="59.94405610486865" lon="30.375244366005063">
        <ele>10.2</ele>
      </trkpt>
      <trkpt lat="59.94405610486865" lon="30.37524428218603">
        <ele>10.34</ele>
      </trkpt>
      <trkpt lat="59.94398083537817" lon="30.375685673207045">
        <ele>10.57</ele>
      </trkpt>
      <trkpt lat="59.94390606880188" lon="30.376124382019043">
        <ele>10.83</ele>
      </trkpt>
      <trkpt lat="59.94389533996582" lon="30.376576501876116">
        <ele>11.04</ele>
      </trkpt>
      <trkpt lat="59.94388469494879" lon="30.377025604248047">
        <ele>11.25</ele>
      </trkpt>
      <trkpt lat="59.943927526474" lon="30.37743330001831">
        <ele>11.51</ele>
      </trkpt>
      <trkpt lat="59.944099271669984" lon="30.377519130706787">
        <ele>11.78</ele>
      </trkpt>
      <trkpt lat="59.94426045566797" lon="30.377562046051025">
        <ele>12.04</ele>
      </trkpt>
      <trkpt lat="59.94442113675177" lon="30.377604961395264">
        <ele>12.27</ele>
      </trkpt>
      <trkpt lat="59.94464912451804" lon="30.377621976658702">
        <ele>12.4</ele>
      </trkpt>
      <trkpt lat="59.9448771122843" lon="30.37763899192214">
        <ele>12.51</ele>
      </trkpt>
      <trkpt lat="59.945104010403156" lon="30.377655923366547">
        <ele>12.52</ele>
      </trkpt>
      <trkpt lat="59.94513988494873" lon="30.37765860557556">
        <ele>12.46</ele>
      </trkpt>
      <trkpt lat="59.94519352912903" lon="30.377293825149536">
        <ele>12.27</ele>
      </trkpt>
      <trkpt lat="59.94541405700147" lon="30.37684740498662">
        <ele>12.14</ele>
      </trkpt>
      <trkpt lat="59.9456334952265" lon="30.376403331756592">
        <ele>11.67</ele>
      </trkpt>
      <trkpt lat="59.94563341140747" lon="30.376403331756592">
        <ele>11.52</ele>
      </trkpt>
      <trkpt lat="59.9456334952265" lon="30.376403331756592">
        <ele>11.27</ele>
      </trkpt>
      <trkpt lat="59.94560122489929" lon="30.376349687576294">
        <ele>11.18</ele>
      </trkpt>
      <trkpt lat="59.94547247886658" lon="30.376070737838745">
        <ele>11.2</ele>
      </trkpt>
      <trkpt lat="59.94544037617743" lon="30.376027822494507">
        <ele>11.17</ele>
      </trkpt>
      <trkpt lat="59.945247173309326" lon="30.37598490715027">
        <ele>11.21</ele>
      </trkpt>
      <trkpt lat="59.945214902982116" lon="30.37563504651189">
        <ele>11.16</ele>
      </trkpt>
      <trkpt lat="59.945182884112" lon="30.375287532806396">
        <ele>11.1</ele>
      </trkpt>
      <trkpt lat="59.94519352912903" lon="30.375244617462158">
        <ele>11.12</ele>
      </trkpt>
      <trkpt lat="59.945257902145386" lon="30.37496566772461">
        <ele>11.24</ele>
      </trkpt>
      <trkpt lat="59.94526544585824" lon="30.37491294555366">
        <ele>11.29</ele>
      </trkpt>
      <trkpt lat="59.945268630981445" lon="30.374890565872192">
        <ele>11.36</ele>
      </trkpt>
      <trkpt lat="59.945510448887944" lon="30.37497111596167">
        <ele>11.37</ele>
      </trkpt>
      <trkpt lat="59.94575151242316" lon="30.375051498413086">
        <ele>11.31</ele>
      </trkpt>
      <trkpt lat="59.94590733200312" lon="30.374981593340635">
        <ele>11.29</ele>
      </trkpt>
      <trkpt lat="59.946062648668885" lon="30.37491202354431">
        <ele>11.34</ele>
      </trkpt>
      <trkpt lat="59.946283008903265" lon="30.374546321108937">
        <ele>11.41</ele>
      </trkpt>
      <trkpt lat="59.946502447128296" lon="30.37418246269226">
        <ele>11.3</ele>
      </trkpt>
      <trkpt lat="59.94650253094733" lon="30.37418246269226">
        <ele>11.24</ele>
      </trkpt>
      <trkpt lat="59.94665306992829" lon="30.373945757746696">
        <ele>11.15</ele>
      </trkpt>
      <trkpt lat="59.946802938356996" lon="30.37371039390564">
        <ele>10.88</ele>
      </trkpt>
      <trkpt lat="59.94692087173462" lon="30.373656749725342">
        <ele>10.74</ele>
      </trkpt>
      <trkpt lat="59.94716805405915" lon="30.37373729981482">
        <ele>10.56</ele>
      </trkpt>
      <trkpt lat="59.94741448201239" lon="30.373817682266235">
        <ele>10.34</ele>
      </trkpt>
      <trkpt lat="59.94755957275629" lon="30.373559519648552">
        <ele>10.05</ele>
      </trkpt>
      <trkpt lat="59.94770407676697" lon="30.373302698135376">
        <ele>9.73</ele>
      </trkpt>
      <trkpt lat="59.94772553443909" lon="30.373259782791138">
        <ele>9.38</ele>
      </trkpt>
      <trkpt lat="59.947800636291504" lon="30.373152494430542">
        <ele>8.98</ele>
      </trkpt>
      <trkpt lat="59.947822177782655" lon="30.373109579086304">
        <ele>8.62</ele>
      </trkpt>
      <trkpt lat="59.94788646697998" lon="30.372755527496338">
        <ele>8.18</ele>
      </trkpt>
      <trkpt lat="59.94790256023407" lon="30.37213115952909">
        <ele>7.74</ele>
      </trkpt>
      <trkpt lat="59.94791865348816" lon="30.371510982513428">
        <ele>7.51</ele>
      </trkpt>
      <trkpt lat="59.94791873730719" lon="30.371510982513428">
        <ele>7.32</ele>
      </trkpt>
      <trkpt lat="59.94792259298265" lon="30.3714398201555">
        <ele>7.2</ele>
      </trkpt>
      <trkpt lat="59.94792259298265" lon="30.371439903974533">
        <ele>7.14</ele>
      </trkpt>
      <trkpt lat="59.94792946614325" lon="30.371317863464355">
        <ele>7.14</ele>
      </trkpt>
      <trkpt lat="59.94792938232422" lon="30.371317863464355">
        <ele>7.22</ele>
      </trkpt>
      <trkpt lat="59.94767683558166" lon="30.371312415227294">
        <ele>7.34</ele>
      </trkpt>
      <trkpt lat="59.94742521084845" lon="30.371307134628296">
        <ele>7.63</ele>
      </trkpt>
      <trkpt lat="59.94717802852392" lon="30.371269499883056">
        <ele>7.94</ele>
      </trkpt>
      <trkpt lat="59.94693168438971" lon="30.37123203277588">
        <ele>8.31</ele>
      </trkpt>
      <trkpt lat="59.94673856534064" lon="30.370910167694092">
        <ele>8.61</ele>
      </trkpt>
      <trkpt lat="59.946738481521606" lon="30.370910167694092">
        <ele>8.95</ele>
      </trkpt>
      <trkpt lat="59.94655198417604" lon="30.370519319549203">
        <ele>9.37</ele>
      </trkpt>
      <trkpt lat="59.946365570649505" lon="30.370128471404314">
        <ele>9.86</ele>
      </trkpt>
      <trkpt lat="59.94618058204651" lon="30.3697407245636">
        <ele>10.25</ele>
      </trkpt>
      <trkpt lat="59.94606256484985" lon="30.36969780921936">
        <ele>10.64</ele>
      </trkpt>
      <trkpt lat="59.94604026898742" lon="30.369891012087464">
        <ele>11.02</ele>
      </trkpt>
      <trkpt lat="59.94604026898742" lon="30.369890928268433">
        <ele>11.3</ele>
      </trkpt>
      <trkpt lat="59.946030378341675" lon="30.36997675895691">
        <ele>11.58</ele>
      </trkpt>
      <trkpt lat="59.94609475135803" lon="30.370277166366577">
        <ele>11.82</ele>
      </trkpt>
      <trkpt lat="59.946309830993414" lon="30.37066432647407">
        <ele>11.86</ele>
      </trkpt>
      <trkpt lat="59.94652398861945" lon="30.371049642562866">
        <ele>11.84</ele>
      </trkpt>
      <trkpt lat="59.946523904800415" lon="30.371049642562866">
        <ele>11.97</ele>
      </trkpt>
      <trkpt lat="59.946556175127625" lon="30.371146202087402">
        <ele>12.1</ele>
      </trkpt>
      <trkpt lat="59.9466956499964" lon="30.371650457382202">
        <ele>12.32</ele>
      </trkpt>
      <trkpt lat="59.9468407407403" lon="30.371903171762824">
        <ele>12.39</ele>
      </trkpt>
      <trkpt lat="59.94698524475098" lon="30.372154712677002">
        <ele>12.41</ele>
      </trkpt>
      <trkpt lat="59.946925984695554" lon="30.37245067767799">
        <ele>12.55</ele>
      </trkpt>
      <trkpt lat="59.94686722755432" lon="30.37274479866028">
        <ele>12.6</ele>
      </trkpt>
      <trkpt lat="59.94700678624213" lon="30.37298083305359">
        <ele>12.58</ele>
      </trkpt>
      <trkpt lat="59.947006702423096" lon="30.37298083305359">
        <ele>12.57</ele>
      </trkpt>
      <trkpt lat="59.94700678624213" lon="30.37298083305359">
        <ele>12.53</ele>
      </trkpt>
      <trkpt lat="59.946781396865845" lon="30.373313426971436">
        <ele>12.49</ele>
      </trkpt>
      <trkpt lat="59.94658827781677" lon="30.37345290184021">
        <ele>12.49</ele>
      </trkpt>
      <trkpt lat="59.946287870407104" lon="30.37347435951233">
        <ele>12.52</ele>
      </trkpt>
      <trkpt lat="59.946287954226136" lon="30.37347435951233">
        <ele>12.51</ele>
      </trkpt>
      <trkpt lat="59.946287870407104" lon="30.37347435951233">
        <ele>12.49</ele>
      </trkpt>
      <trkpt lat="59.946287954226136" lon="30.37347435951233">
        <ele>12.49</ele>
      </trkpt>
      <trkpt lat="59.946287870407104" lon="30.37347435951233">
        <ele>12.49</ele>
      </trkpt>
      <trkpt lat="59.9463415145874" lon="30.37298083305359">
        <ele>12.52</ele>
      </trkpt>
      <trkpt lat="59.946269765496254" lon="30.37253231741488">
        <ele>12.49</ele>
      </trkpt>
      <trkpt lat="59.946198016405106" lon="30.372083885595202">
        <ele>12.45</ele>
      </trkpt>
      <trkpt lat="59.94612702168524" lon="30.371639728546143">
        <ele>12.42</ele>
      </trkpt>
      <trkpt lat="59.945998191833496" lon="30.37148952484131">
        <ele>12.49</ele>
      </trkpt>
      <trkpt lat="59.94599827565253" lon="30.37148952484131">
        <ele>12.57</ele>
      </trkpt>
      <trkpt lat="59.945890652015805" lon="30.371166737750173">
        <ele>12.8</ele>
      </trkpt>
      <trkpt lat="59.945783698931336" lon="30.370845794677734">
        <ele>13.05</ele>
      </trkpt>
      <trkpt lat="59.94567213580012" lon="30.370613113045692">
        <ele>13.19</ele>
      </trkpt>
      <trkpt lat="59.945561243221164" lon="30.370381688699126">
        <ele>13.29</ele>
      </trkpt>
      <trkpt lat="59.945536851882935" lon="30.370330810546875">
        <ele>13.38</ele>
      </trkpt>
      <trkpt lat="59.94534867815673" lon="30.370647981762886">
        <ele>13.38</ele>
      </trkpt>
      <trkpt lat="59.94516142643988" lon="30.37096381187439">
        <ele>13.24</ele>
      </trkpt>
      <trkpt lat="59.94516134262085" lon="30.37096381187439">
        <ele>13.22</ele>
      </trkpt>
      <trkpt lat="59.94516142643988" lon="30.37096381187439">
        <ele>13.15</ele>
      </trkpt>
      <trkpt lat="59.94516134262085" lon="30.37096381187439">
        <ele>13.14</ele>
      </trkpt>
      <trkpt lat="59.945290172472596" lon="30.371296405792236">
        <ele>13.1</ele>
      </trkpt>
      <trkpt lat="59.94527944363654" lon="30.37143588066101">
        <ele>13.09</ele>
      </trkpt>
      <trkpt lat="59.945279359817505" lon="30.37143588066101">
        <ele>13.15</ele>
      </trkpt>
      <trkpt lat="59.945333087816834" lon="30.371639728546143">
        <ele>13.22</ele>
      </trkpt>
      <trkpt lat="59.94542956352234" lon="30.37172555923462">
        <ele>13.3</ele>
      </trkpt>
      <trkpt lat="59.94540802203119" lon="30.37224942818284">
        <ele>13.43</ele>
      </trkpt>
      <trkpt lat="59.94538648054004" lon="30.37277329713106">
        <ele>13.72</ele>
      </trkpt>
      <trkpt lat="59.94536519050598" lon="30.373291969299316">
        <ele>14.09</ele>
      </trkpt>
      <trkpt lat="59.94517173618078" lon="30.373281156644225">
        <ele>15.24</ele>
      </trkpt>
      <trkpt lat="59.94497903622687" lon="30.373270511627197">
        <ele>15.55</ele>
      </trkpt>
      <trkpt lat="59.94497895240784" lon="30.373270511627197">
        <ele>15.79</ele>
      </trkpt>
      <trkpt lat="59.94497903622687" lon="30.373270511627197">
        <ele>16.19</ele>
      </trkpt>
      <trkpt lat="59.945054054260254" lon="30.373817682266235">
        <ele>16.33</ele>
      </trkpt>
      <trkpt lat="59.944828748703" lon="30.373796224594116">
        <ele>16.62</ele>
      </trkpt>
      <trkpt lat="59.94469975121319" lon="30.373984398320317">
        <ele>16.53</ele>
      </trkpt>
      <trkpt lat="59.944571340456605" lon="30.3741717338562">
        <ele>16.46</ele>
      </trkpt>
      <trkpt lat="59.94457125663757" lon="30.3741717338562">
        <ele>16.32</ele>
      </trkpt>
      <trkpt lat="59.944571340456605" lon="30.3741717338562">
        <ele>15.94</ele>
      </trkpt>
      <trkpt lat="59.94433522224426" lon="30.374118089675903">
        <ele>15.65</ele>
      </trkpt>
      <trkpt lat="59.94414688088" lon="30.373644679784775">
        <ele>14.42</ele>
      </trkpt>
      <trkpt lat="59.94395971298218" lon="30.37317395210266">
        <ele>13.96</ele>
      </trkpt>
      <trkpt lat="59.94394898414612" lon="30.372895002365112">
        <ele>13.72</ele>
      </trkpt>
      <trkpt lat="59.94394906796515" lon="30.372895002365112">
        <ele>13.52</ele>
      </trkpt>
      <trkpt lat="59.94394898414612" lon="30.372895002365112">
        <ele>13.36</ele>
      </trkpt>
      <trkpt lat="59.94412064552307" lon="30.372809171676636">
        <ele>13.3</ele>
      </trkpt>
      <trkpt lat="59.94429264217615" lon="30.372599456459284">
        <ele>13.49</ele>
      </trkpt>
      <trkpt lat="59.94446405209601" lon="30.372390747070312">
        <ele>13.61</ele>
      </trkpt>
      <trkpt lat="59.94459304958582" lon="30.37220248952508">
        <ele>13.66</ele>
      </trkpt>
      <trkpt lat="59.94472154416144" lon="30.372015237808228">
        <ele>13.73</ele>
      </trkpt>
      <trkpt lat="59.94472146034241" lon="30.372015237808228">
        <ele>13.86</ele>
      </trkpt>
      <trkpt lat="59.94472154416144" lon="30.372015237808228">
        <ele>14.29</ele>
      </trkpt>
      <trkpt lat="59.94472146034241" lon="30.372015237808228">
        <ele>14.44</ele>
      </trkpt>
      <trkpt lat="59.94463571347296" lon="30.371596813201904">
        <ele>14.6</ele>
      </trkpt>
      <trkpt lat="59.94463562965393" lon="30.371596813201904">
        <ele>14.74</ele>
      </trkpt>
      <trkpt lat="59.94454946368933" lon="30.371257765218616">
        <ele>14.9</ele>
      </trkpt>
      <trkpt lat="59.94446396827698" lon="30.37092089653015">
        <ele>15.01</ele>
      </trkpt>
      <trkpt lat="59.9444317817688" lon="30.370556116104126">
        <ele>15.17</ele>
      </trkpt>
      <trkpt lat="59.94447478093207" lon="30.370126962661743">
        <ele>15.28</ele>
      </trkpt>
      <trkpt lat="59.94451769627631" lon="30.369901657104492">
        <ele>15.38</ele>
      </trkpt>
      <trkpt lat="59.9446249846369" lon="30.3696870803833">
        <ele>15.48</ele>
      </trkpt>
      <trkpt lat="59.94462490081787" lon="30.3696870803833">
        <ele>15.52</ele>
      </trkpt>
      <trkpt lat="59.9446249846369" lon="30.3696870803833">
        <ele>15.52</ele>
      </trkpt>
      <trkpt lat="59.94483453221619" lon="30.36989662796259">
        <ele>15.36</ele>
      </trkpt>
      <trkpt lat="59.945043325424194" lon="30.370105504989624">
        <ele>15.34</ele>
      </trkpt>
      <trkpt lat="59.94529050774872" lon="30.370218325406313">
        <ele>15.31</ele>
      </trkpt>
      <trkpt lat="59.945536851882935" lon="30.370330810546875">
        <ele>15.17</ele>
      </trkpt>
      <trkpt lat="59.945536935701966" lon="30.370330810546875">
        <ele>14.59</ele>
      </trkpt>
      <trkpt lat="59.945740699768066" lon="30.370051860809326">
        <ele>14.26</ele>
      </trkpt>
      <trkpt lat="59.946030378341675" lon="30.36997675895691">
        <ele>13.94</ele>
      </trkpt>
      <trkpt lat="59.94609475135803" lon="30.370277166366577">
        <ele>12.92</ele>
      </trkpt>
      <trkpt lat="59.946309830993414" lon="30.37066432647407">
        <ele>12.53</ele>
      </trkpt>
      <trkpt lat="59.94652398861945" lon="30.371049642562866">
        <ele>12.14</ele>
      </trkpt>
      <trkpt lat="59.946523904800415" lon="30.371049642562866">
        <ele>11.96</ele>
      </trkpt>
      <trkpt lat="59.946556175127625" lon="30.371146202087402">
        <ele>11.84</ele>
      </trkpt>
      <trkpt lat="59.9466956499964" lon="30.371650457382202">
        <ele>11.86</ele>
      </trkpt>
      <trkpt lat="59.9468407407403" lon="30.371903171762824">
        <ele>11.76</ele>
      </trkpt>
      <trkpt lat="59.94698524475098" lon="30.372154712677002">
        <ele>11.65</ele>
      </trkpt>
      <trkpt lat="59.946889942511916" lon="30.372631223872304">
        <ele>11.71</ele>
      </trkpt>
      <trkpt lat="59.946889942511916" lon="30.372631140053272">
        <ele>11.68</ele>
      </trkpt>
      <trkpt lat="59.94686722755432" lon="30.37274479866028">
        <ele>11.68</ele>
      </trkpt>
      <trkpt lat="59.94700678624213" lon="30.37298083305359">
        <ele>11.64</ele>
      </trkpt>
      <trkpt lat="59.946781396865845" lon="30.373313426971436">
        <ele>11.64</ele>
      </trkpt>
      <trkpt lat="59.94658827781677" lon="30.37345290184021">
        <ele>11.69</ele>
      </trkpt>
      <trkpt lat="59.9463761318475" lon="30.37346807308495">
        <ele>11.75</ele>
      </trkpt>
      <trkpt lat="59.946287870407104" lon="30.37347435951233">
        <ele>11.87</ele>
      </trkpt>
      <trkpt lat="59.946287954226136" lon="30.37347435951233">
        <ele>11.92</ele>
      </trkpt>
      <trkpt lat="59.946287870407104" lon="30.37347435951233">
        <ele>11.98</ele>
      </trkpt>
      <trkpt lat="59.9463415145874" lon="30.37298083305359">
        <ele>12.07</ele>
      </trkpt>
      <trkpt lat="59.946269765496254" lon="30.37253231741488">
        <ele>12.09</ele>
      </trkpt>
      <trkpt lat="59.946198016405106" lon="30.372083885595202">
        <ele>12.13</ele>
      </trkpt>
      <trkpt lat="59.94612702168524" lon="30.371639728546143">
        <ele>12.19</ele>
      </trkpt>
      <trkpt lat="59.945998191833496" lon="30.37148952484131">
        <ele>12.39</ele>
      </trkpt>
      <trkpt lat="59.94599827565253" lon="30.37148952484131">
        <ele>12.61</ele>
      </trkpt>
      <trkpt lat="59.945890652015805" lon="30.371166737750173">
        <ele>12.98</ele>
      </trkpt>
      <trkpt lat="59.945783698931336" lon="30.370845794677734">
        <ele>13.33</ele>
      </trkpt>
      <trkpt lat="59.945625280961394" lon="30.370515463873744">
        <ele>13.52</ele>
      </trkpt>
      <trkpt lat="59.945625280961394" lon="30.370515380054712">
        <ele>13.59</ele>
      </trkpt>
      <trkpt lat="59.945536851882935" lon="30.370330810546875">
        <ele>13.63</ele>
      </trkpt>
      <trkpt lat="59.94536477141082" lon="30.37062082439661">
        <ele>13.6</ele>
      </trkpt>
      <trkpt lat="59.94519352912903" lon="30.37090958096087">
        <ele>13.4</ele>
      </trkpt>
      <trkpt lat="59.94516142643988" lon="30.37096381187439">
        <ele>13.25</ele>
      </trkpt>
      <trkpt lat="59.94516134262085" lon="30.37096381187439">
        <ele>13.18</ele>
      </trkpt>
      <trkpt lat="59.945290172472596" lon="30.371296405792236">
        <ele>13.06</ele>
      </trkpt>
      <trkpt lat="59.94527944363654" lon="30.37143588066101">
        <ele>13.0</ele>
      </trkpt>
      <trkpt lat="59.945279359817505" lon="30.37143588066101">
        <ele>13.04</ele>
      </trkpt>
      <trkpt lat="59.945333087816834" lon="30.371639728546143">
        <ele>13.11</ele>
      </trkpt>
      <trkpt lat="59.94542956352234" lon="30.37172555923462">
        <ele>13.25</ele>
      </trkpt>
      <trkpt lat="59.94540802203119" lon="30.37224942818284">
        <ele>13.5</ele>
      </trkpt>
      <trkpt lat="59.94538648054004" lon="30.37277329713106">
        <ele>13.98</ele>
      </trkpt>
      <trkpt lat="59.94536519050598" lon="30.373291969299316">
        <ele>14.49</ele>
      </trkpt>
      <trkpt lat="59.94517173618078" lon="30.373281156644225">
        <ele>14.81</ele>
      </trkpt>
      <trkpt lat="59.94497903622687" lon="30.373270511627197">
        <ele>14.93</ele>
      </trkpt>
      <trkpt lat="59.94473487138748" lon="30.373247377574444">
        <ele>14.85</ele>
      </trkpt>
      <trkpt lat="59.94449079036713" lon="30.37322424352169">
        <ele>14.45</ele>
      </trkpt>
      <trkpt lat="59.94424670934677" lon="30.373201109468937">
        <ele>13.82</ele>
      </trkpt>
      <trkpt lat="59.94400430470705" lon="30.373178143054247">
        <ele>13.2</ele>
      </trkpt>
      <trkpt lat="59.94395971298218" lon="30.37317395210266">
        <ele>12.83</ele>
      </trkpt>
    </trkseg>
  </trk>
</gpx>
