<?xml version="1.0" encoding="UTF-8"?>
<gpx creator="Garmin Connect" version="1.1"
  xsi:schemaLocation="http://www.topografix.com/GPX/1/1 http://www.topografix.com/GPX/11.xsd"
  xmlns:ns3="http://www.garmin.com/xmlschemas/TrackPointExtension/v1"
  xmlns="http://www.topografix.com/GPX/1/1"
  xmlns:xsi="http://www.w3.org/2001/XMLSchema-instance" xmlns:ns2="http://www.garmin.com/xmlschemas/GpxExtensions/v3">
  <metadata>
    <name>Таврический сад
Центральный район (м. Чернышевская) Бег 5 км</name>
    <link href="connect.garmin.com">
      <text>Garmin Connect</text>
    </link>
    <time>2026-09-24T22:49:35.000Z</time>
  </metadata>
  <trk>
    <name>Таврический сад
Центральный район (м. Чернышевская) Бег 5 км</name>
    <trkseg>
      <trkpt lat="59.943777322769165" lon="30.37320613861084">
        <ele>12.16</ele>
      </trkpt>
      <trkpt lat="59.9437774065882" lon="30.37320613861084">
        <ele>12.54</ele>
      </trkpt>
      <trkpt lat="59.94383096694946" lon="30.37319540977478">
        <ele>12.77</ele>
      </trkpt>
      <trkpt lat="59.94395971298218" lon="30.37317395210266">
        <ele>13.04</ele>
      </trkpt>
      <trkpt lat="59.94414797052741" lon="30.373647278174758">
        <ele>13.7</ele>
      </trkpt>
      <trkpt lat="59.94433522224426" lon="30.374118089675903">
        <ele>14.28</ele>
      </trkpt>
      <trkpt lat="59.944571340456605" lon="30.3741717338562">
        <ele>14.65</ele>
      </trkpt>
      <trkpt lat="59.94470000267029" lon="30.374257564544678">
        <ele>14.61</ele>
      </trkpt>
      <trkpt lat="59.94470008648932" lon="30.374257564544678">
        <ele>14.53</ele>
      </trkpt>
      <trkpt lat="59.94494684971869" lon="30.37443995475769">
        <ele>14.11</ele>
      </trkpt>
      <trkpt lat="59.94502195157111" lon="30.374568700790405">
        <ele>13.66</ele>
      </trkpt>
      <trkpt lat="59.945268630981445" lon="30.374890565872192">
        <ele>13.17</ele>
      </trkpt>
      <trkpt lat="59.945510448887944" lon="30.37497111596167">
        <ele>12.76</ele>
      </trkpt>
      <trkpt lat="59.94575151242316" lon="30.375051498413086">
        <ele>12.29</ele>
      </trkpt>
      <trkpt lat="59.94590733200312" lon="30.374981593340635">
        <ele>11.95</ele>
      </trkpt>
      <trkpt lat="59.946062648668885" lon="30.37491202354431">
        <ele>11.77</ele>
      </trkpt>
      <trkpt lat="59.94621377438307" lon="30.37466123700142">
        <ele>11.73</ele>
      </trkpt>
      <trkpt lat="59.946364229545" lon="30.374411707744002">
        <ele>11.59</ele>
      </trkpt>
      <trkpt lat="59.946502447128296" lon="30.37418246269226">
        <ele>11.38</ele>
      </trkpt>
      <trkpt lat="59.94650253094733" lon="30.37418246269226">
        <ele>11.3</ele>
      </trkpt>
      <trkpt lat="59.94669866748154" lon="30.37387417629361">
        <ele>11.22</ele>
      </trkpt>
      <trkpt lat="59.946802938356996" lon="30.37371039390564">
        <ele>11.02</ele>
      </trkpt>
      <trkpt lat="59.94692087173462" lon="30.373656749725342">
        <ele>10.93</ele>
      </trkpt>
      <trkpt lat="59.94716805405915" lon="30.37373729981482">
        <ele>10.82</ele>
      </trkpt>
      <trkpt lat="59.94741448201239" lon="30.373817682266235">
        <ele>10.66</ele>
      </trkpt>
      <trkpt lat="59.94755915366113" lon="30.37356035783887">
        <ele>10.42</ele>
      </trkpt>
      <trkpt lat="59.94755915366113" lon="30.373560274019837">
        <ele>10.15</ele>
      </trkpt>
      <trkpt lat="59.94770407676697" lon="30.373302698135376">
        <ele>9.82</ele>
      </trkpt>
      <trkpt lat="59.94772553443909" lon="30.373259782791138">
        <ele>9.45</ele>
      </trkpt>
      <trkpt lat="59.947800636291504" lon="30.373152494430542">
        <ele>8.99</ele>
      </trkpt>
      <trkpt lat="59.947822177782655" lon="30.373109579086304">
        <ele>8.57</ele>
      </trkpt>
      <trkpt lat="59.94788646697998" lon="30.372755527496338">
        <ele>8.04</ele>
      </trkpt>
      <trkpt lat="59.94790256023407" lon="30.37213115952909">
        <ele>7.48</ele>
      </trkpt>
      <trkpt lat="59.94791865348816" lon="30.371510982513428">
        <ele>7.14</ele>
      </trkpt>
      <trkpt lat="59.94791873730719" lon="30.371510982513428">
        <ele>6.86</ele>
      </trkpt>
      <trkpt lat="59.94792938232422" lon="30.371317863464355">
        <ele>6.66</ele>
      </trkpt>
      <trkpt lat="59.94792946614325" lon="30.371317863464355">
        <ele>6.47</ele>
      </trkpt>
      <trkpt lat="59.94792938232422" lon="30.371317863464355">
        <ele>6.56</ele>
      </trkpt>
      <trkpt lat="59.94767683558166" lon="30.371312415227294">
        <ele>6.7</ele>
      </trkpt>
      <trkpt lat="59.94742521084845" lon="30.371307134628296">
        <ele>7.03</ele>
      </trkpt>
      <trkpt lat="59.94717794470489" lon="30.371269499883056">
        <ele>7.36</ele>
      </trkpt>
      <trkpt lat="59.94693160057068" lon="30.37123203277588">
        <ele>7.78</ele>
      </trkpt>
      <trkpt lat="59.94693168438971" lon="30.37123203277588">
        <ele>8.91</ele>
      </trkpt>
      <trkpt lat="59.94673856534064" lon="30.370910167694092">
        <ele>9.27</ele>
      </trkpt>
      <trkpt lat="59.946738481521606" lon="30.370910167694092">
        <ele>9.67</ele>
      </trkpt>
      <trkpt lat="59.94655198417604" lon="30.370519319549203">
        <ele>10.12</ele>
      </trkpt>
      <trkpt lat="59.946365570649505" lon="30.370128471404314">
        <ele>10.63</ele>
      </trkpt>
      <trkpt lat="59.94618058204651" lon="30.3697407245636">
        <ele>11.01</ele>
      </trkpt>
      <trkpt lat="59.94610447436571" lon="30.369713064283133">
        <ele>11.37</ele>
      </trkpt>
      <trkpt lat="59.94606256484985" lon="30.36969780921936">
        <ele>11.92</ele>
      </trkpt>
      <trkpt lat="59.946030378341675" lon="30.36997675895691">
        <ele>12.21</ele>
      </trkpt>
      <trkpt lat="59.94609475135803" lon="30.370277166366577">
        <ele>12.56</ele>
      </trkpt>
      <trkpt lat="59.946309830993414" lon="30.37066432647407">
        <ele>12.39</ele>
      </trkpt>
      <trkpt lat="59.94652398861945" lon="30.371049642562866">
        <ele>12.17</ele>
      </trkpt>
      <trkpt lat="59.946523904800415" lon="30.371049642562866">
        <ele>12.1</ele>
      </trkpt>
      <trkpt lat="59.946556175127625" lon="30.371146202087402">
        <ele>12.06</ele>
      </trkpt>
      <trkpt lat="59.946634797379375" lon="30.371430851519108">
        <ele>12.09</ele>
      </trkpt>
      <trkpt lat="59.9466956499964" lon="30.371650457382202">
        <ele>12.05</ele>
      </trkpt>
      <trkpt lat="59.9468407407403" lon="30.371903171762824">
        <ele>12.01</ele>
      </trkpt>
      <trkpt lat="59.94698524475098" lon="30.372154712677002">
        <ele>11.95</ele>
      </trkpt>
      <trkpt lat="59.946925984695554" lon="30.37245067767799">
        <ele>12.04</ele>
      </trkpt>
      <trkpt lat="59.94686722755432" lon="30.37274479866028">
        <ele>12.07</ele>
      </trkpt>
      <trkpt lat="59.94664192199707" lon="30.37242293357849">
        <ele>12.26</ele>
      </trkpt>
      <trkpt lat="59.9466420058161" lon="30.37242293357849">
        <ele>12.34</ele>
      </trkpt>
      <trkpt lat="59.94646992534399" lon="30.372161250561476">
        <ele>12.42</ele>
      </trkpt>
      <trkpt lat="59.94629784487188" lon="30.37189956754446">
        <ele>12.42</ele>
      </trkpt>
      <trkpt lat="59.94612702168524" lon="30.371639728546143">
        <ele>12.48</ele>
      </trkpt>
      <trkpt lat="59.945998191833496" lon="30.37148952484131">
        <ele>12.66</ele>
      </trkpt>
      <trkpt lat="59.94599827565253" lon="30.37148952484131">
        <ele>12.85</ele>
      </trkpt>
      <trkpt lat="59.94583139196038" lon="30.370989125221968">
        <ele>13.27</ele>
      </trkpt>
      <trkpt lat="59.945783698931336" lon="30.370845794677734">
        <ele>13.79</ele>
      </trkpt>
      <trkpt lat="59.945659982040524" lon="30.37058763206005">
        <ele>14.06</ele>
      </trkpt>
      <trkpt lat="59.945536935701966" lon="30.370330810546875">
        <ele>14.28</ele>
      </trkpt>
      <trkpt lat="59.945536851882935" lon="30.370330810546875">
        <ele>14.44</ele>
      </trkpt>
      <trkpt lat="59.945536935701966" lon="30.370330810546875">
        <ele>14.66</ele>
      </trkpt>
      <trkpt lat="59.945289669558406" lon="30.370217906311154">
        <ele>14.73</ele>
      </trkpt>
      <trkpt lat="59.945043325424194" lon="30.370105504989624">
        <ele>14.69</ele>
      </trkpt>
      <trkpt lat="59.944833694025874" lon="30.369895789772272">
        <ele>14.64</ele>
      </trkpt>
      <trkpt lat="59.9446249846369" lon="30.3696870803833">
        <ele>14.72</ele>
      </trkpt>
      <trkpt lat="59.94447981007397" lon="30.36952036432922">
        <ele>14.67</ele>
      </trkpt>
      <trkpt lat="59.944335306063294" lon="30.369354486465454">
        <ele>14.55</ele>
      </trkpt>
      <trkpt lat="59.94416322559118" lon="30.369445765390992">
        <ele>14.37</ele>
      </trkpt>
      <trkpt lat="59.943991899490356" lon="30.369536876678467">
        <ele>14.16</ele>
      </trkpt>
      <trkpt lat="59.944002628326416" lon="30.36997675895691">
        <ele>13.77</ele>
      </trkpt>
      <trkpt lat="59.943997180089355" lon="30.370493419468403">
        <ele>13.69</ele>
      </trkpt>
      <trkpt lat="59.943991815671325" lon="30.37101016379893">
        <ele>13.76</ele>
      </trkpt>
      <trkpt lat="59.943986451253295" lon="30.371526824310422">
        <ele>13.72</ele>
      </trkpt>
      <trkpt lat="59.9439811706543" lon="30.372036695480347">
        <ele>13.57</ele>
      </trkpt>
      <trkpt lat="59.943964993581176" lon="30.37246727384627">
        <ele>13.48</ele>
      </trkpt>
      <trkpt lat="59.94394906796515" lon="30.372895002365112">
        <ele>13.38</ele>
      </trkpt>
      <trkpt lat="59.94394898414612" lon="30.372895002365112">
        <ele>13.37</ele>
      </trkpt>
      <trkpt lat="59.94395594112575" lon="30.37307613529265">
        <ele>13.38</ele>
      </trkpt>
      <trkpt lat="59.94395594112575" lon="30.373076051473618">
        <ele>13.4</ele>
      </trkpt>
      <trkpt lat="59.94395971298218" lon="30.37317395210266">
        <ele>13.43</ele>
      </trkpt>
      <trkpt lat="59.94414797052741" lon="30.373647278174758">
        <ele>13.65</ele>
      </trkpt>
      <trkpt lat="59.94433522224426" lon="30.374118089675903">
        <ele>13.79</ele>
      </trkpt>
      <trkpt lat="59.944571340456605" lon="30.3741717338562">
        <ele>13.83</ele>
      </trkpt>
      <trkpt lat="59.94470000267029" lon="30.374257564544678">
        <ele>13.7</ele>
      </trkpt>
      <trkpt lat="59.94470008648932" lon="30.374257564544678">
        <ele>13.63</ele>
      </trkpt>
      <trkpt lat="59.94494684971869" lon="30.37443995475769">
        <ele>13.4</ele>
      </trkpt>
      <trkpt lat="59.94502195157111" lon="30.374568700790405">
        <ele>13.22</ele>
      </trkpt>
      <trkpt lat="59.94510971009731" lon="30.374683365225792">
        <ele>13.03</ele>
      </trkpt>
      <trkpt lat="59.94510971009731" lon="30.37468328140676">
        <ele>12.89</ele>
      </trkpt>
      <trkpt lat="59.945268630981445" lon="30.374890565872192">
        <ele>12.73</ele>
      </trkpt>
      <trkpt lat="59.945510448887944" lon="30.37497111596167">
        <ele>12.57</ele>
      </trkpt>
      <trkpt lat="59.94575151242316" lon="30.375051498413086">
        <ele>12.34</ele>
      </trkpt>
      <trkpt lat="59.94590733200312" lon="30.374981593340635">
        <ele>12.17</ele>
      </trkpt>
      <trkpt lat="59.946062648668885" lon="30.37491202354431">
        <ele>12.08</ele>
      </trkpt>
      <trkpt lat="59.946200447157025" lon="30.37468328140676">
        <ele>12.03</ele>
      </trkpt>
      <trkpt lat="59.946337742730975" lon="30.374455712735653">
        <ele>11.87</ele>
      </trkpt>
      <trkpt lat="59.946502447128296" lon="30.37418246269226">
        <ele>11.5</ele>
      </trkpt>
      <trkpt lat="59.94650253094733" lon="30.37418246269226">
        <ele>11.32</ele>
      </trkpt>
      <trkpt lat="59.94665306992829" lon="30.373945841565728">
        <ele>11.13</ele>
      </trkpt>
      <trkpt lat="59.946802938356996" lon="30.37371039390564">
        <ele>10.92</ele>
      </trkpt>
      <trkpt lat="59.94692087173462" lon="30.373656749725342">
        <ele>10.72</ele>
      </trkpt>
      <trkpt lat="59.94716805405915" lon="30.37373729981482">
        <ele>10.51</ele>
      </trkpt>
      <trkpt lat="59.94741448201239" lon="30.373817682266235">
        <ele>10.24</ele>
      </trkpt>
      <trkpt lat="59.94755957275629" lon="30.373559519648552">
        <ele>9.92</ele>
      </trkpt>
      <trkpt lat="59.94770407676697" lon="30.373302698135376">
        <ele>9.57</ele>
      </trkpt>
      <trkpt lat="59.94772553443909" lon="30.373259782791138">
        <ele>9.2</ele>
      </trkpt>
      <trkpt lat="59.947800636291504" lon="30.373152494430542">
        <ele>8.77</ele>
      </trkpt>
      <trkpt lat="59.947822177782655" lon="30.373109579086304">
        <ele>8.39</ele>
      </trkpt>
      <trkpt lat="59.94788646697998" lon="30.372755527496338">
        <ele>7.92</ele>
      </trkpt>
      <trkpt lat="59.94790256023407" lon="30.37213115952909">
        <ele>7.46</ele>
      </trkpt>
      <trkpt lat="59.94791865348816" lon="30.371510982513428">
        <ele>7.2</ele>
      </trkpt>
      <trkpt lat="59.94791873730719" lon="30.371510982513428">
        <ele>6.99</ele>
      </trkpt>
      <trkpt lat="59.94792938232422" lon="30.371317863464355">
        <ele>6.85</ele>
      </trkpt>
      <trkpt lat="59.94792946614325" lon="30.371317863464355">
        <ele>6.8</ele>
      </trkpt>
      <trkpt lat="59.94792938232422" lon="30.371317863464355">
        <ele>6.92</ele>
      </trkpt>
      <trkpt lat="59.94767683558166" lon="30.371312415227294">
        <ele>7.09</ele>
      </trkpt>
      <trkpt lat="59.94742521084845" lon="30.371307134628296">
        <ele>7.43</ele>
      </trkpt>
      <trkpt lat="59.94717802852392" lon="30.371269499883056">
        <ele>7.77</ele>
      </trkpt>
      <trkpt lat="59.94693168438971" lon="30.37123203277588">
        <ele>8.18</ele>
      </trkpt>
      <trkpt lat="59.94673856534064" lon="30.370910167694092">
        <ele>8.5</ele>
      </trkpt>
      <trkpt lat="59.946738481521606" lon="30.370910167694092">
        <ele>8.87</ele>
      </trkpt>
      <trkpt lat="59.94655198417604" lon="30.370519319549203">
        <ele>9.31</ele>
      </trkpt>
      <trkpt lat="59.946365570649505" lon="30.370128471404314">
        <ele>9.81</ele>
      </trkpt>
      <trkpt lat="59.94618058204651" lon="30.3697407245636">
        <ele>10.2</ele>
      </trkpt>
      <trkpt lat="59.94617136195302" lon="30.36973737180233">
        <ele>10.54</ele>
      </trkpt>
      <trkpt lat="59.94606256484985" lon="30.36969780921936">
        <ele>11.41</ele>
      </trkpt>
      <trkpt lat="59.946043621748686" lon="30.369861843064427">
        <ele>11.67</ele>
      </trkpt>
      <trkpt lat="59.946030378341675" lon="30.36997675895691">
        <ele>11.97</ele>
      </trkpt>
      <trkpt lat="59.94609475135803" lon="30.370277166366577">
        <ele>12.09</ele>
      </trkpt>
      <trkpt lat="59.946309830993414" lon="30.37066432647407">
        <ele>11.99</ele>
      </trkpt>
      <trkpt lat="59.94652398861945" lon="30.371049642562866">
        <ele>11.84</ele>
      </trkpt>
      <trkpt lat="59.946523904800415" lon="30.371049642562866">
        <ele>11.85</ele>
      </trkpt>
      <trkpt lat="59.946556175127625" lon="30.371146202087402">
        <ele>11.87</ele>
      </trkpt>
      <trkpt lat="59.9466956499964" lon="30.371650457382202">
        <ele>12.01</ele>
      </trkpt>
      <trkpt lat="59.9468407407403" lon="30.371903171762824">
        <ele>12.0</ele>
      </trkpt>
      <trkpt lat="59.94698524475098" lon="30.372154712677002">
        <ele>11.98</ele>
      </trkpt>
      <trkpt lat="59.946887511759996" lon="30.37264320999384">
        <ele>12.11</ele>
      </trkpt>
      <trkpt lat="59.94698524475098" lon="30.372154712677002">
        <ele>12.1</ele>
      </trkpt>
      <trkpt lat="59.946840070188046" lon="30.37190191447735">
        <ele>12.21</ele>
      </trkpt>
      <trkpt lat="59.9466956499964" lon="30.371650457382202">
        <ele>12.32</ele>
      </trkpt>
      <trkpt lat="59.946556175127625" lon="30.371146202087402">
        <ele>12.31</ele>
      </trkpt>
      <trkpt lat="59.946523904800415" lon="30.371049642562866">
        <ele>12.44</ele>
      </trkpt>
      <trkpt lat="59.94652398861945" lon="30.371049642562866">
        <ele>12.62</ele>
      </trkpt>
      <trkpt lat="59.94630882516503" lon="30.37066239863634">
        <ele>12.99</ele>
      </trkpt>
      <trkpt lat="59.94609475135803" lon="30.370277166366577">
        <ele>13.33</ele>
      </trkpt>
      <trkpt lat="59.946030378341675" lon="30.36997675895691">
        <ele>13.5</ele>
      </trkpt>
      <trkpt lat="59.945740699768066" lon="30.370051860809326">
        <ele>13.77</ele>
      </trkpt>
      <trkpt lat="59.945536851882935" lon="30.370330810546875">
        <ele>14.04</ele>
      </trkpt>
      <trkpt lat="59.94560885243118" lon="30.37048101425171">
        <ele>14.19</ele>
      </trkpt>
      <trkpt lat="59.945536935701966" lon="30.370330810546875">
        <ele>14.45</ele>
      </trkpt>
      <trkpt lat="59.945289669558406" lon="30.370217906311154">
        <ele>14.53</ele>
      </trkpt>
      <trkpt lat="59.945043325424194" lon="30.370105504989624">
        <ele>14.5</ele>
      </trkpt>
      <trkpt lat="59.944833694025874" lon="30.369895789772272">
        <ele>14.46</ele>
      </trkpt>
      <trkpt lat="59.9446249846369" lon="30.3696870803833">
        <ele>14.56</ele>
      </trkpt>
      <trkpt lat="59.94447981007397" lon="30.36952036432922">
        <ele>14.52</ele>
      </trkpt>
      <trkpt lat="59.944335306063294" lon="30.369354486465454">
        <ele>14.41</ele>
      </trkpt>
      <trkpt lat="59.94416322559118" lon="30.369445765390992">
        <ele>14.24</ele>
      </trkpt>
      <trkpt lat="59.943991899490356" lon="30.369536876678467">
        <ele>14.05</ele>
      </trkpt>
      <trkpt lat="59.944002628326416" lon="30.36997675895691">
        <ele>13.73</ele>
      </trkpt>
      <trkpt lat="59.943997180089355" lon="30.370493419468403">
        <ele>13.68</ele>
      </trkpt>
      <trkpt lat="59.943991815671325" lon="30.37101016379893">
        <ele>13.78</ele>
      </trkpt>
      <trkpt lat="59.943986451253295" lon="30.371526824310422">
        <ele>13.77</ele>
      </trkpt>
      <trkpt lat="59.9439811706543" lon="30.372036695480347">
        <ele>13.66</ele>
      </trkpt>
      <trkpt lat="59.943964993581176" lon="30.37246727384627">
        <ele>13.62</ele>
      </trkpt>
      <trkpt lat="59.94394906796515" lon="30.372895002365112">
        <ele>13.56</ele>
      </trkpt>
      <trkpt lat="59.94394898414612" lon="30.372895002365112">
        <ele>13.61</ele>
      </trkpt>
      <trkpt lat="59.943957198411226" lon="30.373109662905335">
        <ele>13.68</ele>
      </trkpt>
      <trkpt lat="59.94395728223026" lon="30.373109662905335">
        <ele>13.76</ele>
      </trkpt>
      <trkpt lat="59.94395971298218" lon="30.37317395210266">
        <ele>13.85</ele>
      </trkpt>
      <trkpt lat="59.94414797052741" lon="30.373647278174758">
        <ele>14.15</ele>
      </trkpt>
      <trkpt lat="59.94433522224426" lon="30.374118089675903">
        <ele>14.35</ele>
      </trkpt>
      <trkpt lat="59.944571340456605" lon="30.3741717338562">
        <ele>14.38</ele>
      </trkpt>
      <trkpt lat="59.94470000267029" lon="30.374257564544678">
        <ele>14.18</ele>
      </trkpt>
      <trkpt lat="59.94470008648932" lon="30.374257564544678">
        <ele>14.04</ele>
      </trkpt>
      <trkpt lat="59.94494684971869" lon="30.37443995475769">
        <ele>13.73</ele>
      </trkpt>
      <trkpt lat="59.94502195157111" lon="30.374568700790405">
        <ele>13.47</ele>
      </trkpt>
      <trkpt lat="59.945268630981445" lon="30.374890565872192">
        <ele>13.18</ele>
      </trkpt>
      <trkpt lat="59.94549108669162" lon="30.37496474571526">
        <ele>12.96</ele>
      </trkpt>
      <trkpt lat="59.94571287184954" lon="30.375038674101233">
        <ele>12.68</ele>
      </trkpt>
      <trkpt lat="59.94575151242316" lon="30.375051498413086">
        <ele>12.29</ele>
      </trkpt>
      <trkpt lat="59.94590733200312" lon="30.374981593340635">
        <ele>12.1</ele>
      </trkpt>
      <trkpt lat="59.946062648668885" lon="30.37491202354431">
        <ele>12.0</ele>
      </trkpt>
      <trkpt lat="59.946283008903265" lon="30.374546321108937">
        <ele>11.94</ele>
      </trkpt>
      <trkpt lat="59.946502447128296" lon="30.37418246269226">
        <ele>11.73</ele>
      </trkpt>
      <trkpt lat="59.94650253094733" lon="30.37418246269226">
        <ele>11.59</ele>
      </trkpt>
      <trkpt lat="59.94665306992829" lon="30.373945841565728">
        <ele>11.44</ele>
      </trkpt>
      <trkpt lat="59.946802938356996" lon="30.37371039390564">
        <ele>11.29</ele>
      </trkpt>
      <trkpt lat="59.94692087173462" lon="30.373656749725342">
        <ele>11.15</ele>
      </trkpt>
      <trkpt lat="59.94716805405915" lon="30.37373729981482">
        <ele>11.0</ele>
      </trkpt>
      <trkpt lat="59.94741448201239" lon="30.373817682266235">
        <ele>10.8</ele>
      </trkpt>
      <trkpt lat="59.947531912475824" lon="30.37360872142017">
        <ele>10.55</ele>
      </trkpt>
      <trkpt lat="59.9476489238441" lon="30.373400766402483">
        <ele>10.26</ele>
      </trkpt>
      <trkpt lat="59.94770407676697" lon="30.373302698135376">
        <ele>9.6</ele>
      </trkpt>
      <trkpt lat="59.94772553443909" lon="30.373259782791138">
        <ele>9.22</ele>
      </trkpt>
      <trkpt lat="59.947800636291504" lon="30.373152494430542">
        <ele>8.78</ele>
      </trkpt>
      <trkpt lat="59.947822177782655" lon="30.373109579086304">
        <ele>8.38</ele>
      </trkpt>
      <trkpt lat="59.94788646697998" lon="30.372755527496338">
        <ele>7.89</ele>
      </trkpt>
      <trkpt lat="59.94790256023407" lon="30.37213115952909">
        <ele>7.41</ele>
      </trkpt>
      <trkpt lat="59.94791865348816" lon="30.371510982513428">
        <ele>7.15</ele>
      </trkpt>
      <trkpt lat="59.94791873730719" lon="30.371510982513428">
        <ele>6.93</ele>
      </trkpt>
      <trkpt lat="59.94792938232422" lon="30.371317863464355">
        <ele>6.77</ele>
      </trkpt>
      <trkpt lat="59.94792946614325" lon="30.371317863464355">
        <ele>6.71</ele>
      </trkpt>
      <trkpt lat="59.94792938232422" lon="30.371317863464355">
        <ele>6.83</ele>
      </trkpt>
      <trkpt lat="59.94767683558166" lon="30.371312415227294">
        <ele>7.01</ele>
      </trkpt>
      <trkpt lat="59.94742521084845" lon="30.371307134628296">
        <ele>7.36</ele>
      </trkpt>
      <trkpt lat="59.94717802852392" lon="30.371269499883056">
        <ele>7.72</ele>
      </trkpt>
      <trkpt lat="59.94693168438971" lon="30.37123203277588">
        <ele>8.15</ele>
      </trkpt>
      <trkpt lat="59.94673856534064" lon="30.370910167694092">
        <ele>8.5</ele>
      </trkpt>
      <trkpt lat="59.946738481521606" lon="30.370910167694092">
        <ele>8.89</ele>
      </trkpt>
      <trkpt lat="59.94655198417604" lon="30.370519319549203">
        <ele>9.37</ele>
      </trkpt>
      <trkpt lat="59.946365570649505" lon="30.370128471404314">
        <ele>9.9</ele>
      </trkpt>
      <trkpt lat="59.94618058204651" lon="30.3697407245636">
        <ele>10.32</ele>
      </trkpt>
      <trkpt lat="59.946151999756694" lon="30.369730331003666">
        <ele>10.71</ele>
      </trkpt>
      <trkpt lat="59.94606256484985" lon="30.36969780921936">
        <ele>11.66</ele>
      </trkpt>
      <trkpt lat="59.9460394307971" lon="30.36989805288613">
        <ele>11.95</ele>
      </trkpt>
      <trkpt lat="59.9460394307971" lon="30.369897969067097">
        <ele>12.12</ele>
      </trkpt>
      <trkpt lat="59.946030378341675" lon="30.36997675895691">
        <ele>12.27</ele>
      </trkpt>
      <trkpt lat="59.94609475135803" lon="30.370277166366577">
        <ele>12.38</ele>
      </trkpt>
      <trkpt lat="59.946309830993414" lon="30.37066432647407">
        <ele>12.28</ele>
      </trkpt>
      <trkpt lat="59.94652398861945" lon="30.371049642562866">
        <ele>12.12</ele>
      </trkpt>
      <trkpt lat="59.946523904800415" lon="30.371049642562866">
        <ele>12.15</ele>
      </trkpt>
      <trkpt lat="59.946556175127625" lon="30.371146202087402">
        <ele>12.19</ele>
      </trkpt>
      <trkpt lat="59.9466956499964" lon="30.371650457382202">
        <ele>12.33</ele>
      </trkpt>
      <trkpt lat="59.9468407407403" lon="30.371903171762824">
        <ele>12.3</ele>
      </trkpt>
      <trkpt lat="59.94698524475098" lon="30.372154712677002">
        <ele>12.24</ele>
      </trkpt>
      <trkpt lat="59.946925984695554" lon="30.37245067767799">
        <ele>12.31</ele>
      </trkpt>
      <trkpt lat="59.94686722755432" lon="30.37274479866028">
        <ele>12.3</ele>
      </trkpt>
      <trkpt lat="59.94664192199707" lon="30.37242293357849">
        <ele>12.16</ele>
      </trkpt>
      <trkpt lat="59.9466420058161" lon="30.37242293357849">
        <ele>12.14</ele>
      </trkpt>
      <trkpt lat="59.94646992534399" lon="30.372161250561476">
        <ele>12.13</ele>
      </trkpt>
      <trkpt lat="59.94629784487188" lon="30.37189956754446">
        <ele>12.05</ele>
      </trkpt>
      <trkpt lat="59.94612702168524" lon="30.371639728546143">
        <ele>12.09</ele>
      </trkpt>
      <trkpt lat="59.945998191833496" lon="30.37148952484131">
        <ele>12.29</ele>
      </trkpt>
      <trkpt lat="59.94599827565253" lon="30.37148952484131">
        <ele>12.55</ele>
      </trkpt>
      <trkpt lat="59.9458599742502" lon="30.37107478827238">
        <ele>13.04</ele>
      </trkpt>
      <trkpt lat="59.945783698931336" lon="30.370845794677734">
        <ele>13.74</ele>
      </trkpt>
      <trkpt lat="59.94556786492467" lon="30.37039560265839">
        <ele>14.08</ele>
      </trkpt>
      <trkpt lat="59.94556786492467" lon="30.37039551883936">
        <ele>14.27</ele>
      </trkpt>
      <trkpt lat="59.945536935701966" lon="30.370330810546875">
        <ele>14.44</ele>
      </trkpt>
      <trkpt lat="59.945289669558406" lon="30.370217906311154">
        <ele>14.57</ele>
      </trkpt>
      <trkpt lat="59.945043325424194" lon="30.370105504989624">
        <ele>14.57</ele>
      </trkpt>
      <trkpt lat="59.944833694025874" lon="30.369895789772272">
        <ele>14.6</ele>
      </trkpt>
      <trkpt lat="59.9446249846369" lon="30.3696870803833">
        <ele>14.77</ele>
      </trkpt>
      <trkpt lat="59.94447981007397" lon="30.36952036432922">
        <ele>14.7</ele>
      </trkpt>
      <trkpt lat="59.944335306063294" lon="30.369354486465454">
        <ele>14.51</ele>
      </trkpt>
      <trkpt lat="59.944179402664304" lon="30.369437215849757">
        <ele>14.27</ele>
      </trkpt>
      <trkpt lat="59.944024085998535" lon="30.369519777595997">
        <ele>14.05</ele>
      </trkpt>
      <trkpt lat="59.943991899490356" lon="30.369536876678467">
        <ele>13.96</ele>
      </trkpt>
      <trkpt lat="59.944002628326416" lon="30.36997675895691">
        <ele>14.01</ele>
      </trkpt>
      <trkpt lat="59.943997180089355" lon="30.370493419468403">
        <ele>14.08</ele>
      </trkpt>
      <trkpt lat="59.943991815671325" lon="30.37101016379893">
        <ele>14.33</ele>
      </trkpt>
      <trkpt lat="59.943986451253295" lon="30.371526824310422">
        <ele>14.21</ele>
      </trkpt>
      <trkpt lat="59.9439811706543" lon="30.372036695480347">
        <ele>13.84</ele>
      </trkpt>
    </trkseg>
  </trk>
</gpx>
