<?xml version="1.0" encoding="UTF-8"?>
<gpx creator="Garmin Connect" version="1.1"
  xsi:schemaLocation="http://www.topografix.com/GPX/1/1 http://www.topografix.com/GPX/11.xsd"
  xmlns:ns3="http://www.garmin.com/xmlschemas/TrackPointExtension/v1"
  xmlns="http://www.topografix.com/GPX/1/1"
  xmlns:xsi="http://www.w3.org/2001/XMLSchema-instance" xmlns:ns2="http://www.garmin.com/xmlschemas/GpxExtensions/v3">
  <metadata>
    <name>Александровский парк
Петроградская сторона (м. Горьковская) Бег 10 км</name>
    <link href="connect.garmin.com">
      <text>Garmin Connect</text>
    </link>
    <time>2026-09-25T09:54:28.000Z</time>
  </metadata>
  <trk>
    <name>Александровский парк
Петроградская сторона (м. Горьковская) Бег 10 км</name>
    <trkseg>
      <trkpt lat="59.95181598700583" lon="30.305938431993127">
        <ele>9.55</ele>
      </trkpt>
      <trkpt lat="59.951813304796815" lon="30.305957794189453">
        <ele>9.74</ele>
      </trkpt>
      <trkpt lat="59.951974488794804" lon="30.305957794189453">
        <ele>9.94</ele>
      </trkpt>
      <trkpt lat="59.9521351698786" lon="30.305957794189453">
        <ele>10.18</ele>
      </trkpt>
      <trkpt lat="59.95240380987525" lon="30.306101040914655">
        <ele>10.74</ele>
      </trkpt>
      <trkpt lat="59.9526724498719" lon="30.306244371458888">
        <ele>11.41</ele>
      </trkpt>
      <trkpt lat="59.95293974876404" lon="30.306386947631836">
        <ele>11.82</ele>
      </trkpt>
      <trkpt lat="59.95293983258307" lon="30.306386947631836">
        <ele>12.05</ele>
      </trkpt>
      <trkpt lat="59.95321920141578" lon="30.306558860465884">
        <ele>12.13</ele>
      </trkpt>
      <trkpt lat="59.953498654067516" lon="30.306730857118964">
        <ele>12.2</ele>
      </trkpt>
      <trkpt lat="59.953776597976685" lon="30.306901931762695">
        <ele>12.05</ele>
      </trkpt>
      <trkpt lat="59.953776681795716" lon="30.306901931762695">
        <ele>11.87</ele>
      </trkpt>
      <trkpt lat="59.95397734455764" lon="30.307095386087894">
        <ele>11.47</ele>
      </trkpt>
      <trkpt lat="59.95417800731957" lon="30.307288924232125">
        <ele>11.06</ele>
      </trkpt>
      <trkpt lat="59.95437749661505" lon="30.307481288909912">
        <ele>10.66</ele>
      </trkpt>
      <trkpt lat="59.95460322126746" lon="30.307744648307562">
        <ele>10.36</ele>
      </trkpt>
      <trkpt lat="59.95482802391052" lon="30.30800700187683">
        <ele>10.1</ele>
      </trkpt>
      <trkpt lat="59.95484956540167" lon="30.30802845954895">
        <ele>9.88</ele>
      </trkpt>
      <trkpt lat="59.954913854599" lon="30.30807137489319">
        <ele>9.66</ele>
      </trkpt>
      <trkpt lat="59.95497831143439" lon="30.308146476745605">
        <ele>9.49</ele>
      </trkpt>
      <trkpt lat="59.9551969114691" lon="30.308497762307525">
        <ele>9.27</ele>
      </trkpt>
      <trkpt lat="59.95541559532285" lon="30.308849047869444">
        <ele>9.02</ele>
      </trkpt>
      <trkpt lat="59.95563277043402" lon="30.309197902679443">
        <ele>9.05</ele>
      </trkpt>
      <trkpt lat="59.95582580566406" lon="30.309594869613647">
        <ele>9.18</ele>
      </trkpt>
      <trkpt lat="59.955825889483094" lon="30.309594869613647">
        <ele>9.23</ele>
      </trkpt>
      <trkpt lat="59.95592244900763" lon="30.309852361679077">
        <ele>9.41</ele>
      </trkpt>
      <trkpt lat="59.95605153031647" lon="30.31018579378724">
        <ele>9.61</ele>
      </trkpt>
      <trkpt lat="59.95617994107306" lon="30.31051754951477">
        <ele>9.67</ele>
      </trkpt>
      <trkpt lat="59.95627666823566" lon="30.310856429859996">
        <ele>9.56</ele>
      </trkpt>
      <trkpt lat="59.9563729763031" lon="30.311193466186523">
        <ele>9.51</ele>
      </trkpt>
      <trkpt lat="59.95644816197455" lon="30.311472415924072">
        <ele>9.55</ele>
      </trkpt>
      <trkpt lat="59.95644807815552" lon="30.311633348464966">
        <ele>9.57</ele>
      </trkpt>
      <trkpt lat="59.95653952471912" lon="30.312096113339067">
        <ele>9.85</ele>
      </trkpt>
      <trkpt lat="59.95663046836853" lon="30.31255602836609">
        <ele>10.14</ele>
      </trkpt>
      <trkpt lat="59.9567165505141" lon="30.313131865113974">
        <ele>10.22</ele>
      </trkpt>
      <trkpt lat="59.95680212974548" lon="30.313704013824463">
        <ele>10.06</ele>
      </trkpt>
      <trkpt lat="59.95683431625366" lon="30.314143896102905">
        <ele>9.89</ele>
      </trkpt>
      <trkpt lat="59.95684236288071" lon="30.31463365070522">
        <ele>9.64</ele>
      </trkpt>
      <trkpt lat="59.95685049332678" lon="30.315123489126563">
        <ele>9.59</ele>
      </trkpt>
      <trkpt lat="59.95685853995383" lon="30.315613243728876">
        <ele>9.46</ele>
      </trkpt>
      <trkpt lat="59.95686658658087" lon="30.316096544265747">
        <ele>9.32</ele>
      </trkpt>
      <trkpt lat="59.95685032568872" lon="30.316424863412976">
        <ele>9.14</ele>
      </trkpt>
      <trkpt lat="59.95683431625366" lon="30.31675100326538">
        <ele>8.99</ele>
      </trkpt>
      <trkpt lat="59.956834400072694" lon="30.31675100326538">
        <ele>8.76</ele>
      </trkpt>
      <trkpt lat="59.95680204592645" lon="30.31707387417555">
        <ele>8.55</ele>
      </trkpt>
      <trkpt lat="59.956769943237305" lon="30.317394733428955">
        <ele>8.28</ele>
      </trkpt>
      <trkpt lat="59.95671613141894" lon="30.317857582122087">
        <ele>7.85</ele>
      </trkpt>
      <trkpt lat="59.95666273869574" lon="30.318317413330078">
        <ele>7.4</ele>
      </trkpt>
      <trkpt lat="59.95663055218756" lon="30.318446159362793">
        <ele>7.04</ele>
      </trkpt>
      <trkpt lat="59.95660901069641" lon="30.318596363067627">
        <ele>6.69</ele>
      </trkpt>
      <trkpt lat="59.95656056329608" lon="30.318908421322703">
        <ele>6.4</ele>
      </trkpt>
      <trkpt lat="59.956512451171875" lon="30.319218635559082">
        <ele>6.15</ele>
      </trkpt>
      <trkpt lat="59.956523180007935" lon="30.31928300857544">
        <ele>5.96</ele>
      </trkpt>
      <trkpt lat="59.956490993499756" lon="30.319443941116333">
        <ele>5.81</ele>
      </trkpt>
      <trkpt lat="59.95640482753515" lon="30.319858258590102">
        <ele>5.75</ele>
      </trkpt>
      <trkpt lat="59.9563193321228" lon="30.32027006149292">
        <ele>5.75</ele>
      </trkpt>
      <trkpt lat="59.956297874450684" lon="30.320312976837158">
        <ele>5.73</ele>
      </trkpt>
      <trkpt lat="59.956254959106445" lon="30.320452451705933">
        <ele>5.71</ele>
      </trkpt>
      <trkpt lat="59.956297874450684" lon="30.320312976837158">
        <ele>6.08</ele>
      </trkpt>
      <trkpt lat="59.9563193321228" lon="30.32027006149292">
        <ele>6.23</ele>
      </trkpt>
      <trkpt lat="59.956276500597596" lon="30.320194959640503">
        <ele>6.37</ele>
      </trkpt>
      <trkpt lat="59.956233501434326" lon="30.319819450378418">
        <ele>6.51</ele>
      </trkpt>
      <trkpt lat="59.956152783706784" lon="30.320190684869885">
        <ele>6.73</ele>
      </trkpt>
      <trkpt lat="59.956072652712464" lon="30.32055974006653">
        <ele>6.92</ele>
      </trkpt>
      <trkpt lat="59.956061923876405" lon="30.320624113082886">
        <ele>7.11</ele>
      </trkpt>
      <trkpt lat="59.95590099133551" lon="30.32078504562378">
        <ele>7.33</ele>
      </trkpt>
      <trkpt lat="59.955793702974916" lon="30.320892333984375">
        <ele>7.56</ele>
      </trkpt>
      <trkpt lat="59.95570787228644" lon="30.320967435836792">
        <ele>7.81</ele>
      </trkpt>
      <trkpt lat="59.955482063815" lon="30.321182431653142">
        <ele>8.1</ele>
      </trkpt>
      <trkpt lat="59.95525633916259" lon="30.321397427469492">
        <ele>8.19</ele>
      </trkpt>
      <trkpt lat="59.955031955614686" lon="30.321611166000366">
        <ele>8.16</ele>
      </trkpt>
      <trkpt lat="59.954870687797666" lon="30.321756256744266">
        <ele>8.14</ele>
      </trkpt>
      <trkpt lat="59.9547100905329" lon="30.321900844573975">
        <ele>8.03</ele>
      </trkpt>
      <trkpt lat="59.95471000671387" lon="30.321900844573975">
        <ele>7.96</ele>
      </trkpt>
      <trkpt lat="59.95446274057031" lon="30.32214450649917">
        <ele>7.81</ele>
      </trkpt>
      <trkpt lat="59.954215474426746" lon="30.322388168424368">
        <ele>7.66</ele>
      </trkpt>
      <trkpt lat="59.95396980084479" lon="30.322630405426025">
        <ele>7.53</ele>
      </trkpt>
      <trkpt lat="59.9537655338645" lon="30.322829224169254">
        <ele>7.31</ele>
      </trkpt>
      <trkpt lat="59.953562105074525" lon="30.32302737236023">
        <ele>7.01</ele>
      </trkpt>
      <trkpt lat="59.95349773205817" lon="30.323102474212646">
        <ele>6.78</ele>
      </trkpt>
      <trkpt lat="59.953293884173036" lon="30.32330632209778">
        <ele>6.55</ele>
      </trkpt>
      <trkpt lat="59.95315935462713" lon="30.323010440915823">
        <ele>6.24</ele>
      </trkpt>
      <trkpt lat="59.953025579452515" lon="30.322716236114502">
        <ele>6.01</ele>
      </trkpt>
      <trkpt lat="59.95297201909125" lon="30.322705507278442">
        <ele>5.79</ele>
      </trkpt>
      <trkpt lat="59.95287545956671" lon="30.322673320770264">
        <ele>5.58</ele>
      </trkpt>
      <trkpt lat="59.952821815386415" lon="30.322651863098145">
        <ele>5.38</ele>
      </trkpt>
      <trkpt lat="59.952800273895264" lon="30.32278060913086">
        <ele>5.21</ele>
      </trkpt>
      <trkpt lat="59.952746629714966" lon="30.32274842262268">
        <ele>5.01</ele>
      </trkpt>
      <trkpt lat="59.95260673575103" lon="30.323108760640025">
        <ele>4.67</ele>
      </trkpt>
      <trkpt lat="59.95246767997742" lon="30.323467254638672">
        <ele>4.41</ele>
      </trkpt>
      <trkpt lat="59.95222896337509" lon="30.32367579638958">
        <ele>4.12</ele>
      </trkpt>
      <trkpt lat="59.9519903305918" lon="30.323884338140488">
        <ele>3.73</ele>
      </trkpt>
      <trkpt lat="59.951751697808504" lon="30.324092879891396">
        <ele>3.4</ele>
      </trkpt>
      <trkpt lat="59.95151306502521" lon="30.324301421642303">
        <ele>3.01</ele>
      </trkpt>
      <trkpt lat="59.951276779174805" lon="30.32450795173645">
        <ele>2.77</ele>
      </trkpt>
      <trkpt lat="59.95115876197815" lon="30.32479763031006">
        <ele>2.45</ele>
      </trkpt>
      <trkpt lat="59.95111593045294" lon="30.325119495391846">
        <ele>1.89</ele>
      </trkpt>
      <trkpt lat="59.951008558273315" lon="30.325355529785156">
        <ele>1.28</ele>
      </trkpt>
      <trkpt lat="59.950721645727754" lon="30.325598688796163">
        <ele>0.92</ele>
      </trkpt>
      <trkpt lat="59.95043473318219" lon="30.3258419316262">
        <ele>0.58</ele>
      </trkpt>
      <trkpt lat="59.95014790445566" lon="30.32608517445624">
        <ele>0.27</ele>
      </trkpt>
      <trkpt lat="59.9498609919101" lon="30.326328417286277">
        <ele>0.0</ele>
      </trkpt>
      <trkpt lat="59.94957416318357" lon="30.326571660116315">
        <ele>-0.22</ele>
      </trkpt>
      <trkpt lat="59.94928725063801" lon="30.326814902946353">
        <ele>-0.41</ele>
      </trkpt>
      <trkpt lat="59.94900042191148" lon="30.32705814577639">
        <ele>-0.56</ele>
      </trkpt>
      <trkpt lat="59.948713509365916" lon="30.32730138860643">
        <ele>-0.65</ele>
      </trkpt>
      <trkpt lat="59.948426596820354" lon="30.327544547617435">
        <ele>-0.7</ele>
      </trkpt>
      <trkpt lat="59.948139768093824" lon="30.327787790447474">
        <ele>-0.69</ele>
      </trkpt>
      <trkpt lat="59.94785285554826" lon="30.32803103327751">
        <ele>-0.63</ele>
      </trkpt>
      <trkpt lat="59.94756602682173" lon="30.32827427610755">
        <ele>-0.51</ele>
      </trkpt>
      <trkpt lat="59.94727911427617" lon="30.328517435118556">
        <ele>-0.35</ele>
      </trkpt>
      <trkpt lat="59.94699228554964" lon="30.328760677948594">
        <ele>-0.13</ele>
      </trkpt>
      <trkpt lat="59.94670537300408" lon="30.3290038369596">
        <ele>0.12</ele>
      </trkpt>
      <trkpt lat="59.94642734527588" lon="30.32923936843872">
        <ele>0.56</ele>
      </trkpt>
      <trkpt lat="59.94636297225952" lon="30.32923936843872">
        <ele>2.19</ele>
      </trkpt>
      <trkpt lat="59.94638451375067" lon="30.329346656799316">
        <ele>2.66</ele>
      </trkpt>
      <trkpt lat="59.94643815793097" lon="30.329561233520508">
        <ele>3.11</ele>
      </trkpt>
      <trkpt lat="59.94645961560309" lon="30.329668521881104">
        <ele>3.62</ele>
      </trkpt>
      <trkpt lat="59.94645953178406" lon="30.329829454421997">
        <ele>4.17</ele>
      </trkpt>
      <trkpt lat="59.94640597142279" lon="30.329883098602295">
        <ele>4.73</ele>
      </trkpt>
      <trkpt lat="59.946341598406434" lon="30.329936742782593">
        <ele>5.31</ele>
      </trkpt>
      <trkpt lat="59.946287870407104" lon="30.32999038696289">
        <ele>5.84</ele>
      </trkpt>
      <trkpt lat="59.946320140734315" lon="30.330129861831665">
        <ele>6.29</ele>
      </trkpt>
      <trkpt lat="59.9463415145874" lon="30.330204963684082">
        <ele>6.66</ele>
      </trkpt>
      <trkpt lat="59.94613724760711" lon="30.33036614768207">
        <ele>7.17</ele>
      </trkpt>
      <trkpt lat="59.94593298062682" lon="30.33052741549909">
        <ele>7.47</ele>
      </trkpt>
      <trkpt lat="59.94572997093201" lon="30.330687761306763">
        <ele>7.54</ele>
      </trkpt>
      <trkpt lat="59.94571924209595" lon="30.330848693847656">
        <ele>7.62</ele>
      </trkpt>
      <trkpt lat="59.94567641057074" lon="30.330880880355835">
        <ele>7.57</ele>
      </trkpt>
      <trkpt lat="59.945569122210145" lon="30.33097743988037">
        <ele>7.38</ele>
      </trkpt>
      <trkpt lat="59.94552620686591" lon="30.33102035522461">
        <ele>7.15</ele>
      </trkpt>
      <trkpt lat="59.94562838226557" lon="30.331450765952468">
        <ele>6.86</ele>
      </trkpt>
      <trkpt lat="59.94572997093201" lon="30.331878662109375">
        <ele>6.48</ele>
      </trkpt>
      <trkpt lat="59.94571924209595" lon="30.332157611846924">
        <ele>6.08</ele>
      </trkpt>
      <trkpt lat="59.94560122489929" lon="30.332350730895996">
        <ele>5.57</ele>
      </trkpt>
      <trkpt lat="59.945396957919" lon="30.332493977621198">
        <ele>5.11</ele>
      </trkpt>
      <trkpt lat="59.94519277475774" lon="30.33263730816543">
        <ele>4.5</ele>
      </trkpt>
      <trkpt lat="59.9449896812439" lon="30.33277988433838">
        <ele>3.94</ele>
      </trkpt>
      <trkpt lat="59.94498976506293" lon="30.33277988433838">
        <ele>3.45</ele>
      </trkpt>
      <trkpt lat="59.94473713450134" lon="30.332951797172427">
        <ele>2.91</ele>
      </trkpt>
      <trkpt lat="59.94448450393975" lon="30.333123793825507">
        <ele>2.45</ele>
      </trkpt>
      <trkpt lat="59.94423195719719" lon="30.333295790478587">
        <ele>2.01</ele>
      </trkpt>
      <trkpt lat="59.94398125447333" lon="30.33346652984619">
        <ele>1.61</ele>
      </trkpt>
      <trkpt lat="59.94395971298218" lon="30.33347725868225">
        <ele>1.29</ele>
      </trkpt>
      <trkpt lat="59.94395979680121" lon="30.33347725868225">
        <ele>1.02</ele>
      </trkpt>
      <trkpt lat="59.94391688145697" lon="30.33349871635437">
        <ele>0.79</ele>
      </trkpt>
      <trkpt lat="59.94387396611273" lon="30.33354163169861">
        <ele>0.59</ele>
      </trkpt>
      <trkpt lat="59.94386323727667" lon="30.33354163169861">
        <ele>0.45</ele>
      </trkpt>
      <trkpt lat="59.94363483041525" lon="30.333694769069552">
        <ele>0.36</ele>
      </trkpt>
      <trkpt lat="59.943406423553824" lon="30.333847906440496">
        <ele>0.43</ele>
      </trkpt>
      <trkpt lat="59.9431780166924" lon="30.334001127630472">
        <ele>0.58</ele>
      </trkpt>
      <trkpt lat="59.94295128621161" lon="30.334153175354004">
        <ele>0.62</ele>
      </trkpt>
      <trkpt lat="59.94265565648675" lon="30.334362722933292">
        <ele>0.52</ele>
      </trkpt>
      <trkpt lat="59.94236120022833" lon="30.334571599960327">
        <ele>0.62</ele>
      </trkpt>
      <trkpt lat="59.94223781861365" lon="30.33465382643044">
        <ele>0.69</ele>
      </trkpt>
      <trkpt lat="59.94207386858761" lon="30.334763042628765">
        <ele>0.88</ele>
      </trkpt>
      <trkpt lat="59.94191058911383" lon="30.334872007369995">
        <ele>1.0</ele>
      </trkpt>
      <trkpt lat="59.941814029589295" lon="30.334925651550293">
        <ele>1.14</ele>
      </trkpt>
      <trkpt lat="59.941545724868774" lon="30.33500075340271">
        <ele>1.4</ele>
      </trkpt>
      <trkpt lat="59.941545808687806" lon="30.33500075340271">
        <ele>1.6</ele>
      </trkpt>
      <trkpt lat="59.941513538360596" lon="30.33473253250122">
        <ele>1.77</ele>
      </trkpt>
      <trkpt lat="59.94156374596059" lon="30.334270102903247">
        <ele>1.97</ele>
      </trkpt>
      <trkpt lat="59.94161403737962" lon="30.333807757124305">
        <ele>2.22</ele>
      </trkpt>
      <trkpt lat="59.94166382588446" lon="30.333349937573075">
        <ele>2.66</ele>
      </trkpt>
      <trkpt lat="59.94172291830182" lon="30.332805616781116">
        <ele>3.56</ele>
      </trkpt>
      <trkpt lat="59.941781759262085" lon="30.33226490020752">
        <ele>3.91</ele>
      </trkpt>
      <trkpt lat="59.94178184308112" lon="30.33226490020752">
        <ele>4.36</ele>
      </trkpt>
      <trkpt lat="59.94184101931751" lon="30.331710521131754">
        <ele>4.69</ele>
      </trkpt>
      <trkpt lat="59.94189986027777" lon="30.331159830093384">
        <ele>5.31</ele>
      </trkpt>
      <trkpt lat="59.9419105052948" lon="30.331063270568848">
        <ele>5.85</ele>
      </trkpt>
      <trkpt lat="59.9419641494751" lon="30.33054828643799">
        <ele>6.56</ele>
      </trkpt>
      <trkpt lat="59.94218945503235" lon="30.330365896224976">
        <ele>7.11</ele>
      </trkpt>
      <trkpt lat="59.94241786189377" lon="30.33018576912582">
        <ele>7.6</ele>
      </trkpt>
      <trkpt lat="59.9426462687552" lon="30.330005725845695">
        <ele>8.13</ele>
      </trkpt>
      <trkpt lat="59.94287467561662" lon="30.32982568256557">
        <ele>8.64</ele>
      </trkpt>
      <trkpt lat="59.94310140609741" lon="30.329647064208984">
        <ele>9.09</ele>
      </trkpt>
      <trkpt lat="59.94315505027771" lon="30.329604148864746">
        <ele>9.36</ele>
      </trkpt>
      <trkpt lat="59.94315513409674" lon="30.329604148864746">
        <ele>9.53</ele>
      </trkpt>
      <trkpt lat="59.943388905376196" lon="30.329421339556575">
        <ele>9.59</ele>
      </trkpt>
      <trkpt lat="59.94362267665565" lon="30.329238614067435">
        <ele>9.44</ele>
      </trkpt>
      <trkpt lat="59.943856447935104" lon="30.329055888578296">
        <ele>9.32</ele>
      </trkpt>
      <trkpt lat="59.94408845901489" lon="30.328874588012695">
        <ele>9.22</ele>
      </trkpt>
      <trkpt lat="59.944088542833924" lon="30.328874588012695">
        <ele>9.02</ele>
      </trkpt>
      <trkpt lat="59.94428736157715" lon="30.32871935516596">
        <ele>8.8</ele>
      </trkpt>
      <trkpt lat="59.94448550976813" lon="30.328564709052444">
        <ele>8.42</ele>
      </trkpt>
      <trkpt lat="59.94452842511237" lon="30.32853126525879">
        <ele>7.7</ele>
      </trkpt>
      <trkpt lat="59.94466789998114" lon="30.328423976898193">
        <ele>7.25</ele>
      </trkpt>
      <trkpt lat="59.94477518834174" lon="30.328874588012695">
        <ele>6.67</ele>
      </trkpt>
      <trkpt lat="59.944775104522705" lon="30.328874588012695">
        <ele>6.3</ele>
      </trkpt>
      <trkpt lat="59.94487199932337" lon="30.329278092831373">
        <ele>5.83</ele>
      </trkpt>
      <trkpt lat="59.94496830739081" lon="30.329679250717163">
        <ele>5.54</ele>
      </trkpt>
      <trkpt lat="59.94496822357178" lon="30.329679250717163">
        <ele>5.26</ele>
      </trkpt>
      <trkpt lat="59.94520434178412" lon="30.329689979553223">
        <ele>5.18</ele>
      </trkpt>
      <trkpt lat="59.94520425796509" lon="30.329689979553223">
        <ele>4.96</ele>
      </trkpt>
      <trkpt lat="59.94525798596442" lon="30.329636335372925">
        <ele>4.46</ele>
      </trkpt>
      <trkpt lat="59.94536527432501" lon="30.32952904701233">
        <ele>4.37</ele>
      </trkpt>
      <trkpt lat="59.94541883468628" lon="30.32948613166809">
        <ele>4.28</ele>
      </trkpt>
      <trkpt lat="59.94547247886658" lon="30.329593420028687">
        <ele>4.22</ele>
      </trkpt>
      <trkpt lat="59.94566953741014" lon="30.32941421493888">
        <ele>4.21</ele>
      </trkpt>
      <trkpt lat="59.9458665959537" lon="30.329235093668103">
        <ele>4.19</ele>
      </trkpt>
      <trkpt lat="59.94606256484985" lon="30.329056978225708">
        <ele>4.01</ele>
      </trkpt>
      <trkpt lat="59.946094835177064" lon="30.329153537750244">
        <ele>3.98</ele>
      </trkpt>
      <trkpt lat="59.94613766670227" lon="30.329325199127197">
        <ele>3.97</ele>
      </trkpt>
      <trkpt lat="59.9461913947016" lon="30.3292715549469">
        <ele>3.98</ele>
      </trkpt>
      <trkpt lat="59.94625576771796" lon="30.3292179107666">
        <ele>4.04</ele>
      </trkpt>
      <trkpt lat="59.946309328079224" lon="30.329174995422363">
        <ele>4.2</ele>
      </trkpt>
      <trkpt lat="59.946309411898255" lon="30.329174995422363">
        <ele>4.93</ele>
      </trkpt>
      <trkpt lat="59.94622358120978" lon="30.328831672668457">
        <ele>5.26</ele>
      </trkpt>
      <trkpt lat="59.94618066586554" lon="30.328627824783325">
        <ele>5.59</ele>
      </trkpt>
      <trkpt lat="59.94604337029159" lon="30.32806816510856">
        <ele>6.07</ele>
      </trkpt>
      <trkpt lat="59.94590615853667" lon="30.32750858925283">
        <ele>6.62</ele>
      </trkpt>
      <trkpt lat="59.945768946781754" lon="30.326949013397098">
        <ele>7.29</ele>
      </trkpt>
      <trkpt lat="59.94563341140747" lon="30.326396226882935">
        <ele>7.63</ele>
      </trkpt>
      <trkpt lat="59.9456334952265" lon="30.326396226882935">
        <ele>7.78</ele>
      </trkpt>
      <trkpt lat="59.945590579882264" lon="30.32626748085022">
        <ele>7.84</ele>
      </trkpt>
      <trkpt lat="59.945442555472255" lon="30.32576708123088">
        <ele>7.42</ele>
      </trkpt>
      <trkpt lat="59.94529461488128" lon="30.32526676543057">
        <ele>7.37</ele>
      </trkpt>
      <trkpt lat="59.9451466742903" lon="30.32476636581123">
        <ele>7.45</ele>
      </trkpt>
      <trkpt lat="59.94500049389899" lon="30.32427191734314">
        <ele>6.87</ele>
      </trkpt>
      <trkpt lat="59.94495757855475" lon="30.324121713638306">
        <ele>6.87</ele>
      </trkpt>
      <trkpt lat="59.9448150023818" lon="30.323642855510116">
        <ele>6.76</ele>
      </trkpt>
      <trkpt lat="59.944672426208854" lon="30.323163997381926">
        <ele>6.57</ele>
      </trkpt>
      <trkpt lat="59.944529850035906" lon="30.322685139253736">
        <ele>6.31</ele>
      </trkpt>
      <trkpt lat="59.94438895024359" lon="30.322211980819702">
        <ele>6.63</ele>
      </trkpt>
      <trkpt lat="59.94434595108032" lon="30.322061777114868">
        <ele>6.73</ele>
      </trkpt>
      <trkpt lat="59.944346034899354" lon="30.322061777114868">
        <ele>6.91</ele>
      </trkpt>
      <trkpt lat="59.94422039017081" lon="30.321631282567978">
        <ele>6.98</ele>
      </trkpt>
      <trkpt lat="59.9440948292613" lon="30.32120087184012">
        <ele>7.48</ele>
      </trkpt>
      <trkpt lat="59.94397044181824" lon="30.32077431678772">
        <ele>7.66</ele>
      </trkpt>
      <trkpt lat="59.943878995254636" lon="30.320456810295582">
        <ele>8.43</ele>
      </trkpt>
      <trkpt lat="59.943788135424256" lon="30.320141315460205">
        <ele>9.24</ele>
      </trkpt>
      <trkpt lat="59.94373449124396" lon="30.319948196411133">
        <ele>9.92</ele>
      </trkpt>
      <trkpt lat="59.94358646683395" lon="30.31948819756508">
        <ele>10.43</ele>
      </trkpt>
      <trkpt lat="59.94343852624297" lon="30.319028198719025">
        <ele>10.96</ele>
      </trkpt>
      <trkpt lat="59.943290585651994" lon="30.31856819987297">
        <ele>11.45</ele>
      </trkpt>
      <trkpt lat="59.94314440526068" lon="30.318113565444946">
        <ele>12.33</ele>
      </trkpt>
      <trkpt lat="59.943080032244325" lon="30.317952632904053">
        <ele>12.84</ele>
      </trkpt>
      <trkpt lat="59.94290241971612" lon="30.317479223012924">
        <ele>13.3</ele>
      </trkpt>
      <trkpt lat="59.94272589683533" lon="30.31700849533081">
        <ele>13.62</ele>
      </trkpt>
      <trkpt lat="59.94270443916321" lon="30.31698703765869">
        <ele>13.98</ele>
      </trkpt>
      <trkpt lat="59.94262933731079" lon="30.31678318977356">
        <ele>14.3</ele>
      </trkpt>
      <trkpt lat="59.94262933731079" lon="30.31676173210144">
        <ele>14.5</ele>
      </trkpt>
      <trkpt lat="59.94261316023767" lon="30.31642796471715">
        <ele>14.58</ele>
      </trkpt>
      <trkpt lat="59.94259715080261" lon="30.316096544265747">
        <ele>14.48</ele>
      </trkpt>
      <trkpt lat="59.942427668720484" lon="30.315641909837723">
        <ele>14.43</ele>
      </trkpt>
      <trkpt lat="59.942258186638355" lon="30.315187443047762">
        <ele>14.29</ele>
      </trkpt>
      <trkpt lat="59.94208878837526" lon="30.31473289243877">
        <ele>14.16</ele>
      </trkpt>
      <trkpt lat="59.94192123413086" lon="30.31428337097168">
        <ele>13.96</ele>
      </trkpt>
      <trkpt lat="59.94192131794989" lon="30.31428337097168">
        <ele>13.52</ele>
      </trkpt>
      <trkpt lat="59.94176524691284" lon="30.313850278034806">
        <ele>13.0</ele>
      </trkpt>
      <trkpt lat="59.941609259694815" lon="30.313417268916965">
        <ele>12.27</ele>
      </trkpt>
      <trkpt lat="59.94145318865776" lon="30.31298417598009">
        <ele>11.37</ele>
      </trkpt>
      <trkpt lat="59.941298961639404" lon="30.31255602836609">
        <ele>10.54</ele>
      </trkpt>
      <trkpt lat="59.941288232803345" lon="30.31252384185791">
        <ele>9.7</ele>
      </trkpt>
      <trkpt lat="59.941288316622376" lon="30.31252384185791">
        <ele>8.83</ele>
      </trkpt>
      <trkpt lat="59.94113224558532" lon="30.312084462493658">
        <ele>7.86</ele>
      </trkpt>
      <trkpt lat="59.9409762583673" lon="30.311645166948438">
        <ele>6.64</ele>
      </trkpt>
      <trkpt lat="59.94082027114928" lon="30.311205787584186">
        <ele>5.55</ele>
      </trkpt>
      <trkpt lat="59.940664200112224" lon="30.310766492038965">
        <ele>4.6</ele>
      </trkpt>
      <trkpt lat="59.9405082128942" lon="30.310327196493745">
        <ele>3.86</ele>
      </trkpt>
      <trkpt lat="59.94035482406616" lon="30.309895277023315">
        <ele>3.14</ele>
      </trkpt>
      <trkpt lat="59.940301179885864" lon="30.309734344482422">
        <ele>2.49</ele>
      </trkpt>
      <trkpt lat="59.94035482406616" lon="30.309594869613647">
        <ele>1.89</ele>
      </trkpt>
      <trkpt lat="59.940354907885194" lon="30.309594869613647">
        <ele>1.39</ele>
      </trkpt>
      <trkpt lat="59.94058205746114" lon="30.309257498010993">
        <ele>0.85</ele>
      </trkpt>
      <trkpt lat="59.94080920703709" lon="30.30892012640834">
        <ele>0.5</ele>
      </trkpt>
      <trkpt lat="59.94103635661304" lon="30.308582754805684">
        <ele>0.26</ele>
      </trkpt>
      <trkpt lat="59.94126350618899" lon="30.30824538320303">
        <ele>0.12</ele>
      </trkpt>
      <trkpt lat="59.94149065576494" lon="30.307908011600375">
        <ele>0.07</ele>
      </trkpt>
      <trkpt lat="59.941717805340886" lon="30.30757063999772">
        <ele>0.09</ele>
      </trkpt>
      <trkpt lat="59.941944954916835" lon="30.307233268395066">
        <ele>0.19</ele>
      </trkpt>
      <trkpt lat="59.94216799736023" lon="30.306901931762695">
        <ele>0.47</ele>
      </trkpt>
      <trkpt lat="59.94216808117926" lon="30.306901931762695">
        <ele>0.69</ele>
      </trkpt>
      <trkpt lat="59.94218945503235" lon="30.306869745254517">
        <ele>0.96</ele>
      </trkpt>
      <trkpt lat="59.94218953885138" lon="30.306869745254517">
        <ele>1.25</ele>
      </trkpt>
      <trkpt lat="59.94233965873718" lon="30.307116508483887">
        <ele>1.64</ele>
      </trkpt>
      <trkpt lat="59.942522048950195" lon="30.306955575942993">
        <ele>2.03</ele>
      </trkpt>
      <trkpt lat="59.94271516799927" lon="30.306966304779053">
        <ele>2.45</ele>
      </trkpt>
      <trkpt lat="59.94287098757923" lon="30.30712748877704">
        <ele>2.79</ele>
      </trkpt>
      <trkpt lat="59.943026304244995" lon="30.30728816986084">
        <ele>3.08</ele>
      </trkpt>
      <trkpt lat="59.943187572062016" lon="30.30709463171661">
        <ele>3.34</ele>
      </trkpt>
      <trkpt lat="59.94334816932678" lon="30.306901931762695">
        <ele>3.45</ele>
      </trkpt>
      <trkpt lat="59.943348253145814" lon="30.306901931762695">
        <ele>3.66</ele>
      </trkpt>
      <trkpt lat="59.94338035583496" lon="30.306848287582397">
        <ele>3.83</ele>
      </trkpt>
      <trkpt lat="59.94342335499823" lon="30.306977033615112">
        <ele>3.97</ele>
      </trkpt>
      <trkpt lat="59.94359493255615" lon="30.307363271713257">
        <ele>4.05</ele>
      </trkpt>
      <trkpt lat="59.94373809546232" lon="30.307464357465506">
        <ele>4.12</ele>
      </trkpt>
      <trkpt lat="59.94395971298218" lon="30.307620763778687">
        <ele>4.47</ele>
      </trkpt>
      <trkpt lat="59.94395979680121" lon="30.307620763778687">
        <ele>4.59</ele>
      </trkpt>
      <trkpt lat="59.94415861554444" lon="30.307507859542966">
        <ele>4.85</ele>
      </trkpt>
      <trkpt lat="59.94435676373541" lon="30.307395458221436">
        <ele>5.18</ele>
      </trkpt>
      <trkpt lat="59.944475032389164" lon="30.30712111853063">
        <ele>5.26</ele>
      </trkpt>
      <trkpt lat="59.944592798128724" lon="30.306848287582397">
        <ele>5.19</ele>
      </trkpt>
      <trkpt lat="59.94465708732605" lon="30.306354761123657">
        <ele>4.95</ele>
      </trkpt>
      <trkpt lat="59.94459254667163" lon="30.305924182757735">
        <ele>4.93</ele>
      </trkpt>
      <trkpt lat="59.94452842511237" lon="30.30549645423889">
        <ele>4.89</ele>
      </trkpt>
      <trkpt lat="59.944549882784486" lon="30.305474996566772">
        <ele>4.79</ele>
      </trkpt>
      <trkpt lat="59.944721795618534" lon="30.30525991693139">
        <ele>4.65</ele>
      </trkpt>
      <trkpt lat="59.94489312171936" lon="30.30504584312439">
        <ele>4.47</ele>
      </trkpt>
      <trkpt lat="59.9448823928833" lon="30.304648876190186">
        <ele>4.44</ele>
      </trkpt>
      <trkpt lat="59.94488247670233" lon="30.304648876190186">
        <ele>4.29</ele>
      </trkpt>
      <trkpt lat="59.9449360370636" lon="30.304208993911743">
        <ele>4.23</ele>
      </trkpt>
      <trkpt lat="59.94512915611267" lon="30.30380129814148">
        <ele>4.03</ele>
      </trkpt>
      <trkpt lat="59.94513996876776" lon="30.30356526374817">
        <ele>3.92</ele>
      </trkpt>
      <trkpt lat="59.94521498680115" lon="30.303447246551514">
        <ele>3.82</ele>
      </trkpt>
      <trkpt lat="59.94552042335272" lon="30.303482534363866">
        <ele>3.58</ele>
      </trkpt>
      <trkpt lat="59.94582594372332" lon="30.303517822176218">
        <ele>3.4</ele>
      </trkpt>
      <trkpt lat="59.946131464093924" lon="30.30355310998857">
        <ele>3.49</ele>
      </trkpt>
      <trkpt lat="59.946436984464526" lon="30.303588481619954">
        <ele>3.65</ele>
      </trkpt>
      <trkpt lat="59.94674250483513" lon="30.303623769432306">
        <ele>4.13</ele>
      </trkpt>
      <trkpt lat="59.94704802520573" lon="30.30365905724466">
        <ele>4.46</ele>
      </trkpt>
      <trkpt lat="59.947350025177" lon="30.303694009780884">
        <ele>4.84</ele>
      </trkpt>
      <trkpt lat="59.94742512702942" lon="30.3038227558136">
        <ele>5.32</ele>
      </trkpt>
      <trkpt lat="59.94741439819336" lon="30.304144620895386">
        <ele>5.83</ele>
      </trkpt>
      <trkpt lat="59.94741439819336" lon="30.304402112960815">
        <ele>6.38</ele>
      </trkpt>
      <trkpt lat="59.94741439819336" lon="30.304445028305054">
        <ele>6.98</ele>
      </trkpt>
      <trkpt lat="59.947521686553955" lon="30.3048312664032">
        <ele>7.75</ele>
      </trkpt>
      <trkpt lat="59.947596872225404" lon="30.304970741271973">
        <ele>8.43</ele>
      </trkpt>
      <trkpt lat="59.94767197407782" lon="30.305099487304688">
        <ele>9.11</ele>
      </trkpt>
      <trkpt lat="59.94767189025879" lon="30.305099487304688">
        <ele>9.66</ele>
      </trkpt>
      <trkpt lat="59.94773634709418" lon="30.305217504501343">
        <ele>10.26</ele>
      </trkpt>
      <trkpt lat="59.947800720110536" lon="30.30531406402588">
        <ele>10.73</ele>
      </trkpt>
      <trkpt lat="59.94796165265143" lon="30.305603742599487">
        <ele>11.19</ele>
      </trkpt>
      <trkpt lat="59.94814395904541" lon="30.305914878845215">
        <ele>11.6</ele>
      </trkpt>
      <trkpt lat="59.9482620600611" lon="30.306107997894287">
        <ele>11.78</ele>
      </trkpt>
      <trkpt lat="59.94839105755091" lon="30.30633380636573">
        <ele>11.85</ele>
      </trkpt>
      <trkpt lat="59.94851955212653" lon="30.30655860900879">
        <ele>11.76</ele>
      </trkpt>
      <trkpt lat="59.94874485768378" lon="30.306923389434814">
        <ele>11.39</ele>
      </trkpt>
      <trkpt lat="59.948744773864746" lon="30.306923389434814">
        <ele>11.11</ele>
      </trkpt>
      <trkpt lat="59.94894870556891" lon="30.30725598335266">
        <ele>10.64</ele>
      </trkpt>
      <trkpt lat="59.94910997338593" lon="30.307524790987372">
        <ele>10.05</ele>
      </trkpt>
      <trkpt lat="59.94927132502198" lon="30.307793682441115">
        <ele>9.42</ele>
      </trkpt>
      <trkpt lat="59.94943150319159" lon="30.30806064605713">
        <ele>8.75</ele>
      </trkpt>
      <trkpt lat="59.94962495751679" lon="30.30831864103675">
        <ele>8.13</ele>
      </trkpt>
      <trkpt lat="59.9498176574707" lon="30.30857563018799">
        <ele>7.63</ele>
      </trkpt>
      <trkpt lat="59.94986057281494" lon="30.30877947807312">
        <ele>7.16</ele>
      </trkpt>
      <trkpt lat="59.94984984397888" lon="30.30882239341736">
        <ele>6.69</ele>
      </trkpt>
      <trkpt lat="59.94971531443298" lon="30.309241991490126">
        <ele>6.36</ele>
      </trkpt>
      <trkpt lat="59.94958162307739" lon="30.309659242630005">
        <ele>6.0</ele>
      </trkpt>
      <trkpt lat="59.94956016540527" lon="30.30975580215454">
        <ele>5.63</ele>
      </trkpt>
      <trkpt lat="59.949549436569214" lon="30.30978798866272">
        <ele>5.28</ele>
      </trkpt>
      <trkpt lat="59.94947701692581" lon="30.309700313955545">
        <ele>4.94</ele>
      </trkpt>
      <trkpt lat="59.949296889826655" lon="30.309482300654054">
        <ele>4.31</ele>
      </trkpt>
      <trkpt lat="59.9491167627275" lon="30.309264287352562">
        <ele>4.07</ele>
      </trkpt>
      <trkpt lat="59.94893789291382" lon="30.30904769897461">
        <ele>3.83</ele>
      </trkpt>
      <trkpt lat="59.94877670891583" lon="30.308993887156248">
        <ele>3.6</ele>
      </trkpt>
      <trkpt lat="59.94861611165106" lon="30.308940410614014">
        <ele>3.01</ele>
      </trkpt>
      <trkpt lat="59.94843363761902" lon="30.30901551246643">
        <ele>2.31</ele>
      </trkpt>
      <trkpt lat="59.94817614555359" lon="30.309326648712158">
        <ele>2.06</ele>
      </trkpt>
      <trkpt lat="59.948047399520874" lon="30.309648513793945">
        <ele>1.85</ele>
      </trkpt>
      <trkpt lat="59.94796123355627" lon="30.310116643086076">
        <ele>1.69</ele>
      </trkpt>
      <trkpt lat="59.94787573814392" lon="30.310581922531128">
        <ele>1.58</ele>
      </trkpt>
      <trkpt lat="59.94783801957965" lon="30.310974782332778">
        <ele>1.53</ele>
      </trkpt>
      <trkpt lat="59.947800636291504" lon="30.311365127563477">
        <ele>1.52</ele>
      </trkpt>
      <trkpt lat="59.947882359847426" lon="30.311896791681647">
        <ele>1.56</ele>
      </trkpt>
      <trkpt lat="59.94796416722238" lon="30.312428455799818">
        <ele>1.76</ele>
      </trkpt>
      <trkpt lat="59.948045974597335" lon="30.31296020373702">
        <ele>2.04</ele>
      </trkpt>
      <trkpt lat="59.94812778197229" lon="30.31349186785519">
        <ele>2.23</ele>
      </trkpt>
      <trkpt lat="59.94820833206177" lon="30.31401515007019">
        <ele>2.4</ele>
      </trkpt>
      <trkpt lat="59.94823624379933" lon="30.314516723155975">
        <ele>2.49</ele>
      </trkpt>
      <trkpt lat="59.94826423935592" lon="30.315018380060792">
        <ele>2.61</ele>
      </trkpt>
      <trkpt lat="59.948292234912515" lon="30.31552003696561">
        <ele>2.88</ele>
      </trkpt>
      <trkpt lat="59.94832023046911" lon="30.316021610051394">
        <ele>2.88</ele>
      </trkpt>
      <trkpt lat="59.94834780693054" lon="30.31651496887207">
        <ele>3.02</ele>
      </trkpt>
      <trkpt lat="59.948311848565936" lon="30.31694546341896">
        <ele>3.04</ele>
      </trkpt>
      <trkpt lat="59.94827597402036" lon="30.317376041784883">
        <ele>3.08</ele>
      </trkpt>
      <trkpt lat="59.948240518569946" lon="30.31780242919922">
        <ele>3.26</ele>
      </trkpt>
      <trkpt lat="59.948503877967596" lon="30.31813032925129">
        <ele>3.44</ele>
      </trkpt>
      <trkpt lat="59.948766231536865" lon="30.318456888198853">
        <ele>3.7</ele>
      </trkpt>
      <trkpt lat="59.948905957862735" lon="30.31826326623559">
        <ele>4.17</ele>
      </trkpt>
      <trkpt lat="59.949045181274414" lon="30.318070650100708">
        <ele>4.55</ele>
      </trkpt>
      <trkpt lat="59.94923838414252" lon="30.31847834587097">
        <ele>4.63</ele>
      </trkpt>
      <trkpt lat="59.949238300323486" lon="30.31847834587097">
        <ele>4.74</ele>
      </trkpt>
      <trkpt lat="59.94942110963166" lon="30.31887983903289">
        <ele>4.84</ele>
      </trkpt>
      <trkpt lat="59.94960400275886" lon="30.319281416013837">
        <ele>5.01</ele>
      </trkpt>
      <trkpt lat="59.949785470962524" lon="30.319679975509644">
        <ele>5.01</ele>
      </trkpt>
      <trkpt lat="59.94969394057989" lon="30.319954315200448">
        <ele>4.58</ele>
      </trkpt>
      <trkpt lat="59.94960308074951" lon="30.32022714614868">
        <ele>4.32</ele>
      </trkpt>
      <trkpt lat="59.94972570799291" lon="30.320739364251494">
        <ele>4.41</ele>
      </trkpt>
      <trkpt lat="59.94984841905534" lon="30.321251582354307">
        <ele>4.18</ele>
      </trkpt>
      <trkpt lat="59.949971130117774" lon="30.32176380045712">
        <ele>4.42</ele>
      </trkpt>
      <trkpt lat="59.950093757361174" lon="30.322276018559933">
        <ele>4.17</ele>
      </trkpt>
      <trkpt lat="59.95021462440491" lon="30.32278060913086">
        <ele>4.19</ele>
      </trkpt>
      <trkpt lat="59.95043364353478" lon="30.3224884159863">
        <ele>4.63</ele>
      </trkpt>
      <trkpt lat="59.950651824474335" lon="30.32219764776528">
        <ele>4.71</ele>
      </trkpt>
      <trkpt lat="59.950761795043945" lon="30.32205104827881">
        <ele>4.9</ele>
      </trkpt>
      <trkpt lat="59.95097687467933" lon="30.32245430164039">
        <ele>4.82</ele>
      </trkpt>
      <trkpt lat="59.95119094848633" lon="30.322855710983276">
        <ele>4.68</ele>
      </trkpt>
      <trkpt lat="59.95130393654108" lon="30.322382133454084">
        <ele>4.96</ele>
      </trkpt>
      <trkpt lat="59.95141625404358" lon="30.321911573410034">
        <ele>5.14</ele>
      </trkpt>
      <trkpt lat="59.95144844055176" lon="30.3217613697052">
        <ele>5.19</ele>
      </trkpt>
      <trkpt lat="59.951727809384465" lon="30.321747036650777">
        <ele>5.18</ele>
      </trkpt>
      <trkpt lat="59.952007262036204" lon="30.321732703596354">
        <ele>5.11</ele>
      </trkpt>
      <trkpt lat="59.952285289764404" lon="30.321718454360962">
        <ele>5.05</ele>
      </trkpt>
      <trkpt lat="59.952253019437194" lon="30.32124479301274">
        <ele>5.17</ele>
      </trkpt>
      <trkpt lat="59.95222100056708" lon="30.32077431678772">
        <ele>5.25</ele>
      </trkpt>
      <trkpt lat="59.95226399973035" lon="30.3202504478395">
        <ele>5.31</ele>
      </trkpt>
      <trkpt lat="59.95230699889362" lon="30.319726578891277">
        <ele>5.27</ele>
      </trkpt>
      <trkpt lat="59.95234966278076" lon="30.319207906723022">
        <ele>5.35</ele>
      </trkpt>
      <trkpt lat="59.95234429836273" lon="30.318674985319376">
        <ele>5.48</ele>
      </trkpt>
      <trkpt lat="59.952339017763734" lon="30.318145751953125">
        <ele>5.41</ele>
      </trkpt>
      <trkpt lat="59.952320996671915" lon="30.31769354827702">
        <ele>5.38</ele>
      </trkpt>
      <trkpt lat="59.95230305939913" lon="30.31724151223898">
        <ele>5.38</ele>
      </trkpt>
      <trkpt lat="59.952285373583436" lon="30.31679391860962">
        <ele>5.3</ele>
      </trkpt>
      <trkpt lat="59.952285289764404" lon="30.31679391860962">
        <ele>5.34</ele>
      </trkpt>
      <trkpt lat="59.95226911269128" lon="30.316266361624002">
        <ele>5.29</ele>
      </trkpt>
      <trkpt lat="59.952253103256226" lon="30.31574249267578">
        <ele>5.4</ele>
      </trkpt>
      <trkpt lat="59.95218847878277" lon="30.315403444692492">
        <ele>5.62</ele>
      </trkpt>
      <trkpt lat="59.95212435722351" lon="30.31506657600403">
        <ele>5.76</ele>
      </trkpt>
      <trkpt lat="59.95202746242285" lon="30.314533738419414">
        <ele>5.75</ele>
      </trkpt>
      <trkpt lat="59.95193132199347" lon="30.31400442123413">
        <ele>5.85</ele>
      </trkpt>
      <trkpt lat="59.95193123817444" lon="30.31400442123413">
        <ele>6.02</ele>
      </trkpt>
      <trkpt lat="59.95174113661051" lon="30.313541823998094">
        <ele>6.19</ele>
      </trkpt>
      <trkpt lat="59.95155111886561" lon="30.313079226762056">
        <ele>6.53</ele>
      </trkpt>
      <trkpt lat="59.95136269368231" lon="30.312620401382446">
        <ele>6.85</ele>
      </trkpt>
      <trkpt lat="59.95120662264526" lon="30.312319239601493">
        <ele>7.05</ele>
      </trkpt>
      <trkpt lat="59.951051473617554" lon="30.31201958656311">
        <ele>7.16</ele>
      </trkpt>
      <trkpt lat="59.95082566514611" lon="30.31172923743725">
        <ele>7.18</ele>
      </trkpt>
      <trkpt lat="59.95059985667467" lon="30.311438888311386">
        <ele>7.16</ele>
      </trkpt>
      <trkpt lat="59.95037404820323" lon="30.311148623004556">
        <ele>7.22</ele>
      </trkpt>
      <trkpt lat="59.95015025138855" lon="30.310860872268677">
        <ele>7.27</ele>
      </trkpt>
      <trkpt lat="59.95011806488037" lon="30.310903787612915">
        <ele>7.17</ele>
      </trkpt>
      <trkpt lat="59.94996811263263" lon="30.31043255701661">
        <ele>6.96</ele>
      </trkpt>
      <trkpt lat="59.94989275932312" lon="30.310195684432983">
        <ele>6.48</ele>
      </trkpt>
      <trkpt lat="59.94972067885101" lon="30.30999133363366">
        <ele>6.08</ele>
      </trkpt>
      <trkpt lat="59.949549436569214" lon="30.30978798866272">
        <ele>5.7</ele>
      </trkpt>
      <trkpt lat="59.94956016540527" lon="30.30975580215454">
        <ele>5.44</ele>
      </trkpt>
      <trkpt lat="59.94958162307739" lon="30.309659242630005">
        <ele>5.2</ele>
      </trkpt>
      <trkpt lat="59.949716068804264" lon="30.309239560738206">
        <ele>4.98</ele>
      </trkpt>
      <trkpt lat="59.94984984397888" lon="30.30882239341736">
        <ele>4.75</ele>
      </trkpt>
      <trkpt lat="59.94986065663397" lon="30.30877947807312">
        <ele>4.71</ele>
      </trkpt>
      <trkpt lat="59.950000047683716" lon="30.30882239341736">
        <ele>4.82</ele>
      </trkpt>
      <trkpt lat="59.950032318010926" lon="30.30874729156494">
        <ele>4.94</ele>
      </trkpt>
      <trkpt lat="59.950064504519105" lon="30.308640003204346">
        <ele>5.11</ele>
      </trkpt>
      <trkpt lat="59.950096691027284" lon="30.30856490135193">
        <ele>5.38</ele>
      </trkpt>
      <trkpt lat="59.950000047683716" lon="30.308425426483154">
        <ele>5.73</ele>
      </trkpt>
      <trkpt lat="59.949785554781556" lon="30.30803918838501">
        <ele>6.15</ele>
      </trkpt>
      <trkpt lat="59.94968891143799" lon="30.307856798171997">
        <ele>6.77</ele>
      </trkpt>
      <trkpt lat="59.94960316456854" lon="30.307406187057495">
        <ele>7.61</ele>
      </trkpt>
      <trkpt lat="59.94960308074951" lon="30.307250702753663">
        <ele>8.34</ele>
      </trkpt>
      <trkpt lat="59.94960308074951" lon="30.306955575942993">
        <ele>9.87</ele>
      </trkpt>
      <trkpt lat="59.94980181567371" lon="30.306971669197083">
        <ele>10.88</ele>
      </trkpt>
      <trkpt lat="59.950000047683716" lon="30.306987762451172">
        <ele>11.36</ele>
      </trkpt>
      <trkpt lat="59.95000013150275" lon="30.306987762451172">
        <ele>11.8</ele>
      </trkpt>
      <trkpt lat="59.95017170906067" lon="30.3067946434021">
        <ele>12.29</ele>
      </trkpt>
      <trkpt lat="59.95033825747669" lon="30.30664410442114">
        <ele>12.63</ele>
      </trkpt>
      <trkpt lat="59.950504302978516" lon="30.30649423599243">
        <ele>12.81</ele>
      </trkpt>
      <trkpt lat="59.950751485303044" lon="30.30643505975604">
        <ele>12.81</ele>
      </trkpt>
      <trkpt lat="59.95099791325629" lon="30.306376218795776">
        <ele>12.79</ele>
      </trkpt>
      <trkpt lat="59.951083743944764" lon="30.30631184577942">
        <ele>12.7</ele>
      </trkpt>
      <trkpt lat="59.95130586437881" lon="30.30619357712567">
        <ele>12.5</ele>
      </trkpt>
      <trkpt lat="59.951527984812856" lon="30.30607539229095">
        <ele>12.16</ele>
      </trkpt>
      <trkpt lat="59.95174893178046" lon="30.305957794189453">
        <ele>11.79</ele>
      </trkpt>
      <trkpt lat="59.951748847961426" lon="30.305957794189453">
        <ele>11.67</ele>
      </trkpt>
      <trkpt lat="59.95174893178046" lon="30.305957794189453">
        <ele>11.5</ele>
      </trkpt>
      <trkpt lat="59.951813304796815" lon="30.305957794189453">
        <ele>11.42</ele>
      </trkpt>
      <trkpt lat="59.951974488794804" lon="30.305957794189453">
        <ele>11.46</ele>
      </trkpt>
      <trkpt lat="59.9521351698786" lon="30.305957794189453">
        <ele>11.56</ele>
      </trkpt>
      <trkpt lat="59.95240380987525" lon="30.306101040914655">
        <ele>11.83</ele>
      </trkpt>
      <trkpt lat="59.9526724498719" lon="30.306244371458888">
        <ele>12.06</ele>
      </trkpt>
      <trkpt lat="59.95293974876404" lon="30.306386947631836">
        <ele>12.09</ele>
      </trkpt>
      <trkpt lat="59.95293983258307" lon="30.306386947631836">
        <ele>12.07</ele>
      </trkpt>
      <trkpt lat="59.95321920141578" lon="30.306558860465884">
        <ele>12.01</ele>
      </trkpt>
      <trkpt lat="59.953498654067516" lon="30.306730857118964">
        <ele>11.96</ele>
      </trkpt>
      <trkpt lat="59.953776597976685" lon="30.306901931762695">
        <ele>11.75</ele>
      </trkpt>
      <trkpt lat="59.953776681795716" lon="30.306901931762695">
        <ele>11.55</ele>
      </trkpt>
      <trkpt lat="59.95397734455764" lon="30.307095386087894">
        <ele>11.19</ele>
      </trkpt>
      <trkpt lat="59.95417800731957" lon="30.307288924232125">
        <ele>10.91</ele>
      </trkpt>
      <trkpt lat="59.95437749661505" lon="30.307481288909912">
        <ele>10.67</ele>
      </trkpt>
      <trkpt lat="59.95460322126746" lon="30.307744648307562">
        <ele>10.5</ele>
      </trkpt>
      <trkpt lat="59.95482802391052" lon="30.30800700187683">
        <ele>10.29</ele>
      </trkpt>
      <trkpt lat="59.95484956540167" lon="30.30802845954895">
        <ele>10.02</ele>
      </trkpt>
      <trkpt lat="59.954913854599" lon="30.30807137489319">
        <ele>9.67</ele>
      </trkpt>
      <trkpt lat="59.95497831143439" lon="30.308146476745605">
        <ele>9.33</ele>
      </trkpt>
      <trkpt lat="59.9551969114691" lon="30.308497762307525">
        <ele>8.92</ele>
      </trkpt>
      <trkpt lat="59.95541559532285" lon="30.308849047869444">
        <ele>8.65</ele>
      </trkpt>
      <trkpt lat="59.95563277043402" lon="30.309197902679443">
        <ele>8.9</ele>
      </trkpt>
      <trkpt lat="59.95579479262233" lon="30.309531167149544">
        <ele>9.13</ele>
      </trkpt>
    </trkseg>
  </trk>
</gpx>
