<?xml version="1.0" encoding="UTF-8"?>
<gpx creator="Garmin Connect" version="1.1"
  xsi:schemaLocation="http://www.topografix.com/GPX/1/1 http://www.topografix.com/GPX/11.xsd"
  xmlns:ns3="http://www.garmin.com/xmlschemas/TrackPointExtension/v1"
  xmlns="http://www.topografix.com/GPX/1/1"
  xmlns:xsi="http://www.w3.org/2001/XMLSchema-instance" xmlns:ns2="http://www.garmin.com/xmlschemas/GpxExtensions/v3">
  <metadata>
    <name>Александровский парк
Петроградская сторона (м. Горьковская) Бег 5 км</name>
    <link href="connect.garmin.com">
      <text>Garmin Connect</text>
    </link>
    <time>2026-09-25T10:23:03.000Z</time>
  </metadata>
  <trk>
    <name>Александровский парк
Петроградская сторона (м. Горьковская) Бег 5 км</name>
    <trkseg>
      <trkpt lat="59.94960308074951" lon="30.306955575942993">
        <ele>11.1</ele>
      </trkpt>
      <trkpt lat="59.94960316456854" lon="30.306955575942993">
        <ele>9.88</ele>
      </trkpt>
      <trkpt lat="59.94960308074951" lon="30.306955575942993">
        <ele>9.22</ele>
      </trkpt>
      <trkpt lat="59.94960316456854" lon="30.307406187057495">
        <ele>7.5</ele>
      </trkpt>
      <trkpt lat="59.94968891143799" lon="30.307856798171997">
        <ele>5.87</ele>
      </trkpt>
      <trkpt lat="59.949785554781556" lon="30.30803918838501">
        <ele>4.65</ele>
      </trkpt>
      <trkpt lat="59.950000047683716" lon="30.308425426483154">
        <ele>3.92</ele>
      </trkpt>
      <trkpt lat="59.950096691027284" lon="30.30856490135193">
        <ele>3.45</ele>
      </trkpt>
      <trkpt lat="59.95031889528036" lon="30.308894645422697">
        <ele>3.23</ele>
      </trkpt>
      <trkpt lat="59.95054109953344" lon="30.309224389493465">
        <ele>3.08</ele>
      </trkpt>
      <trkpt lat="59.950763303786516" lon="30.309554133564234">
        <ele>2.93</ele>
      </trkpt>
      <trkpt lat="59.950985508039594" lon="30.309883877635002">
        <ele>2.91</ele>
      </trkpt>
      <trkpt lat="59.95120771229267" lon="30.31021362170577">
        <ele>2.85</ele>
      </trkpt>
      <trkpt lat="59.95142698287964" lon="30.31053900718689">
        <ele>2.98</ele>
      </trkpt>
      <trkpt lat="59.95159906335175" lon="30.310899261385202">
        <ele>2.98</ele>
      </trkpt>
      <trkpt lat="59.951770305633545" lon="30.31125783920288">
        <ele>3.06</ele>
      </trkpt>
      <trkpt lat="59.95195269584656" lon="30.311676263809204">
        <ele>3.29</ele>
      </trkpt>
      <trkpt lat="59.95213123038411" lon="30.31215386465192">
        <ele>3.53</ele>
      </trkpt>
      <trkpt lat="59.9523098487407" lon="30.312631549313664">
        <ele>3.7</ele>
      </trkpt>
      <trkpt lat="59.95248846709728" lon="30.31310923397541">
        <ele>3.69</ele>
      </trkpt>
      <trkpt lat="59.952667001634836" lon="30.313586834818125">
        <ele>3.74</ele>
      </trkpt>
      <trkpt lat="59.9528431892395" lon="30.31405806541443">
        <ele>3.77</ele>
      </trkpt>
      <trkpt lat="59.95296129025519" lon="30.31451940536499">
        <ele>4.01</ele>
      </trkpt>
      <trkpt lat="59.952982077375054" lon="30.31489960849285">
        <ele>4.25</ele>
      </trkpt>
      <trkpt lat="59.95300286449492" lon="30.31527729704976">
        <ele>4.43</ele>
      </trkpt>
      <trkpt lat="59.95300286449492" lon="30.31527721323073">
        <ele>4.59</ele>
      </trkpt>
      <trkpt lat="59.95302834548056" lon="30.31574140302837">
        <ele>4.82</ele>
      </trkpt>
      <trkpt lat="59.953053910285234" lon="30.31620559282601">
        <ele>4.99</ele>
      </trkpt>
      <trkpt lat="59.95307922363281" lon="30.316665172576904">
        <ele>5.11</ele>
      </trkpt>
      <trkpt lat="59.953079307451844" lon="30.316665172576904">
        <ele>5.24</ele>
      </trkpt>
      <trkpt lat="59.953090036287904" lon="30.316922664642334">
        <ele>5.29</ele>
      </trkpt>
      <trkpt lat="59.95311149396002" lon="30.31736757606268">
        <ele>5.33</ele>
      </trkpt>
      <trkpt lat="59.953133035451174" lon="30.317812487483025">
        <ele>5.44</ele>
      </trkpt>
      <trkpt lat="59.95315432548523" lon="30.31825304031372">
        <ele>5.61</ele>
      </trkpt>
      <trkpt lat="59.95316505432129" lon="30.31880021095276">
        <ele>5.82</ele>
      </trkpt>
      <trkpt lat="59.9531542416662" lon="30.31938510015607">
        <ele>6.05</ele>
      </trkpt>
      <trkpt lat="59.95314351283014" lon="30.31996998935938">
        <ele>6.22</ele>
      </trkpt>
      <trkpt lat="59.95313286781311" lon="30.32054901123047">
        <ele>6.33</ele>
      </trkpt>
      <trkpt lat="59.95318651199341" lon="30.320645570755005">
        <ele>7.0</ele>
      </trkpt>
      <trkpt lat="59.95338533073664" lon="30.320629393681884">
        <ele>7.71</ele>
      </trkpt>
      <trkpt lat="59.953583562746644" lon="30.320613384246826">
        <ele>7.98</ele>
      </trkpt>
      <trkpt lat="59.953744411468506" lon="30.320463180541992">
        <ele>8.3</ele>
      </trkpt>
      <trkpt lat="59.95391607284546" lon="30.319948196411133">
        <ele>8.64</ele>
      </trkpt>
      <trkpt lat="59.9540916737169" lon="30.31963630579412">
        <ele>8.85</ele>
      </trkpt>
      <trkpt lat="59.95426735840738" lon="30.319324415177107">
        <ele>8.89</ele>
      </trkpt>
      <trkpt lat="59.95444178581238" lon="30.31901478767395">
        <ele>8.77</ele>
      </trkpt>
      <trkpt lat="59.95466751046479" lon="30.3187567088753">
        <ele>8.54</ele>
      </trkpt>
      <trkpt lat="59.95489331893623" lon="30.31849871389568">
        <ele>8.31</ele>
      </trkpt>
      <trkpt lat="59.95511770248413" lon="30.31824231147766">
        <ele>8.14</ele>
      </trkpt>
      <trkpt lat="59.95511778630316" lon="30.31824231147766">
        <ele>7.87</ele>
      </trkpt>
      <trkpt lat="59.95511770248413" lon="30.31824231147766">
        <ele>7.81</ele>
      </trkpt>
      <trkpt lat="59.95513924397528" lon="30.318220853805542">
        <ele>7.77</ele>
      </trkpt>
      <trkpt lat="59.95540746487677" lon="30.31801700592041">
        <ele>7.91</ele>
      </trkpt>
      <trkpt lat="59.95547183789313" lon="30.31800627708435">
        <ele>7.92</ele>
      </trkpt>
      <trkpt lat="59.95551475323737" lon="30.31800627708435">
        <ele>7.93</ele>
      </trkpt>
      <trkpt lat="59.955542497336864" lon="30.31799697317183">
        <ele>7.93</ele>
      </trkpt>
      <trkpt lat="59.955546855926514" lon="30.31799554824829">
        <ele>7.91</ele>
      </trkpt>
      <trkpt lat="59.955836618319154" lon="30.31801700592041">
        <ele>7.89</ele>
      </trkpt>
      <trkpt lat="59.95589026249945" lon="30.31803846359253">
        <ele>7.86</ele>
      </trkpt>
      <trkpt lat="59.95589017868042" lon="30.31803846359253">
        <ele>7.82</ele>
      </trkpt>
      <trkpt lat="59.95589026249945" lon="30.31803846359253">
        <ele>7.73</ele>
      </trkpt>
      <trkpt lat="59.95595119893551" lon="30.317663960158825">
        <ele>7.62</ele>
      </trkpt>
      <trkpt lat="59.95600123889744" lon="30.317356679588556">
        <ele>7.42</ele>
      </trkpt>
      <trkpt lat="59.95605111122131" lon="30.31705141067505">
        <ele>7.35</ele>
      </trkpt>
      <trkpt lat="59.95606184005737" lon="30.31698703765869">
        <ele>7.15</ele>
      </trkpt>
      <trkpt lat="59.95614775456488" lon="30.31651496887207">
        <ele>7.17</ele>
      </trkpt>
      <trkpt lat="59.95614767074585" lon="30.31651496887207">
        <ele>7.14</ele>
      </trkpt>
      <trkpt lat="59.95614775456488" lon="30.31651496887207">
        <ele>7.09</ele>
      </trkpt>
      <trkpt lat="59.956287229433656" lon="30.31601071357727">
        <ele>7.09</ele>
      </trkpt>
      <trkpt lat="59.956287145614624" lon="30.31601071357727">
        <ele>7.07</ele>
      </trkpt>
      <trkpt lat="59.956287229433656" lon="30.31601071357727">
        <ele>7.03</ele>
      </trkpt>
      <trkpt lat="59.95641589164734" lon="30.31550645828247">
        <ele>6.96</ele>
      </trkpt>
      <trkpt lat="59.95640516281128" lon="30.315145784989">
        <ele>6.89</ele>
      </trkpt>
      <trkpt lat="59.95639451779425" lon="30.31478762626648">
        <ele>6.89</ele>
      </trkpt>
      <trkpt lat="59.95639443397522" lon="30.31478762626648">
        <ele>6.91</ele>
      </trkpt>
      <trkpt lat="59.95639451779425" lon="30.31478762626648">
        <ele>6.97</ele>
      </trkpt>
      <trkpt lat="59.95636224746704" lon="30.314186811447144">
        <ele>7.06</ele>
      </trkpt>
      <trkpt lat="59.95636233128607" lon="30.314186811447144">
        <ele>7.21</ele>
      </trkpt>
      <trkpt lat="59.95636224746704" lon="30.314186811447144">
        <ele>7.26</ele>
      </trkpt>
      <trkpt lat="59.9563246127218" lon="30.313847679644823">
        <ele>7.4</ele>
      </trkpt>
      <trkpt lat="59.956287229433656" lon="30.31351089477539">
        <ele>7.47</ele>
      </trkpt>
      <trkpt lat="59.956287145614624" lon="30.31351089477539">
        <ele>7.52</ele>
      </trkpt>
      <trkpt lat="59.956287229433656" lon="30.31351089477539">
        <ele>7.61</ele>
      </trkpt>
      <trkpt lat="59.95623358525336" lon="30.313210487365723">
        <ele>7.68</ele>
      </trkpt>
      <trkpt lat="59.956152867525816" lon="30.312822991982102">
        <ele>7.65</ele>
      </trkpt>
      <trkpt lat="59.956072652712464" lon="30.312438011169434">
        <ele>7.57</ele>
      </trkpt>
      <trkpt lat="59.95607256889343" lon="30.312438011169434">
        <ele>7.63</ele>
      </trkpt>
      <trkpt lat="59.956072652712464" lon="30.312438011169434">
        <ele>7.79</ele>
      </trkpt>
      <trkpt lat="59.95595421642065" lon="30.311959069222212">
        <ele>7.87</ele>
      </trkpt>
      <trkpt lat="59.955836618319154" lon="30.311483144760132">
        <ele>8.13</ele>
      </trkpt>
      <trkpt lat="59.95583653450012" lon="30.311483144760132">
        <ele>8.26</ele>
      </trkpt>
      <trkpt lat="59.955836618319154" lon="30.311483144760132">
        <ele>8.53</ele>
      </trkpt>
      <trkpt lat="59.95583653450012" lon="30.311483144760132">
        <ele>8.67</ele>
      </trkpt>
      <trkpt lat="59.95570954866707" lon="30.31097050756216">
        <ele>8.97</ele>
      </trkpt>
      <trkpt lat="59.955627992749214" lon="30.31064109876752">
        <ele>9.22</ele>
      </trkpt>
      <trkpt lat="59.955546939745545" lon="30.31031370162964">
        <ele>9.26</ele>
      </trkpt>
      <trkpt lat="59.955546855926514" lon="30.31031370162964">
        <ele>9.3</ele>
      </trkpt>
      <trkpt lat="59.955546939745545" lon="30.31031370162964">
        <ele>9.31</ele>
      </trkpt>
      <trkpt lat="59.9554749391973" lon="30.310040535405278">
        <ele>9.22</ele>
      </trkpt>
      <trkpt lat="59.9554749391973" lon="30.310040451586246">
        <ele>9.18</ele>
      </trkpt>
      <trkpt lat="59.95543965138495" lon="30.309906005859375">
        <ele>9.09</ele>
      </trkpt>
      <trkpt lat="59.95534636080265" lon="30.30964340083301">
        <ele>8.98</ele>
      </trkpt>
      <trkpt lat="59.955253740772605" lon="30.309382304549217">
        <ele>8.9</ele>
      </trkpt>
      <trkpt lat="59.95520361699164" lon="30.30924081802368">
        <ele>8.88</ele>
      </trkpt>
      <trkpt lat="59.95520353317261" lon="30.30924081802368">
        <ele>8.89</ele>
      </trkpt>
      <trkpt lat="59.955095406621695" lon="30.3089118283242">
        <ele>9.0</ele>
      </trkpt>
      <trkpt lat="59.95495676994324" lon="30.30848979949951">
        <ele>9.27</ele>
      </trkpt>
      <trkpt lat="59.95494210161269" lon="30.308346385136247">
        <ele>9.36</ele>
      </trkpt>
      <trkpt lat="59.954942017793655" lon="30.308346301317215">
        <ele>9.44</ele>
      </trkpt>
      <trkpt lat="59.95491393841803" lon="30.30807137489319">
        <ele>9.5</ele>
      </trkpt>
      <trkpt lat="59.954913854599" lon="30.30807137489319">
        <ele>9.61</ele>
      </trkpt>
      <trkpt lat="59.95484956540167" lon="30.30802845954895">
        <ele>10.15</ele>
      </trkpt>
      <trkpt lat="59.95482802391052" lon="30.30800700187683">
        <ele>10.29</ele>
      </trkpt>
      <trkpt lat="59.95460221543908" lon="30.30774355866015">
        <ele>10.44</ele>
      </trkpt>
      <trkpt lat="59.95437749661505" lon="30.307481288909912">
        <ele>10.59</ele>
      </trkpt>
      <trkpt lat="59.954176750034094" lon="30.30728775076568">
        <ele>10.8</ele>
      </trkpt>
      <trkpt lat="59.95397608727217" lon="30.30709421262145">
        <ele>11.02</ele>
      </trkpt>
      <trkpt lat="59.953776681795716" lon="30.306901931762695">
        <ele>11.29</ele>
      </trkpt>
      <trkpt lat="59.953776597976685" lon="30.306901931762695">
        <ele>11.44</ele>
      </trkpt>
      <trkpt lat="59.953497145324945" lon="30.306729935109615">
        <ele>11.62</ele>
      </trkpt>
      <trkpt lat="59.953217692673206" lon="30.306557938456535">
        <ele>11.7</ele>
      </trkpt>
      <trkpt lat="59.95293983258307" lon="30.306386947631836">
        <ele>11.83</ele>
      </trkpt>
      <trkpt lat="59.95293974876404" lon="30.306386947631836">
        <ele>11.94</ele>
      </trkpt>
      <trkpt lat="59.95267102494836" lon="30.306243617087603">
        <ele>12.03</ele>
      </trkpt>
      <trkpt lat="59.95240238495171" lon="30.30610028654337">
        <ele>11.99</ele>
      </trkpt>
      <trkpt lat="59.9521351698786" lon="30.305957794189453">
        <ele>11.97</ele>
      </trkpt>
      <trkpt lat="59.95188538916409" lon="30.305957794189453">
        <ele>12.1</ele>
      </trkpt>
      <trkpt lat="59.951813304796815" lon="30.305957794189453">
        <ele>12.41</ele>
      </trkpt>
      <trkpt lat="59.95174893178046" lon="30.305957794189453">
        <ele>12.65</ele>
      </trkpt>
      <trkpt lat="59.95152672752738" lon="30.306075979024172">
        <ele>13.01</ele>
      </trkpt>
      <trkpt lat="59.951304607093334" lon="30.306194247677922">
        <ele>13.3</ele>
      </trkpt>
      <trkpt lat="59.951083743944764" lon="30.30631184577942">
        <ele>13.45</ele>
      </trkpt>
      <trkpt lat="59.95099791325629" lon="30.306376218795776">
        <ele>13.5</ele>
      </trkpt>
      <trkpt lat="59.95075064711273" lon="30.306435311213136">
        <ele>13.5</ele>
      </trkpt>
      <trkpt lat="59.950504302978516" lon="30.30649423599243">
        <ele>13.48</ele>
      </trkpt>
      <trkpt lat="59.950337670743465" lon="30.30664469115436">
        <ele>13.3</ele>
      </trkpt>
      <trkpt lat="59.95017170906067" lon="30.3067946434021">
        <ele>12.99</ele>
      </trkpt>
      <trkpt lat="59.95000013150275" lon="30.306987762451172">
        <ele>12.55</ele>
      </trkpt>
      <trkpt lat="59.950000047683716" lon="30.306987762451172">
        <ele>12.17</ele>
      </trkpt>
      <trkpt lat="59.9498332478106" lon="30.306974183768034">
        <ele>11.71</ele>
      </trkpt>
      <trkpt lat="59.94966711848974" lon="30.30696077272296">
        <ele>11.25</ele>
      </trkpt>
      <trkpt lat="59.94960316456854" lon="30.306955575942993">
        <ele>10.07</ele>
      </trkpt>
      <trkpt lat="59.94960308074951" lon="30.306955575942993">
        <ele>9.4</ele>
      </trkpt>
      <trkpt lat="59.94960316456854" lon="30.307406187057495">
        <ele>8.28</ele>
      </trkpt>
      <trkpt lat="59.94968891143799" lon="30.307856798171997">
        <ele>7.34</ele>
      </trkpt>
      <trkpt lat="59.949785554781556" lon="30.30803918838501">
        <ele>6.58</ele>
      </trkpt>
      <trkpt lat="59.950000047683716" lon="30.308425426483154">
        <ele>5.97</ele>
      </trkpt>
      <trkpt lat="59.950096691027284" lon="30.30856490135193">
        <ele>5.4</ele>
      </trkpt>
      <trkpt lat="59.95031889528036" lon="30.308894645422697">
        <ele>4.9</ele>
      </trkpt>
      <trkpt lat="59.95054109953344" lon="30.309224389493465">
        <ele>4.39</ele>
      </trkpt>
      <trkpt lat="59.950763303786516" lon="30.309554133564234">
        <ele>3.9</ele>
      </trkpt>
      <trkpt lat="59.950985508039594" lon="30.309883877635002">
        <ele>3.53</ele>
      </trkpt>
      <trkpt lat="59.95120771229267" lon="30.31021362170577">
        <ele>3.17</ele>
      </trkpt>
      <trkpt lat="59.95142698287964" lon="30.31053900718689">
        <ele>2.98</ele>
      </trkpt>
      <trkpt lat="59.9516015779227" lon="30.3109045419842">
        <ele>2.72</ele>
      </trkpt>
      <trkpt lat="59.9516015779227" lon="30.310904625803232">
        <ele>2.59</ele>
      </trkpt>
      <trkpt lat="59.951770305633545" lon="30.31125783920288">
        <ele>2.52</ele>
      </trkpt>
      <trkpt lat="59.95195269584656" lon="30.311676263809204">
        <ele>2.59</ele>
      </trkpt>
      <trkpt lat="59.95213123038411" lon="30.31215386465192">
        <ele>2.67</ele>
      </trkpt>
      <trkpt lat="59.9523098487407" lon="30.312631549313664">
        <ele>2.73</ele>
      </trkpt>
      <trkpt lat="59.95248846709728" lon="30.31310923397541">
        <ele>2.72</ele>
      </trkpt>
      <trkpt lat="59.952667001634836" lon="30.313586834818125">
        <ele>2.8</ele>
      </trkpt>
      <trkpt lat="59.9528431892395" lon="30.31405806541443">
        <ele>2.92</ele>
      </trkpt>
      <trkpt lat="59.95296129025519" lon="30.31451940536499">
        <ele>3.23</ele>
      </trkpt>
      <trkpt lat="59.95299079455435" lon="30.315057607367635">
        <ele>3.54</ele>
      </trkpt>
      <trkpt lat="59.95302038267255" lon="30.31559580937028">
        <ele>3.8</ele>
      </trkpt>
      <trkpt lat="59.953049970790744" lon="30.316134095191956">
        <ele>4.1</ele>
      </trkpt>
      <trkpt lat="59.95307922363281" lon="30.316665172576904">
        <ele>4.34</ele>
      </trkpt>
      <trkpt lat="59.953079307451844" lon="30.316665172576904">
        <ele>4.6</ele>
      </trkpt>
      <trkpt lat="59.953090036287904" lon="30.316922664642334">
        <ele>4.81</ele>
      </trkpt>
      <trkpt lat="59.95311149396002" lon="30.31736757606268">
        <ele>5.03</ele>
      </trkpt>
      <trkpt lat="59.953133035451174" lon="30.317812487483025">
        <ele>5.32</ele>
      </trkpt>
      <trkpt lat="59.95315432548523" lon="30.31825304031372">
        <ele>5.66</ele>
      </trkpt>
      <trkpt lat="59.95316505432129" lon="30.31880021095276">
        <ele>6.02</ele>
      </trkpt>
      <trkpt lat="59.95315516367555" lon="30.319332545623183">
        <ele>6.37</ele>
      </trkpt>
      <trkpt lat="59.953145356848836" lon="30.31986496411264">
        <ele>6.67</ele>
      </trkpt>
      <trkpt lat="59.95313571766019" lon="30.320392102003098">
        <ele>6.91</ele>
      </trkpt>
      <trkpt lat="59.95313571766019" lon="30.320392018184066">
        <ele>7.19</ele>
      </trkpt>
      <trkpt lat="59.95313286781311" lon="30.32054901123047">
        <ele>7.47</ele>
      </trkpt>
      <trkpt lat="59.95318651199341" lon="30.320645570755005">
        <ele>7.71</ele>
      </trkpt>
      <trkpt lat="59.95338533073664" lon="30.320629393681884">
        <ele>7.94</ele>
      </trkpt>
      <trkpt lat="59.953583562746644" lon="30.320613384246826">
        <ele>8.26</ele>
      </trkpt>
      <trkpt lat="59.953744411468506" lon="30.320463180541992">
        <ele>8.6</ele>
      </trkpt>
      <trkpt lat="59.95391607284546" lon="30.319948196411133">
        <ele>8.94</ele>
      </trkpt>
      <trkpt lat="59.9540916737169" lon="30.31963630579412">
        <ele>9.14</ele>
      </trkpt>
      <trkpt lat="59.95426735840738" lon="30.319324415177107">
        <ele>9.16</ele>
      </trkpt>
      <trkpt lat="59.95444178581238" lon="30.31901478767395">
        <ele>9.03</ele>
      </trkpt>
      <trkpt lat="59.954654853791" lon="30.318771209567785">
        <ele>8.82</ele>
      </trkpt>
      <trkpt lat="59.95486792176962" lon="30.31852763146162">
        <ele>8.6</ele>
      </trkpt>
      <trkpt lat="59.955079732462764" lon="30.318285645917058">
        <ele>8.45</ele>
      </trkpt>
      <trkpt lat="59.955079732462764" lon="30.31828572973609">
        <ele>8.35</ele>
      </trkpt>
      <trkpt lat="59.95511778630316" lon="30.31824231147766">
        <ele>8.25</ele>
      </trkpt>
      <trkpt lat="59.95511770248413" lon="30.31824231147766">
        <ele>8.16</ele>
      </trkpt>
      <trkpt lat="59.95513924397528" lon="30.318220853805542">
        <ele>8.08</ele>
      </trkpt>
      <trkpt lat="59.95540746487677" lon="30.31801700592041">
        <ele>8.17</ele>
      </trkpt>
      <trkpt lat="59.95547183789313" lon="30.31800627708435">
        <ele>8.12</ele>
      </trkpt>
      <trkpt lat="59.95551475323737" lon="30.31800627708435">
        <ele>8.06</ele>
      </trkpt>
      <trkpt lat="59.955546855926514" lon="30.31799554824829">
        <ele>7.99</ele>
      </trkpt>
      <trkpt lat="59.955836618319154" lon="30.31801700592041">
        <ele>7.91</ele>
      </trkpt>
      <trkpt lat="59.95589026249945" lon="30.31803846359253">
        <ele>7.83</ele>
      </trkpt>
      <trkpt lat="59.95589017868042" lon="30.31803846359253">
        <ele>7.75</ele>
      </trkpt>
      <trkpt lat="59.95589026249945" lon="30.31803846359253">
        <ele>7.58</ele>
      </trkpt>
      <trkpt lat="59.95596343651414" lon="30.317589361220598">
        <ele>7.43</ele>
      </trkpt>
      <trkpt lat="59.95603619143367" lon="30.317143192514777">
        <ele>7.29</ele>
      </trkpt>
      <trkpt lat="59.95603619143367" lon="30.317143108695745">
        <ele>7.23</ele>
      </trkpt>
      <trkpt lat="59.95605111122131" lon="30.31705141067505">
        <ele>7.16</ele>
      </trkpt>
      <trkpt lat="59.95606184005737" lon="30.31698703765869">
        <ele>7.11</ele>
      </trkpt>
      <trkpt lat="59.95614775456488" lon="30.31651496887207">
        <ele>7.13</ele>
      </trkpt>
      <trkpt lat="59.95626007206738" lon="30.31610844656825">
        <ele>7.14</ele>
      </trkpt>
      <trkpt lat="59.95626007206738" lon="30.316108530387282">
        <ele>7.11</ele>
      </trkpt>
      <trkpt lat="59.956287229433656" lon="30.31601071357727">
        <ele>7.07</ele>
      </trkpt>
      <trkpt lat="59.95641589164734" lon="30.31550645828247">
        <ele>7.02</ele>
      </trkpt>
      <trkpt lat="59.95639803819358" lon="30.31490891240537">
        <ele>6.99</ele>
      </trkpt>
      <trkpt lat="59.95639803819358" lon="30.314908996224403">
        <ele>7.01</ele>
      </trkpt>
      <trkpt lat="59.95639451779425" lon="30.31478762626648">
        <ele>7.04</ele>
      </trkpt>
      <trkpt lat="59.95636233128607" lon="30.314186811447144">
        <ele>7.14</ele>
      </trkpt>
      <trkpt lat="59.95636224746704" lon="30.314186811447144">
        <ele>7.19</ele>
      </trkpt>
      <trkpt lat="59.95633274316788" lon="30.313921021297574">
        <ele>7.31</ele>
      </trkpt>
      <trkpt lat="59.95633274316788" lon="30.313920937478542">
        <ele>7.37</ele>
      </trkpt>
      <trkpt lat="59.956287229433656" lon="30.31351089477539">
        <ele>7.48</ele>
      </trkpt>
      <trkpt lat="59.95623358525336" lon="30.313210487365723">
        <ele>7.58</ele>
      </trkpt>
      <trkpt lat="59.956171894446015" lon="30.312914606183767">
        <ele>7.6</ele>
      </trkpt>
      <trkpt lat="59.95611062273383" lon="30.31262056902051">
        <ele>7.58</ele>
      </trkpt>
      <trkpt lat="59.95611062273383" lon="30.312620485201478">
        <ele>7.67</ele>
      </trkpt>
      <trkpt lat="59.956072652712464" lon="30.312438011169434">
        <ele>7.72</ele>
      </trkpt>
      <trkpt lat="59.95595421642065" lon="30.311959069222212">
        <ele>7.82</ele>
      </trkpt>
      <trkpt lat="59.955836618319154" lon="30.311483144760132">
        <ele>8.1</ele>
      </trkpt>
      <trkpt lat="59.95583653450012" lon="30.311483144760132">
        <ele>8.23</ele>
      </trkpt>
      <trkpt lat="59.95570736937225" lon="30.310961958020926">
        <ele>8.55</ele>
      </trkpt>
      <trkpt lat="59.955579126253724" lon="30.310443956404924">
        <ele>8.69</ele>
      </trkpt>
      <trkpt lat="59.955546939745545" lon="30.31031370162964">
        <ele>8.87</ele>
      </trkpt>
      <trkpt lat="59.95543965138495" lon="30.309906005859375">
        <ele>8.85</ele>
      </trkpt>
      <trkpt lat="59.95532129891217" lon="30.309572406113148">
        <ele>8.89</ele>
      </trkpt>
      <trkpt lat="59.95520361699164" lon="30.30924081802368">
        <ele>9.01</ele>
      </trkpt>
      <trkpt lat="59.95520353317261" lon="30.30924081802368">
        <ele>9.16</ele>
      </trkpt>
      <trkpt lat="59.955099849030375" lon="30.308925323188305">
        <ele>9.42</ele>
      </trkpt>
      <trkpt lat="59.9549968354404" lon="30.308611756190658">
        <ele>9.68</ele>
      </trkpt>
      <trkpt lat="59.9549968354404" lon="30.308611672371626">
        <ele>9.84</ele>
      </trkpt>
      <trkpt lat="59.95495676994324" lon="30.30848979949951">
        <ele>10.04</ele>
      </trkpt>
      <trkpt lat="59.954913854599" lon="30.30807137489319">
        <ele>10.18</ele>
      </trkpt>
      <trkpt lat="59.95484956540167" lon="30.30802845954895">
        <ele>10.39</ele>
      </trkpt>
      <trkpt lat="59.95482802391052" lon="30.30800700187683">
        <ele>10.58</ele>
      </trkpt>
      <trkpt lat="59.95460221543908" lon="30.30774355866015">
        <ele>10.75</ele>
      </trkpt>
      <trkpt lat="59.95437749661505" lon="30.307481288909912">
        <ele>10.93</ele>
      </trkpt>
      <trkpt lat="59.954176750034094" lon="30.30728775076568">
        <ele>11.15</ele>
      </trkpt>
      <trkpt lat="59.95397608727217" lon="30.30709421262145">
        <ele>11.36</ele>
      </trkpt>
      <trkpt lat="59.953776681795716" lon="30.306901931762695">
        <ele>11.56</ele>
      </trkpt>
      <trkpt lat="59.953776597976685" lon="30.306901931762695">
        <ele>11.57</ele>
      </trkpt>
      <trkpt lat="59.953497145324945" lon="30.306729935109615">
        <ele>11.58</ele>
      </trkpt>
      <trkpt lat="59.953217692673206" lon="30.306557938456535">
        <ele>11.43</ele>
      </trkpt>
      <trkpt lat="59.95293983258307" lon="30.306386947631836">
        <ele>11.31</ele>
      </trkpt>
      <trkpt lat="59.95293974876404" lon="30.306386947631836">
        <ele>11.13</ele>
      </trkpt>
      <trkpt lat="59.95267102494836" lon="30.306243617087603">
        <ele>10.92</ele>
      </trkpt>
      <trkpt lat="59.95240238495171" lon="30.30610028654337">
        <ele>10.58</ele>
      </trkpt>
      <trkpt lat="59.9521351698786" lon="30.305957794189453">
        <ele>10.36</ele>
      </trkpt>
      <trkpt lat="59.95193878188729" lon="30.305957794189453">
        <ele>10.44</ele>
      </trkpt>
      <trkpt lat="59.951813304796815" lon="30.305957794189453">
        <ele>10.95</ele>
      </trkpt>
      <trkpt lat="59.95174893178046" lon="30.305957794189453">
        <ele>11.44</ele>
      </trkpt>
      <trkpt lat="59.95152672752738" lon="30.306075979024172">
        <ele>12.14</ele>
      </trkpt>
      <trkpt lat="59.951304607093334" lon="30.306194247677922">
        <ele>12.68</ele>
      </trkpt>
      <trkpt lat="59.951083743944764" lon="30.30631184577942">
        <ele>13.01</ele>
      </trkpt>
      <trkpt lat="59.95099791325629" lon="30.306376218795776">
        <ele>13.21</ele>
      </trkpt>
      <trkpt lat="59.95075064711273" lon="30.306435311213136">
        <ele>13.39</ele>
      </trkpt>
      <trkpt lat="59.950504302978516" lon="30.30649423599243">
        <ele>13.51</ele>
      </trkpt>
      <trkpt lat="59.950337670743465" lon="30.30664469115436">
        <ele>13.37</ele>
      </trkpt>
      <trkpt lat="59.95017170906067" lon="30.3067946434021">
        <ele>13.06</ele>
      </trkpt>
      <trkpt lat="59.95000013150275" lon="30.306987762451172">
        <ele>12.73</ele>
      </trkpt>
      <trkpt lat="59.950000047683716" lon="30.306987762451172">
        <ele>12.75</ele>
      </trkpt>
      <trkpt lat="59.94974959641695" lon="30.306967478245497">
        <ele>12.8</ele>
      </trkpt>
    </trkseg>
  </trk>
</gpx>
