<?xml version="1.0" encoding="UTF-8"?>
<gpx creator="Garmin Connect" version="1.1"
  xsi:schemaLocation="http://www.topografix.com/GPX/1/1 http://www.topografix.com/GPX/11.xsd"
  xmlns:ns3="http://www.garmin.com/xmlschemas/TrackPointExtension/v1"
  xmlns="http://www.topografix.com/GPX/1/1"
  xmlns:xsi="http://www.w3.org/2001/XMLSchema-instance" xmlns:ns2="http://www.garmin.com/xmlschemas/GpxExtensions/v3">
  <metadata>
    <name>Летний сад и Марсово поле Бег 10 км</name>
    <link href="connect.garmin.com">
      <text>Garmin Connect</text>
    </link>
    <time>2026-09-25T11:47:06.000Z</time>
  </metadata>
  <trk>
    <name>Летний сад и Марсово поле Бег 10 км</name>
    <trkseg>
      <trkpt lat="59.94535446166992" lon="30.330333709716797">
        <ele>5.99</ele>
      </trkpt>
      <trkpt lat="59.94516142643988" lon="30.33049464225769">
        <ele>5.21</ele>
      </trkpt>
      <trkpt lat="59.9452365282923" lon="30.330837965011597">
        <ele>4.9</ele>
      </trkpt>
      <trkpt lat="59.94526871480048" lon="30.330945253372192">
        <ele>4.65</ele>
      </trkpt>
      <trkpt lat="59.94537625461817" lon="30.331400809809566">
        <ele>4.32</ele>
      </trkpt>
      <trkpt lat="59.94548387825489" lon="30.33185636624694">
        <ele>3.96</ele>
      </trkpt>
      <trkpt lat="59.945590579882264" lon="30.332307815551758">
        <ele>3.8</ele>
      </trkpt>
      <trkpt lat="59.94559049606323" lon="30.332307815551758">
        <ele>3.56</ele>
      </trkpt>
      <trkpt lat="59.94560122489929" lon="30.332350730895996">
        <ele>3.32</ele>
      </trkpt>
      <trkpt lat="59.945396957919" lon="30.332493977621198">
        <ele>3.03</ele>
      </trkpt>
      <trkpt lat="59.94519277475774" lon="30.33263730816543">
        <ele>2.51</ele>
      </trkpt>
      <trkpt lat="59.9449896812439" lon="30.33277988433838">
        <ele>1.99</ele>
      </trkpt>
      <trkpt lat="59.94498976506293" lon="30.33277988433838">
        <ele>1.59</ele>
      </trkpt>
      <trkpt lat="59.94473713450134" lon="30.332951797172427">
        <ele>1.12</ele>
      </trkpt>
      <trkpt lat="59.94448450393975" lon="30.333123793825507">
        <ele>0.75</ele>
      </trkpt>
      <trkpt lat="59.94423195719719" lon="30.333295790478587">
        <ele>0.41</ele>
      </trkpt>
      <trkpt lat="59.94398125447333" lon="30.33346652984619">
        <ele>0.14</ele>
      </trkpt>
      <trkpt lat="59.94395971298218" lon="30.33347725868225">
        <ele>0.0</ele>
      </trkpt>
      <trkpt lat="59.94395979680121" lon="30.33347725868225">
        <ele>-0.08</ele>
      </trkpt>
      <trkpt lat="59.94391688145697" lon="30.33349871635437">
        <ele>-0.1</ele>
      </trkpt>
      <trkpt lat="59.94387396611273" lon="30.33354163169861">
        <ele>-0.08</ele>
      </trkpt>
      <trkpt lat="59.94386323727667" lon="30.33354163169861">
        <ele>0.02</ele>
      </trkpt>
      <trkpt lat="59.94363483041525" lon="30.333694769069552">
        <ele>0.18</ele>
      </trkpt>
      <trkpt lat="59.943406423553824" lon="30.333847906440496">
        <ele>0.56</ele>
      </trkpt>
      <trkpt lat="59.9431780166924" lon="30.334001127630472">
        <ele>1.08</ele>
      </trkpt>
      <trkpt lat="59.94295128621161" lon="30.334153175354004">
        <ele>1.5</ele>
      </trkpt>
      <trkpt lat="59.94265565648675" lon="30.334362722933292">
        <ele>1.73</ele>
      </trkpt>
      <trkpt lat="59.94236120022833" lon="30.334571599960327">
        <ele>2.16</ele>
      </trkpt>
      <trkpt lat="59.942135475575924" lon="30.334722055122256">
        <ele>2.55</ele>
      </trkpt>
      <trkpt lat="59.94191058911383" lon="30.334872007369995">
        <ele>2.95</ele>
      </trkpt>
      <trkpt lat="59.941814029589295" lon="30.334925651550293">
        <ele>3.38</ele>
      </trkpt>
      <trkpt lat="59.941545724868774" lon="30.33500075340271">
        <ele>3.93</ele>
      </trkpt>
      <trkpt lat="59.941545808687806" lon="30.33500075340271">
        <ele>4.42</ele>
      </trkpt>
      <trkpt lat="59.94143843650818" lon="30.33501148223877">
        <ele>5.03</ele>
      </trkpt>
      <trkpt lat="59.94137414731085" lon="30.33502221107483">
        <ele>5.63</ele>
      </trkpt>
      <trkpt lat="59.941299045458436" lon="30.33503293991089">
        <ele>6.25</ele>
      </trkpt>
      <trkpt lat="59.941277503967285" lon="30.33503293991089">
        <ele>6.8</ele>
      </trkpt>
      <trkpt lat="59.94122394360602" lon="30.33504366874695">
        <ele>7.36</ele>
      </trkpt>
      <trkpt lat="59.94120240211487" lon="30.335118770599365">
        <ele>7.88</ele>
      </trkpt>
      <trkpt lat="59.94121313095093" lon="30.3352153301239">
        <ele>8.33</ele>
      </trkpt>
      <trkpt lat="59.94113802909851" lon="30.3352689743042">
        <ele>8.78</ele>
      </trkpt>
      <trkpt lat="59.94094491004944" lon="30.335408449172974">
        <ele>9.25</ele>
      </trkpt>
      <trkpt lat="59.940737038850784" lon="30.33555530011654">
        <ele>9.64</ele>
      </trkpt>
      <trkpt lat="59.94052925147116" lon="30.335702234879136">
        <ele>9.92</ele>
      </trkpt>
      <trkpt lat="59.94032263755798" lon="30.335848331451416">
        <ele>10.14</ele>
      </trkpt>
      <trkpt lat="59.94025834836066" lon="30.335440635681152">
        <ele>10.5</ele>
      </trkpt>
      <trkpt lat="59.940258264541626" lon="30.335440635681152">
        <ele>10.53</ele>
      </trkpt>
      <trkpt lat="59.94025834836066" lon="30.335440635681152">
        <ele>10.57</ele>
      </trkpt>
      <trkpt lat="59.93998962454498" lon="30.33547282218933">
        <ele>10.59</ele>
      </trkpt>
      <trkpt lat="59.9397209007293" lon="30.33550509251654">
        <ele>10.63</ele>
      </trkpt>
      <trkpt lat="59.93945226073265" lon="30.33553727902472">
        <ele>10.62</ele>
      </trkpt>
      <trkpt lat="59.93918353691697" lon="30.33556954935193">
        <ele>10.67</ele>
      </trkpt>
      <trkpt lat="59.93891716003418" lon="30.335601568222046">
        <ele>10.85</ele>
      </trkpt>
      <trkpt lat="59.938788414001465" lon="30.335623025894165">
        <ele>11.04</ele>
      </trkpt>
      <trkpt lat="59.93874549865723" lon="30.335623025894165">
        <ele>11.26</ele>
      </trkpt>
      <trkpt lat="59.93871331214905" lon="30.335365533828735">
        <ele>11.53</ele>
      </trkpt>
      <trkpt lat="59.93858456611633" lon="30.335129499435425">
        <ele>11.98</ele>
      </trkpt>
      <trkpt lat="59.938563192263246" lon="30.334904193878174">
        <ele>12.37</ele>
      </trkpt>
      <trkpt lat="59.938563108444214" lon="30.334904193878174">
        <ele>12.68</ele>
      </trkpt>
      <trkpt lat="59.93861675262451" lon="30.334421396255493">
        <ele>13.08</ele>
      </trkpt>
      <trkpt lat="59.93868271820247" lon="30.33419592306018">
        <ele>13.39</ele>
      </trkpt>
      <trkpt lat="59.93868271820247" lon="30.33419600687921">
        <ele>13.68</ele>
      </trkpt>
      <trkpt lat="59.93874549865723" lon="30.33398151397705">
        <ele>13.99</ele>
      </trkpt>
      <trkpt lat="59.93886351585388" lon="30.33402442932129">
        <ele>14.23</ele>
      </trkpt>
      <trkpt lat="59.93890643119812" lon="30.333691835403442">
        <ele>14.54</ele>
      </trkpt>
      <trkpt lat="59.939056634902954" lon="30.33376693725586">
        <ele>14.71</ele>
      </trkpt>
      <trkpt lat="59.939099717885256" lon="30.33341171219945">
        <ele>14.94</ele>
      </trkpt>
      <trkpt lat="59.93914254941046" lon="30.333058834075928">
        <ele>15.11</ele>
      </trkpt>
      <trkpt lat="59.93914246559143" lon="30.333058834075928">
        <ele>15.2</ele>
      </trkpt>
      <trkpt lat="59.93920692242682" lon="30.332554578781128">
        <ele>15.31</ele>
      </trkpt>
      <trkpt lat="59.93924983777106" lon="30.332586765289307">
        <ele>15.3</ele>
      </trkpt>
      <trkpt lat="59.93935192935169" lon="30.33228007145226">
        <ele>15.23</ele>
      </trkpt>
      <trkpt lat="59.93945360183716" lon="30.33197522163391">
        <ele>15.06</ele>
      </trkpt>
      <trkpt lat="59.93951805867255" lon="30.331428050994873">
        <ele>14.93</ele>
      </trkpt>
      <trkpt lat="59.93956466205418" lon="30.331015409901738">
        <ele>14.86</ele>
      </trkpt>
      <trkpt lat="59.939611265435815" lon="30.330602768808603">
        <ele>14.87</ele>
      </trkpt>
      <trkpt lat="59.93965753354132" lon="30.330194234848022">
        <ele>15.05</ele>
      </trkpt>
      <trkpt lat="59.9396897200495" lon="30.329926013946533">
        <ele>15.26</ele>
      </trkpt>
      <trkpt lat="59.939764738082886" lon="30.329958200454712">
        <ele>15.39</ele>
      </trkpt>
      <trkpt lat="59.93991494178772" lon="30.33002257347107">
        <ele>15.53</ele>
      </trkpt>
      <trkpt lat="59.93993648327887" lon="30.329636335372925">
        <ele>15.76</ele>
      </trkpt>
      <trkpt lat="59.93993639945984" lon="30.329636335372925">
        <ele>15.88</ele>
      </trkpt>
      <trkpt lat="59.93993648327887" lon="30.329636335372925">
        <ele>16.15</ele>
      </trkpt>
      <trkpt lat="59.939807653427124" lon="30.32947540283203">
        <ele>16.32</ele>
      </trkpt>
      <trkpt lat="59.93972182273865" lon="30.329207181930542">
        <ele>16.33</ele>
      </trkpt>
      <trkpt lat="59.93971645832062" lon="30.328884227201343">
        <ele>16.37</ele>
      </trkpt>
      <trkpt lat="59.93971117772162" lon="30.328563451766968">
        <ele>16.25</ele>
      </trkpt>
      <trkpt lat="59.93968963623047" lon="30.328370332717896">
        <ele>16.04</ele>
      </trkpt>
      <trkpt lat="59.93969852104783" lon="30.328299337998033">
        <ele>15.89</ele>
      </trkpt>
      <trkpt lat="59.93969852104783" lon="30.328299421817064">
        <ele>15.77</ele>
      </trkpt>
      <trkpt lat="59.93970036506653" lon="30.32828450202942">
        <ele>15.63</ele>
      </trkpt>
      <trkpt lat="59.93943809531629" lon="30.328179141506553">
        <ele>15.28</ele>
      </trkpt>
      <trkpt lat="59.93917582556605" lon="30.328073780983686">
        <ele>15.12</ele>
      </trkpt>
      <trkpt lat="59.93891363963485" lon="30.327968504279852">
        <ele>15.08</ele>
      </trkpt>
      <trkpt lat="59.93865136988461" lon="30.327863143756986">
        <ele>14.99</ele>
      </trkpt>
      <trkpt lat="59.93839144706726" lon="30.3277587890625">
        <ele>14.89</ele>
      </trkpt>
      <trkpt lat="59.93839153088629" lon="30.3277587890625">
        <ele>14.72</ele>
      </trkpt>
      <trkpt lat="59.93810662999749" lon="30.327643202617764">
        <ele>14.62</ele>
      </trkpt>
      <trkpt lat="59.93782181292772" lon="30.32752769999206">
        <ele>14.44</ele>
      </trkpt>
      <trkpt lat="59.937536995857954" lon="30.327412113547325">
        <ele>14.04</ele>
      </trkpt>
      <trkpt lat="59.937254190444946" lon="30.32729744911194">
        <ele>13.72</ele>
      </trkpt>
      <trkpt lat="59.93725427426398" lon="30.32729744911194">
        <ele>13.47</ele>
      </trkpt>
      <trkpt lat="59.93695973418653" lon="30.327179180458188">
        <ele>13.31</ele>
      </trkpt>
      <trkpt lat="59.936665277928114" lon="30.32706099562347">
        <ele>13.19</ele>
      </trkpt>
      <trkpt lat="59.9363708216697" lon="30.32694272696972">
        <ele>12.97</ele>
      </trkpt>
      <trkpt lat="59.93607628159225" lon="30.326824542135">
        <ele>12.54</ele>
      </trkpt>
      <trkpt lat="59.93578442372382" lon="30.326707363128662">
        <ele>12.08</ele>
      </trkpt>
      <trkpt lat="59.93548393249512" lon="30.326578617095947">
        <ele>11.55</ele>
      </trkpt>
      <trkpt lat="59.93548401631415" lon="30.326578617095947">
        <ele>11.08</ele>
      </trkpt>
      <trkpt lat="59.93547328747809" lon="30.326653718948364">
        <ele>11.04</ele>
      </trkpt>
      <trkpt lat="59.93545174598694" lon="30.3268039226532">
        <ele>11.08</ele>
      </trkpt>
      <trkpt lat="59.93550547398627" lon="30.326825380325317">
        <ele>11.83</ele>
      </trkpt>
      <trkpt lat="59.93566129356623" lon="30.326889837160707">
        <ele>12.29</ele>
      </trkpt>
      <trkpt lat="59.935816610231996" lon="30.326954126358032">
        <ele>12.7</ele>
      </trkpt>
      <trkpt lat="59.935816526412964" lon="30.326954126358032">
        <ele>13.0</ele>
      </trkpt>
      <trkpt lat="59.93610620498657" lon="30.327082872390747">
        <ele>13.49</ele>
      </trkpt>
      <trkpt lat="59.936299407854676" lon="30.327157974243164">
        <ele>13.86</ele>
      </trkpt>
      <trkpt lat="59.936299324035645" lon="30.327157974243164">
        <ele>14.11</ele>
      </trkpt>
      <trkpt lat="59.9365518707782" lon="30.327260065823793">
        <ele>14.35</ele>
      </trkpt>
      <trkpt lat="59.936803663149476" lon="30.327361822128296">
        <ele>14.33</ele>
      </trkpt>
      <trkpt lat="59.937071800231934" lon="30.32746911048889">
        <ele>14.27</ele>
      </trkpt>
      <trkpt lat="59.937114799395204" lon="30.32747983932495">
        <ele>14.4</ele>
      </trkpt>
      <trkpt lat="59.93716835975647" lon="30.32750129699707">
        <ele>14.52</ele>
      </trkpt>
      <trkpt lat="59.93716835975647" lon="30.32746911048889">
        <ele>14.61</ele>
      </trkpt>
      <trkpt lat="59.93723281659186" lon="30.32750129699707">
        <ele>14.71</ele>
      </trkpt>
      <trkpt lat="59.93723273277283" lon="30.32750129699707">
        <ele>14.8</ele>
      </trkpt>
      <trkpt lat="59.93749332614243" lon="30.32760875299573">
        <ele>15.02</ele>
      </trkpt>
      <trkpt lat="59.93775391951203" lon="30.32771620899439">
        <ele>15.26</ele>
      </trkpt>
      <trkpt lat="59.93801459670067" lon="30.327823664993048">
        <ele>15.28</ele>
      </trkpt>
      <trkpt lat="59.938273429870605" lon="30.327930450439453">
        <ele>15.19</ele>
      </trkpt>
      <trkpt lat="59.938337886705995" lon="30.327962636947632">
        <ele>15.22</ele>
      </trkpt>
      <trkpt lat="59.93837007321417" lon="30.32797336578369">
        <ele>15.26</ele>
      </trkpt>
      <trkpt lat="59.93836998939514" lon="30.32797336578369">
        <ele>15.31</ele>
      </trkpt>
      <trkpt lat="59.93848716840148" lon="30.328020891174674">
        <ele>15.35</ele>
      </trkpt>
      <trkpt lat="59.938713144510984" lon="30.328112421557307">
        <ele>15.5</ele>
      </trkpt>
      <trkpt lat="59.93893912062049" lon="30.328204035758972">
        <ele>15.53</ele>
      </trkpt>
      <trkpt lat="59.93916400708258" lon="30.32829523086548">
        <ele>15.53</ele>
      </trkpt>
      <trkpt lat="59.93916392326355" lon="30.32829523086548">
        <ele>15.63</ele>
      </trkpt>
      <trkpt lat="59.93944890797138" lon="30.328434957191348">
        <ele>15.82</ele>
      </trkpt>
      <trkpt lat="59.93971117772162" lon="30.328563451766968">
        <ele>16.3</ele>
      </trkpt>
      <trkpt lat="59.93971109390259" lon="30.328563451766968">
        <ele>16.32</ele>
      </trkpt>
      <trkpt lat="59.93971117772162" lon="30.328563451766968">
        <ele>16.21</ele>
      </trkpt>
      <trkpt lat="59.93971645832062" lon="30.328886322677135">
        <ele>16.13</ele>
      </trkpt>
      <trkpt lat="59.93972182273865" lon="30.329207181930542">
        <ele>15.87</ele>
      </trkpt>
      <trkpt lat="59.939807653427124" lon="30.32947540283203">
        <ele>15.59</ele>
      </trkpt>
      <trkpt lat="59.93993648327887" lon="30.329636335372925">
        <ele>15.1</ele>
      </trkpt>
      <trkpt lat="59.93993639945984" lon="30.329636335372925">
        <ele>14.68</ele>
      </trkpt>
      <trkpt lat="59.94009733200073" lon="30.329657793045044">
        <ele>14.07</ele>
      </trkpt>
      <trkpt lat="59.94023680686951" lon="30.32952904701233">
        <ele>13.43</ele>
      </trkpt>
      <trkpt lat="59.94033336639404" lon="30.32928228378296">
        <ele>12.75</ele>
      </trkpt>
      <trkpt lat="59.94036555290222" lon="30.328917503356934">
        <ele>12.19</ele>
      </trkpt>
      <trkpt lat="59.94037284515798" lon="30.32891976647079">
        <ele>11.62</ele>
      </trkpt>
      <trkpt lat="59.94053729809821" lon="30.32897114753723">
        <ele>10.41</ele>
      </trkpt>
      <trkpt lat="59.940537214279175" lon="30.32897114753723">
        <ele>9.87</ele>
      </trkpt>
      <trkpt lat="59.94053729809821" lon="30.32897114753723">
        <ele>8.88</ele>
      </trkpt>
      <trkpt lat="59.940537214279175" lon="30.32897114753723">
        <ele>8.43</ele>
      </trkpt>
      <trkpt lat="59.940526485443115" lon="30.329121351242065">
        <ele>7.98</ele>
      </trkpt>
      <trkpt lat="59.940558671951294" lon="30.329132080078125">
        <ele>7.59</ele>
      </trkpt>
      <trkpt lat="59.940547943115234" lon="30.329625606536865">
        <ele>7.29</ele>
      </trkpt>
      <trkpt lat="59.94068741798401" lon="30.32997965812683">
        <ele>6.99</ele>
      </trkpt>
      <trkpt lat="59.94090593419969" lon="30.330083509907126">
        <ele>6.68</ele>
      </trkpt>
      <trkpt lat="59.941124534234405" lon="30.330187361687422">
        <ele>6.41</ele>
      </trkpt>
      <trkpt lat="59.941341960802674" lon="30.33029079437256">
        <ele>6.19</ele>
      </trkpt>
      <trkpt lat="59.94134187698364" lon="30.33029079437256">
        <ele>6.09</ele>
      </trkpt>
      <trkpt lat="59.941599452868104" lon="30.330387353897095">
        <ele>6.0</ele>
      </trkpt>
      <trkpt lat="59.94168519973755" lon="30.33054828643799">
        <ele>6.0</ele>
      </trkpt>
      <trkpt lat="59.94178184308112" lon="30.330559015274048">
        <ele>6.06</ele>
      </trkpt>
      <trkpt lat="59.941835487261415" lon="30.330559015274048">
        <ele>6.19</ele>
      </trkpt>
      <trkpt lat="59.94187831878662" lon="30.330569744110107">
        <ele>6.36</ele>
      </trkpt>
      <trkpt lat="59.9419105052948" lon="30.330569744110107">
        <ele>6.6</ele>
      </trkpt>
      <trkpt lat="59.94191058911383" lon="30.330569744110107">
        <ele>7.53</ele>
      </trkpt>
      <trkpt lat="59.9419641494751" lon="30.330451726913452">
        <ele>7.91</ele>
      </trkpt>
      <trkpt lat="59.94217872619629" lon="30.33026933670044">
        <ele>8.34</ele>
      </trkpt>
      <trkpt lat="59.942465387284756" lon="30.330040007829666">
        <ele>8.77</ele>
      </trkpt>
      <trkpt lat="59.94275204837322" lon="30.329810678958893">
        <ele>9.28</ele>
      </trkpt>
      <trkpt lat="59.943037116900086" lon="30.329582691192627">
        <ele>9.76</ele>
      </trkpt>
      <trkpt lat="59.943080032244325" lon="30.32955050468445">
        <ele>10.03</ele>
      </trkpt>
      <trkpt lat="59.94313359260559" lon="30.32951831817627">
        <ele>10.22</ele>
      </trkpt>
      <trkpt lat="59.94313367642462" lon="30.32951831817627">
        <ele>10.32</ele>
      </trkpt>
      <trkpt lat="59.94336468167603" lon="30.3293355088681">
        <ele>10.31</ele>
      </trkpt>
      <trkpt lat="59.94359577074647" lon="30.32915278337896">
        <ele>10.12</ele>
      </trkpt>
      <trkpt lat="59.94382685981691" lon="30.32897005788982">
        <ele>9.94</ele>
      </trkpt>
      <trkpt lat="59.944056272506714" lon="30.32878875732422">
        <ele>9.81</ele>
      </trkpt>
      <trkpt lat="59.944056356325746" lon="30.32878875732422">
        <ele>9.57</ele>
      </trkpt>
      <trkpt lat="59.944330444559455" lon="30.3285791259259">
        <ele>9.27</ele>
      </trkpt>
      <trkpt lat="59.944603526964784" lon="30.328370332717896">
        <ele>8.72</ele>
      </trkpt>
      <trkpt lat="59.94464644230902" lon="30.328338146209717">
        <ele>8.32</ele>
      </trkpt>
      <trkpt lat="59.94466789998114" lon="30.328423976898193">
        <ele>7.88</ele>
      </trkpt>
      <trkpt lat="59.94466781616211" lon="30.328423976898193">
        <ele>7.47</ele>
      </trkpt>
      <trkpt lat="59.94466789998114" lon="30.328423976898193">
        <ele>6.63</ele>
      </trkpt>
      <trkpt lat="59.94477518834174" lon="30.328874588012695">
        <ele>6.02</ele>
      </trkpt>
      <trkpt lat="59.944775104522705" lon="30.328874588012695">
        <ele>5.64</ele>
      </trkpt>
      <trkpt lat="59.944565473124385" lon="30.329041136428714">
        <ele>4.37</ele>
      </trkpt>
      <trkpt lat="59.94435667991638" lon="30.329207181930542">
        <ele>4.17</ele>
      </trkpt>
      <trkpt lat="59.94419583119452" lon="30.329325199127197">
        <ele>4.01</ele>
      </trkpt>
      <trkpt lat="59.943991899490356" lon="30.32948613166809">
        <ele>3.91</ele>
      </trkpt>
      <trkpt lat="59.94378109462559" lon="30.329651003703475">
        <ele>3.91</ele>
      </trkpt>
      <trkpt lat="59.94357037357986" lon="30.32981587573886">
        <ele>4.0</ele>
      </trkpt>
      <trkpt lat="59.9433609098196" lon="30.329979909583926">
        <ele>3.87</ele>
      </trkpt>
      <trkpt lat="59.9433609098196" lon="30.329979993402958">
        <ele>3.82</ele>
      </trkpt>
      <trkpt lat="59.94325169362128" lon="30.330065488815308">
        <ele>3.71</ele>
      </trkpt>
      <trkpt lat="59.94323023594916" lon="30.330076217651367">
        <ele>3.66</ele>
      </trkpt>
      <trkpt lat="59.94319796562195" lon="30.330097675323486">
        <ele>3.6</ele>
      </trkpt>
      <trkpt lat="59.942947095260024" lon="30.330283921211958">
        <ele>3.45</ele>
      </trkpt>
      <trkpt lat="59.94269630871713" lon="30.33047025091946">
        <ele>3.45</ele>
      </trkpt>
      <trkpt lat="59.94244694709778" lon="30.330655574798584">
        <ele>3.53</ele>
      </trkpt>
      <trkpt lat="59.94231652468443" lon="30.330768562853336">
        <ele>3.54</ele>
      </trkpt>
      <trkpt lat="59.94231652468443" lon="30.330768646672368">
        <ele>3.52</ele>
      </trkpt>
      <trkpt lat="59.94228609837592" lon="30.33079504966736">
        <ele>3.49</ele>
      </trkpt>
      <trkpt lat="59.942097924649715" lon="30.330929327756166">
        <ele>3.43</ele>
      </trkpt>
      <trkpt lat="59.9419105052948" lon="30.331063270568848">
        <ele>3.32</ele>
      </trkpt>
      <trkpt lat="59.94189986027777" lon="30.331159830093384">
        <ele>3.03</ele>
      </trkpt>
      <trkpt lat="59.94184060022235" lon="30.331714125350118">
        <ele>2.82</ele>
      </trkpt>
      <trkpt lat="59.94178184308112" lon="30.33226490020752">
        <ele>2.88</ele>
      </trkpt>
      <trkpt lat="59.941781759262085" lon="30.33226490020752">
        <ele>2.77</ele>
      </trkpt>
      <trkpt lat="59.94172786362469" lon="30.332760019227862">
        <ele>2.74</ele>
      </trkpt>
      <trkpt lat="59.94167405180633" lon="30.333255138248205">
        <ele>2.48</ele>
      </trkpt>
      <trkpt lat="59.94162023998797" lon="30.33375034108758">
        <ele>2.2</ele>
      </trkpt>
      <trkpt lat="59.94156642816961" lon="30.334245460107923">
        <ele>2.07</ele>
      </trkpt>
      <trkpt lat="59.941513538360596" lon="30.33473253250122">
        <ele>1.97</ele>
      </trkpt>
      <trkpt lat="59.94164798408747" lon="30.33422676846385">
        <ele>1.1</ele>
      </trkpt>
      <trkpt lat="59.94178251363337" lon="30.33372100442648">
        <ele>0.86</ele>
      </trkpt>
      <trkpt lat="59.941917043179274" lon="30.33321524038911">
        <ele>0.81</ele>
      </trkpt>
      <trkpt lat="59.942049980163574" lon="30.33271551132202">
        <ele>0.62</ele>
      </trkpt>
      <trkpt lat="59.94216472841799" lon="30.33234603703022">
        <ele>0.21</ele>
      </trkpt>
      <trkpt lat="59.94227947667241" lon="30.33197664655745">
        <ele>-0.03</ele>
      </trkpt>
      <trkpt lat="59.94239330291748" lon="30.331610441207886">
        <ele>-0.15</ele>
      </trkpt>
      <trkpt lat="59.94245767593384" lon="30.331631898880005">
        <ele>-0.73</ele>
      </trkpt>
      <trkpt lat="59.94252758100629" lon="30.331992404535413">
        <ele>-0.92</ele>
      </trkpt>
      <trkpt lat="59.94259715080261" lon="30.332350730895996">
        <ele>-1.05</ele>
      </trkpt>
      <trkpt lat="59.94265087880194" lon="30.332661867141724">
        <ele>-1.01</ele>
      </trkpt>
      <trkpt lat="59.94265079498291" lon="30.332661867141724">
        <ele>-0.91</ele>
      </trkpt>
      <trkpt lat="59.94265087880194" lon="30.332661867141724">
        <ele>-0.57</ele>
      </trkpt>
      <trkpt lat="59.94271516799927" lon="30.33297300338745">
        <ele>-0.22</ele>
      </trkpt>
      <trkpt lat="59.942800998687744" lon="30.333348512649536">
        <ele>0.19</ele>
      </trkpt>
      <trkpt lat="59.942747354507446" lon="30.33353090286255">
        <ele>0.57</ele>
      </trkpt>
      <trkpt lat="59.94246790185571" lon="30.333530819043517">
        <ele>1.54</ele>
      </trkpt>
      <trkpt lat="59.94218945503235" lon="30.33353090286255">
        <ele>1.71</ele>
      </trkpt>
      <trkpt lat="59.94216799736023" lon="30.333423614501953">
        <ele>1.75</ele>
      </trkpt>
      <trkpt lat="59.94211435317993" lon="30.333101749420166">
        <ele>1.61</ele>
      </trkpt>
      <trkpt lat="59.94238307699561" lon="30.332881389185786">
        <ele>0.41</ele>
      </trkpt>
      <trkpt lat="59.94265087880194" lon="30.332661867141724">
        <ele>-0.17</ele>
      </trkpt>
      <trkpt lat="59.94283888489008" lon="30.332500599324703">
        <ele>-0.57</ele>
      </trkpt>
      <trkpt lat="59.943026304244995" lon="30.332340002059937">
        <ele>-0.84</ele>
      </trkpt>
      <trkpt lat="59.94302638806403" lon="30.332340002059937">
        <ele>-1.1</ele>
      </trkpt>
      <trkpt lat="59.943294525146484" lon="30.332103967666626">
        <ele>-1.27</ele>
      </trkpt>
      <trkpt lat="59.94344472885132" lon="30.332061052322388">
        <ele>-1.4</ele>
      </trkpt>
      <trkpt lat="59.9434232711792" lon="30.33199667930603">
        <ele>-1.62</ele>
      </trkpt>
      <trkpt lat="59.943530559539795" lon="30.331921577453613">
        <ele>-1.74</ele>
      </trkpt>
      <trkpt lat="59.943584287539124" lon="30.33196449279785">
        <ele>-1.86</ele>
      </trkpt>
      <trkpt lat="59.94358420372009" lon="30.33196449279785">
        <ele>-2.04</ele>
      </trkpt>
      <trkpt lat="59.94361639022827" lon="30.331857204437256">
        <ele>-2.2</ele>
      </trkpt>
      <trkpt lat="59.9437237624079" lon="30.33178210258484">
        <ele>-2.31</ele>
      </trkpt>
      <trkpt lat="59.94371294975281" lon="30.331707000732422">
        <ele>-2.56</ele>
      </trkpt>
      <trkpt lat="59.94385242462158" lon="30.331664085388184">
        <ele>-2.77</ele>
      </trkpt>
      <trkpt lat="59.944056356325746" lon="30.33147096633911">
        <ele>-3.14</ele>
      </trkpt>
      <trkpt lat="59.944056272506714" lon="30.33147096633911">
        <ele>-3.35</ele>
      </trkpt>
      <trkpt lat="59.944056356325746" lon="30.33147096633911">
        <ele>-3.75</ele>
      </trkpt>
      <trkpt lat="59.94399198330939" lon="30.331181287765503">
        <ele>-4.0</ele>
      </trkpt>
      <trkpt lat="59.94373440742493" lon="30.33102035522461">
        <ele>-4.12</ele>
      </trkpt>
      <trkpt lat="59.94347699917853" lon="30.33122420310974">
        <ele>-4.45</ele>
      </trkpt>
      <trkpt lat="59.94344481267035" lon="30.33125638961792">
        <ele>-4.56</ele>
      </trkpt>
      <trkpt lat="59.94341262616217" lon="30.33127784729004">
        <ele>-4.62</ele>
      </trkpt>
      <trkpt lat="59.943160247057676" lon="30.331491334363818">
        <ele>-4.65</ele>
      </trkpt>
      <trkpt lat="59.94313359260559" lon="30.33151388168335">
        <ele>-4.6</ele>
      </trkpt>
      <trkpt lat="59.943004846572876" lon="30.331803560256958">
        <ele>-4.47</ele>
      </trkpt>
      <trkpt lat="59.94300493039191" lon="30.331803560256958">
        <ele>-4.36</ele>
      </trkpt>
      <trkpt lat="59.94298347271979" lon="30.33203959465027">
        <ele>-4.23</ele>
      </trkpt>
      <trkpt lat="59.943026304244995" lon="30.332340002059937">
        <ele>-4.06</ele>
      </trkpt>
      <trkpt lat="59.94307751767337" lon="30.332512920722365">
        <ele>-3.85</ele>
      </trkpt>
      <trkpt lat="59.94307751767337" lon="30.332512836903334">
        <ele>-3.59</ele>
      </trkpt>
      <trkpt lat="59.9431122187525" lon="30.332629680633545">
        <ele>-3.28</ele>
      </trkpt>
      <trkpt lat="59.94319804944098" lon="30.3327476978302">
        <ele>-2.95</ele>
      </trkpt>
      <trkpt lat="59.94334816932678" lon="30.33275842666626">
        <ele>-2.57</ele>
      </trkpt>
      <trkpt lat="59.94350407272577" lon="30.33262398093939">
        <ele>-2.23</ele>
      </trkpt>
      <trkpt lat="59.94365938939154" lon="30.33249020576477">
        <ele>-1.9</ele>
      </trkpt>
      <trkpt lat="59.94369157589972" lon="30.33246874809265">
        <ele>-1.69</ele>
      </trkpt>
      <trkpt lat="59.9437237624079" lon="30.332436561584473">
        <ele>-1.52</ele>
      </trkpt>
      <trkpt lat="59.94397044181824" lon="30.33223271369934">
        <ele>-1.37</ele>
      </trkpt>
      <trkpt lat="59.944048561155796" lon="30.33200397156179">
        <ele>-1.37</ele>
      </trkpt>
      <trkpt lat="59.944048561155796" lon="30.33200405538082">
        <ele>-1.41</ele>
      </trkpt>
      <trkpt lat="59.94412064552307" lon="30.3317928314209">
        <ele>-1.65</ele>
      </trkpt>
      <trkpt lat="59.9441207293421" lon="30.3317928314209">
        <ele>-1.73</ele>
      </trkpt>
      <trkpt lat="59.944056356325746" lon="30.33147096633911">
        <ele>-1.92</ele>
      </trkpt>
      <trkpt lat="59.944056272506714" lon="30.33147096633911">
        <ele>-2.04</ele>
      </trkpt>
      <trkpt lat="59.944056356325746" lon="30.33147096633911">
        <ele>-2.3</ele>
      </trkpt>
      <trkpt lat="59.94399198330939" lon="30.331181287765503">
        <ele>-2.49</ele>
      </trkpt>
      <trkpt lat="59.94402416981757" lon="30.330859422683716">
        <ele>-2.63</ele>
      </trkpt>
      <trkpt lat="59.944208236411214" lon="30.330413170158863">
        <ele>-2.6</ele>
      </trkpt>
      <trkpt lat="59.944303035736084" lon="30.330183506011963">
        <ele>-2.75</ele>
      </trkpt>
      <trkpt lat="59.94438895024359" lon="30.33021569252014">
        <ele>-2.76</ele>
      </trkpt>
      <trkpt lat="59.94444251060486" lon="30.330097675323486">
        <ele>-2.72</ele>
      </trkpt>
      <trkpt lat="59.94441032409668" lon="30.329904556274414">
        <ele>-2.26</ele>
      </trkpt>
      <trkpt lat="59.94451769627631" lon="30.329636335372925">
        <ele>-1.94</ele>
      </trkpt>
      <trkpt lat="59.944517612457275" lon="30.329636335372925">
        <ele>-1.56</ele>
      </trkpt>
      <trkpt lat="59.94451769627631" lon="30.329636335372925">
        <ele>-0.43</ele>
      </trkpt>
      <trkpt lat="59.944743337109685" lon="30.329657793045044">
        <ele>0.44</ele>
      </trkpt>
      <trkpt lat="59.94496830739081" lon="30.329679250717163">
        <ele>1.42</ele>
      </trkpt>
      <trkpt lat="59.94496822357178" lon="30.329679250717163">
        <ele>2.08</ele>
      </trkpt>
      <trkpt lat="59.94520425796509" lon="30.329689979553223">
        <ele>2.96</ele>
      </trkpt>
      <trkpt lat="59.94520434178412" lon="30.329689979553223">
        <ele>4.35</ele>
      </trkpt>
      <trkpt lat="59.94522579945624" lon="30.329807996749878">
        <ele>4.77</ele>
      </trkpt>
      <trkpt lat="59.945290172472596" lon="30.330065488815308">
        <ele>5.17</ele>
      </trkpt>
      <trkpt lat="59.9453279748559" lon="30.33022340387106">
        <ele>5.51</ele>
      </trkpt>
    </trkseg>
  </trk>
</gpx>
