<?xml version="1.0" encoding="UTF-8"?>
<gpx creator="Garmin Connect" version="1.1"
  xsi:schemaLocation="http://www.topografix.com/GPX/1/1 http://www.topografix.com/GPX/11.xsd"
  xmlns:ns3="http://www.garmin.com/xmlschemas/TrackPointExtension/v1"
  xmlns="http://www.topografix.com/GPX/1/1"
  xmlns:xsi="http://www.w3.org/2001/XMLSchema-instance" xmlns:ns2="http://www.garmin.com/xmlschemas/GpxExtensions/v3">
  <metadata>
    <name>Летний сад и Марсово поле Бег 5 км</name>
    <link href="connect.garmin.com">
      <text>Garmin Connect</text>
    </link>
    <time>2026-09-25T11:22:22.000Z</time>
  </metadata>
  <trk>
    <name>Летний сад и Марсово поле Бег 5 км</name>
    <trkseg>
      <trkpt lat="59.94531171396375" lon="30.330369332805276">
        <ele>5.77</ele>
      </trkpt>
      <trkpt lat="59.94516142643988" lon="30.33049464225769">
        <ele>5.17</ele>
      </trkpt>
      <trkpt lat="59.9452365282923" lon="30.330837965011597">
        <ele>4.89</ele>
      </trkpt>
      <trkpt lat="59.94526871480048" lon="30.330945253372192">
        <ele>4.69</ele>
      </trkpt>
      <trkpt lat="59.94537625461817" lon="30.331400809809566">
        <ele>4.4</ele>
      </trkpt>
      <trkpt lat="59.94548387825489" lon="30.33185636624694">
        <ele>4.09</ele>
      </trkpt>
      <trkpt lat="59.945590579882264" lon="30.332307815551758">
        <ele>3.99</ele>
      </trkpt>
      <trkpt lat="59.94559049606323" lon="30.332307815551758">
        <ele>3.81</ele>
      </trkpt>
      <trkpt lat="59.94560122489929" lon="30.332350730895996">
        <ele>3.62</ele>
      </trkpt>
      <trkpt lat="59.945396957919" lon="30.332493977621198">
        <ele>3.38</ele>
      </trkpt>
      <trkpt lat="59.94519277475774" lon="30.33263730816543">
        <ele>2.91</ele>
      </trkpt>
      <trkpt lat="59.9449896812439" lon="30.33277988433838">
        <ele>2.43</ele>
      </trkpt>
      <trkpt lat="59.94498976506293" lon="30.33277988433838">
        <ele>2.07</ele>
      </trkpt>
      <trkpt lat="59.94473713450134" lon="30.332951797172427">
        <ele>1.63</ele>
      </trkpt>
      <trkpt lat="59.94448450393975" lon="30.333123793825507">
        <ele>1.29</ele>
      </trkpt>
      <trkpt lat="59.94423195719719" lon="30.333295790478587">
        <ele>0.98</ele>
      </trkpt>
      <trkpt lat="59.94398125447333" lon="30.33346652984619">
        <ele>0.72</ele>
      </trkpt>
      <trkpt lat="59.94395971298218" lon="30.33347725868225">
        <ele>0.57</ele>
      </trkpt>
      <trkpt lat="59.94395979680121" lon="30.33347725868225">
        <ele>0.48</ele>
      </trkpt>
      <trkpt lat="59.94391688145697" lon="30.33349871635437">
        <ele>0.43</ele>
      </trkpt>
      <trkpt lat="59.94387396611273" lon="30.33354163169861">
        <ele>0.41</ele>
      </trkpt>
      <trkpt lat="59.94386323727667" lon="30.33354163169861">
        <ele>0.43</ele>
      </trkpt>
      <trkpt lat="59.94363483041525" lon="30.333694769069552">
        <ele>0.49</ele>
      </trkpt>
      <trkpt lat="59.943406423553824" lon="30.333847906440496">
        <ele>0.74</ele>
      </trkpt>
      <trkpt lat="59.9431780166924" lon="30.334001127630472">
        <ele>1.09</ele>
      </trkpt>
      <trkpt lat="59.94295128621161" lon="30.334153175354004">
        <ele>1.32</ele>
      </trkpt>
      <trkpt lat="59.94265565648675" lon="30.334362722933292">
        <ele>1.31</ele>
      </trkpt>
      <trkpt lat="59.94236120022833" lon="30.334571599960327">
        <ele>1.47</ele>
      </trkpt>
      <trkpt lat="59.942135475575924" lon="30.334722055122256">
        <ele>1.55</ele>
      </trkpt>
      <trkpt lat="59.94191058911383" lon="30.334872007369995">
        <ele>1.62</ele>
      </trkpt>
      <trkpt lat="59.941814029589295" lon="30.334925651550293">
        <ele>1.68</ele>
      </trkpt>
      <trkpt lat="59.941587299108505" lon="30.3349891025573">
        <ele>1.83</ele>
      </trkpt>
      <trkpt lat="59.941545724868774" lon="30.33500075340271">
        <ele>2.01</ele>
      </trkpt>
      <trkpt lat="59.941545808687806" lon="30.33500075340271">
        <ele>2.1</ele>
      </trkpt>
      <trkpt lat="59.941513538360596" lon="30.33473253250122">
        <ele>2.14</ele>
      </trkpt>
      <trkpt lat="59.94157833047211" lon="30.334136495366693">
        <ele>2.14</ele>
      </trkpt>
      <trkpt lat="59.94164312258363" lon="30.333540458232164">
        <ele>2.34</ele>
      </trkpt>
      <trkpt lat="59.941707914695144" lon="30.332944421097636">
        <ele>2.7</ele>
      </trkpt>
      <trkpt lat="59.94177186861634" lon="30.33235626295209">
        <ele>2.88</ele>
      </trkpt>
      <trkpt lat="59.941781759262085" lon="30.33226490020752">
        <ele>3.43</ele>
      </trkpt>
      <trkpt lat="59.94178184308112" lon="30.33226490020752">
        <ele>3.77</ele>
      </trkpt>
      <trkpt lat="59.94184101931751" lon="30.331710521131754">
        <ele>3.96</ele>
      </trkpt>
      <trkpt lat="59.94189986027777" lon="30.331159830093384">
        <ele>4.49</ele>
      </trkpt>
      <trkpt lat="59.9419105052948" lon="30.331063270568848">
        <ele>4.97</ele>
      </trkpt>
      <trkpt lat="59.9419641494751" lon="30.33054828643799">
        <ele>5.67</ele>
      </trkpt>
      <trkpt lat="59.94218945503235" lon="30.330365896224976">
        <ele>7.73</ele>
      </trkpt>
      <trkpt lat="59.94241786189377" lon="30.33018576912582">
        <ele>8.22</ele>
      </trkpt>
      <trkpt lat="59.9426462687552" lon="30.330005725845695">
        <ele>8.75</ele>
      </trkpt>
      <trkpt lat="59.94287467561662" lon="30.32982568256557">
        <ele>9.28</ele>
      </trkpt>
      <trkpt lat="59.94310140609741" lon="30.329647064208984">
        <ele>9.75</ele>
      </trkpt>
      <trkpt lat="59.94315505027771" lon="30.329604148864746">
        <ele>10.05</ele>
      </trkpt>
      <trkpt lat="59.94315513409674" lon="30.329604148864746">
        <ele>10.24</ele>
      </trkpt>
      <trkpt lat="59.943388905376196" lon="30.329421339556575">
        <ele>10.32</ele>
      </trkpt>
      <trkpt lat="59.94362267665565" lon="30.329238614067435">
        <ele>10.18</ele>
      </trkpt>
      <trkpt lat="59.943856447935104" lon="30.329055888578296">
        <ele>10.07</ele>
      </trkpt>
      <trkpt lat="59.94408845901489" lon="30.328874588012695">
        <ele>9.97</ele>
      </trkpt>
      <trkpt lat="59.944088542833924" lon="30.328874588012695">
        <ele>9.79</ele>
      </trkpt>
      <trkpt lat="59.94430881924927" lon="30.328702591359615">
        <ele>9.56</ele>
      </trkpt>
      <trkpt lat="59.94452842511237" lon="30.32853126525879">
        <ele>9.16</ele>
      </trkpt>
      <trkpt lat="59.94466789998114" lon="30.328423976898193">
        <ele>8.74</ele>
      </trkpt>
      <trkpt lat="59.94466781616211" lon="30.328423976898193">
        <ele>8.36</ele>
      </trkpt>
      <trkpt lat="59.94466789998114" lon="30.328423976898193">
        <ele>7.51</ele>
      </trkpt>
      <trkpt lat="59.94477518834174" lon="30.328874588012695">
        <ele>6.85</ele>
      </trkpt>
      <trkpt lat="59.944775104522705" lon="30.328874588012695">
        <ele>6.38</ele>
      </trkpt>
      <trkpt lat="59.944871915504336" lon="30.329278092831373">
        <ele>5.78</ele>
      </trkpt>
      <trkpt lat="59.94496822357178" lon="30.329679250717163">
        <ele>5.33</ele>
      </trkpt>
      <trkpt lat="59.945086324587464" lon="30.330140590667725">
        <ele>4.96</ele>
      </trkpt>
      <trkpt lat="59.94508624076843" lon="30.330140590667725">
        <ele>4.47</ele>
      </trkpt>
      <trkpt lat="59.94510778225958" lon="30.33023715019226">
        <ele>3.97</ele>
      </trkpt>
      <trkpt lat="59.94510769844055" lon="30.33023715019226">
        <ele>3.44</ele>
      </trkpt>
      <trkpt lat="59.94516142643988" lon="30.33049464225769">
        <ele>2.87</ele>
      </trkpt>
      <trkpt lat="59.94516134262085" lon="30.33049464225769">
        <ele>2.29</ele>
      </trkpt>
      <trkpt lat="59.94516142643988" lon="30.33049464225769">
        <ele>1.08</ele>
      </trkpt>
      <trkpt lat="59.94489320553839" lon="30.330730676651">
        <ele>0.17</ele>
      </trkpt>
      <trkpt lat="59.94489312171936" lon="30.330730676651">
        <ele>-0.45</ele>
      </trkpt>
      <trkpt lat="59.94473721832037" lon="30.3308757673949">
        <ele>-1.22</ele>
      </trkpt>
      <trkpt lat="59.944582069292665" lon="30.33102035522461">
        <ele>-2.01</ele>
      </trkpt>
      <trkpt lat="59.94431862607598" lon="30.33124607987702">
        <ele>-2.73</ele>
      </trkpt>
      <trkpt lat="59.944056356325746" lon="30.33147096633911">
        <ele>-3.06</ele>
      </trkpt>
      <trkpt lat="59.944056272506714" lon="30.33147096633911">
        <ele>-3.56</ele>
      </trkpt>
      <trkpt lat="59.944056356325746" lon="30.33147096633911">
        <ele>-4.41</ele>
      </trkpt>
      <trkpt lat="59.94399198330939" lon="30.331181287765503">
        <ele>-4.83</ele>
      </trkpt>
      <trkpt lat="59.94373440742493" lon="30.33102035522461">
        <ele>-5.08</ele>
      </trkpt>
      <trkpt lat="59.94347699917853" lon="30.33122420310974">
        <ele>-5.5</ele>
      </trkpt>
      <trkpt lat="59.94344481267035" lon="30.33125638961792">
        <ele>-5.7</ele>
      </trkpt>
      <trkpt lat="59.94341262616217" lon="30.33127784729004">
        <ele>-5.81</ele>
      </trkpt>
      <trkpt lat="59.94313895702362" lon="30.331509355455637">
        <ele>-5.84</ele>
      </trkpt>
      <trkpt lat="59.94313359260559" lon="30.33151388168335">
        <ele>-5.77</ele>
      </trkpt>
      <trkpt lat="59.943004846572876" lon="30.331803560256958">
        <ele>-5.59</ele>
      </trkpt>
      <trkpt lat="59.94300493039191" lon="30.331803560256958">
        <ele>-5.4</ele>
      </trkpt>
      <trkpt lat="59.94298347271979" lon="30.33203959465027">
        <ele>-5.17</ele>
      </trkpt>
      <trkpt lat="59.94302638806403" lon="30.332340002059937">
        <ele>-4.88</ele>
      </trkpt>
      <trkpt lat="59.943026304244995" lon="30.332340002059937">
        <ele>-4.51</ele>
      </trkpt>
      <trkpt lat="59.94302638806403" lon="30.332340002059937">
        <ele>-3.09</ele>
      </trkpt>
      <trkpt lat="59.943026304244995" lon="30.332340002059937">
        <ele>-2.54</ele>
      </trkpt>
      <trkpt lat="59.942838214337826" lon="30.332501186057925">
        <ele>-1.97</ele>
      </trkpt>
      <trkpt lat="59.94265087880194" lon="30.332661867141724">
        <ele>-1.27</ele>
      </trkpt>
      <trkpt lat="59.94238207116723" lon="30.332882227376103">
        <ele>-0.39</ele>
      </trkpt>
      <trkpt lat="59.94211435317993" lon="30.333101749420166">
        <ele>0.39</ele>
      </trkpt>
      <trkpt lat="59.94216799736023" lon="30.333423614501953">
        <ele>2.3</ele>
      </trkpt>
      <trkpt lat="59.94218945503235" lon="30.33353090286255">
        <ele>3.18</ele>
      </trkpt>
      <trkpt lat="59.94246890768409" lon="30.333530819043517">
        <ele>3.19</ele>
      </trkpt>
      <trkpt lat="59.94274743832648" lon="30.33353090286255">
        <ele>3.12</ele>
      </trkpt>
      <trkpt lat="59.942747354507446" lon="30.33353090286255">
        <ele>3.04</ele>
      </trkpt>
      <trkpt lat="59.94274743832648" lon="30.33353090286255">
        <ele>2.7</ele>
      </trkpt>
      <trkpt lat="59.94277962483466" lon="30.333659648895264">
        <ele>2.52</ele>
      </trkpt>
      <trkpt lat="59.9428653717041" lon="30.333670377731323">
        <ele>2.24</ele>
      </trkpt>
      <trkpt lat="59.94291909970343" lon="30.33353090286255">
        <ele>1.83</ele>
      </trkpt>
      <trkpt lat="59.94291909970343" lon="30.33348798751831">
        <ele>1.44</ele>
      </trkpt>
      <trkpt lat="59.9429190158844" lon="30.33348798751831">
        <ele>1.07</ele>
      </trkpt>
      <trkpt lat="59.94291909970343" lon="30.33348798751831">
        <ele>0.28</ele>
      </trkpt>
      <trkpt lat="59.94290828704834" lon="30.333402156829834">
        <ele>-0.17</ele>
      </trkpt>
      <trkpt lat="59.94302663952112" lon="30.33313318155706">
        <ele>-0.68</ele>
      </trkpt>
      <trkpt lat="59.94314440526068" lon="30.332865715026855">
        <ele>-1.18</ele>
      </trkpt>
      <trkpt lat="59.94314432144165" lon="30.332865715026855">
        <ele>-1.49</ele>
      </trkpt>
      <trkpt lat="59.94319804944098" lon="30.3327476978302">
        <ele>-1.78</ele>
      </trkpt>
      <trkpt lat="59.94319796562195" lon="30.3327476978302">
        <ele>-2.0</ele>
      </trkpt>
      <trkpt lat="59.94319804944098" lon="30.3327476978302">
        <ele>-2.31</ele>
      </trkpt>
      <trkpt lat="59.94334816932678" lon="30.33275842666626">
        <ele>-2.32</ele>
      </trkpt>
      <trkpt lat="59.94350407272577" lon="30.33262398093939">
        <ele>-2.3</ele>
      </trkpt>
      <trkpt lat="59.94365938939154" lon="30.33249020576477">
        <ele>-2.24</ele>
      </trkpt>
      <trkpt lat="59.94369157589972" lon="30.33246874809265">
        <ele>-2.22</ele>
      </trkpt>
      <trkpt lat="59.9437237624079" lon="30.332436561584473">
        <ele>-2.19</ele>
      </trkpt>
      <trkpt lat="59.94397044181824" lon="30.33223271369934">
        <ele>-2.11</ele>
      </trkpt>
      <trkpt lat="59.94412064552307" lon="30.3317928314209">
        <ele>-2.27</ele>
      </trkpt>
      <trkpt lat="59.9441207293421" lon="30.3317928314209">
        <ele>-2.24</ele>
      </trkpt>
      <trkpt lat="59.94412064552307" lon="30.3317928314209">
        <ele>-2.2</ele>
      </trkpt>
      <trkpt lat="59.9441207293421" lon="30.3317928314209">
        <ele>-2.12</ele>
      </trkpt>
      <trkpt lat="59.94423866271973" lon="30.33196449279785">
        <ele>-2.15</ele>
      </trkpt>
      <trkpt lat="59.94448576122522" lon="30.33198058605194">
        <ele>-2.22</ele>
      </trkpt>
      <trkpt lat="59.94473218917847" lon="30.33199667930603">
        <ele>-1.99</ele>
      </trkpt>
      <trkpt lat="59.9447322729975" lon="30.33199667930603">
        <ele>-1.84</ele>
      </trkpt>
      <trkpt lat="59.944785833358765" lon="30.332125425338745">
        <ele>-1.74</ele>
      </trkpt>
      <trkpt lat="59.944850290194154" lon="30.332146883010864">
        <ele>-1.64</ele>
      </trkpt>
      <trkpt lat="59.94490385055542" lon="30.332050323486328">
        <ele>-1.62</ele>
      </trkpt>
      <trkpt lat="59.94490393437445" lon="30.332050323486328">
        <ele>-1.63</ele>
      </trkpt>
      <trkpt lat="59.94490385055542" lon="30.332050323486328">
        <ele>-1.65</ele>
      </trkpt>
      <trkpt lat="59.94490393437445" lon="30.332050323486328">
        <ele>-1.74</ele>
      </trkpt>
      <trkpt lat="59.94489312171936" lon="30.331867933273315">
        <ele>-1.79</ele>
      </trkpt>
      <trkpt lat="59.944775104522705" lon="30.331825017929077">
        <ele>-1.94</ele>
      </trkpt>
      <trkpt lat="59.94464635848999" lon="30.331331491470337">
        <ele>-2.16</ele>
      </trkpt>
      <trkpt lat="59.944582069292665" lon="30.33102035522461">
        <ele>-2.14</ele>
      </trkpt>
      <trkpt lat="59.944517612457275" lon="30.33074140548706">
        <ele>-2.07</ele>
      </trkpt>
      <trkpt lat="59.94438895024359" lon="30.33021569252014">
        <ele>-1.96</ele>
      </trkpt>
      <trkpt lat="59.94438886642456" lon="30.33021569252014">
        <ele>-1.85</ele>
      </trkpt>
      <trkpt lat="59.94438895024359" lon="30.33021569252014">
        <ele>-1.49</ele>
      </trkpt>
      <trkpt lat="59.944303035736084" lon="30.330183506011963">
        <ele>-1.26</ele>
      </trkpt>
      <trkpt lat="59.944270849227905" lon="30.330086946487427">
        <ele>-0.94</ele>
      </trkpt>
      <trkpt lat="59.9443244934082" lon="30.329883098602295">
        <ele>-0.57</ele>
      </trkpt>
      <trkpt lat="59.944249391555786" lon="30.329604148864746">
        <ele>-0.08</ele>
      </trkpt>
      <trkpt lat="59.94423874653876" lon="30.32955050468445">
        <ele>0.32</ele>
      </trkpt>
      <trkpt lat="59.94419583119452" lon="30.329325199127197">
        <ele>0.89</ele>
      </trkpt>
      <trkpt lat="59.94419574737549" lon="30.329325199127197">
        <ele>1.29</ele>
      </trkpt>
      <trkpt lat="59.94419583119452" lon="30.329325199127197">
        <ele>2.08</ele>
      </trkpt>
      <trkpt lat="59.94435667991638" lon="30.329207181930542">
        <ele>2.45</ele>
      </trkpt>
      <trkpt lat="59.9445663113147" lon="30.329040549695492">
        <ele>2.81</ele>
      </trkpt>
      <trkpt lat="59.94477518834174" lon="30.328874588012695">
        <ele>3.23</ele>
      </trkpt>
      <trkpt lat="59.944775104522705" lon="30.328874588012695">
        <ele>3.54</ele>
      </trkpt>
      <trkpt lat="59.94477518834174" lon="30.328874588012695">
        <ele>4.31</ele>
      </trkpt>
      <trkpt lat="59.944775104522705" lon="30.328874588012695">
        <ele>4.52</ele>
      </trkpt>
      <trkpt lat="59.944871915504336" lon="30.329278092831373">
        <ele>4.57</ele>
      </trkpt>
      <trkpt lat="59.94496822357178" lon="30.329679250717163">
        <ele>4.76</ele>
      </trkpt>
      <trkpt lat="59.945086324587464" lon="30.330140590667725">
        <ele>5.01</ele>
      </trkpt>
      <trkpt lat="59.94508624076843" lon="30.330140590667725">
        <ele>5.12</ele>
      </trkpt>
      <trkpt lat="59.94510778225958" lon="30.33023715019226">
        <ele>5.22</ele>
      </trkpt>
      <trkpt lat="59.94510769844055" lon="30.33023715019226">
        <ele>5.26</ele>
      </trkpt>
      <trkpt lat="59.94516142643988" lon="30.33049464225769">
        <ele>5.26</ele>
      </trkpt>
      <trkpt lat="59.94516134262085" lon="30.33049464225769">
        <ele>5.25</ele>
      </trkpt>
      <trkpt lat="59.94516142643988" lon="30.33049464225769">
        <ele>5.14</ele>
      </trkpt>
      <trkpt lat="59.9452365282923" lon="30.330837965011597">
        <ele>5.07</ele>
      </trkpt>
      <trkpt lat="59.94526871480048" lon="30.330945253372192">
        <ele>4.95</ele>
      </trkpt>
      <trkpt lat="59.94537625461817" lon="30.331400809809566">
        <ele>4.76</ele>
      </trkpt>
      <trkpt lat="59.94548387825489" lon="30.33185636624694">
        <ele>4.53</ele>
      </trkpt>
      <trkpt lat="59.945590579882264" lon="30.332307815551758">
        <ele>4.39</ele>
      </trkpt>
      <trkpt lat="59.94559049606323" lon="30.332307815551758">
        <ele>4.14</ele>
      </trkpt>
      <trkpt lat="59.94560122489929" lon="30.332350730895996">
        <ele>3.89</ele>
      </trkpt>
      <trkpt lat="59.945396957919" lon="30.332493977621198">
        <ele>3.59</ele>
      </trkpt>
      <trkpt lat="59.94519277475774" lon="30.33263730816543">
        <ele>3.17</ele>
      </trkpt>
      <trkpt lat="59.9449896812439" lon="30.33277988433838">
        <ele>2.78</ele>
      </trkpt>
      <trkpt lat="59.94498976506293" lon="30.33277988433838">
        <ele>2.48</ele>
      </trkpt>
      <trkpt lat="59.94476420804858" lon="30.33293335698545">
        <ele>2.11</ele>
      </trkpt>
      <trkpt lat="59.944538651034236" lon="30.333086913451552">
        <ele>1.81</ele>
      </trkpt>
      <trkpt lat="59.9443144351244" lon="30.333239631727338">
        <ele>1.53</ele>
      </trkpt>
      <trkpt lat="59.94414746761322" lon="30.333353206515312">
        <ele>1.05</ele>
      </trkpt>
      <trkpt lat="59.94398125447333" lon="30.33346652984619">
        <ele>0.87</ele>
      </trkpt>
      <trkpt lat="59.94395971298218" lon="30.33347725868225">
        <ele>0.74</ele>
      </trkpt>
      <trkpt lat="59.94395979680121" lon="30.33347725868225">
        <ele>0.63</ele>
      </trkpt>
      <trkpt lat="59.94391688145697" lon="30.33349871635437">
        <ele>0.56</ele>
      </trkpt>
      <trkpt lat="59.94387396611273" lon="30.33354163169861">
        <ele>0.5</ele>
      </trkpt>
      <trkpt lat="59.94386323727667" lon="30.33354163169861">
        <ele>0.5</ele>
      </trkpt>
      <trkpt lat="59.94363483041525" lon="30.333694769069552">
        <ele>0.51</ele>
      </trkpt>
      <trkpt lat="59.943406423553824" lon="30.333847906440496">
        <ele>0.68</ele>
      </trkpt>
      <trkpt lat="59.9431780166924" lon="30.334001127630472">
        <ele>0.9</ele>
      </trkpt>
      <trkpt lat="59.94295128621161" lon="30.334153175354004">
        <ele>1.01</ele>
      </trkpt>
      <trkpt lat="59.94265565648675" lon="30.334362722933292">
        <ele>0.96</ele>
      </trkpt>
      <trkpt lat="59.94236120022833" lon="30.334571599960327">
        <ele>1.08</ele>
      </trkpt>
      <trkpt lat="59.942135475575924" lon="30.334722055122256">
        <ele>1.16</ele>
      </trkpt>
      <trkpt lat="59.94191058911383" lon="30.334872007369995">
        <ele>1.23</ele>
      </trkpt>
      <trkpt lat="59.941814029589295" lon="30.334925651550293">
        <ele>1.33</ele>
      </trkpt>
      <trkpt lat="59.941545724868774" lon="30.33500075340271">
        <ele>1.51</ele>
      </trkpt>
      <trkpt lat="59.941545808687806" lon="30.33500075340271">
        <ele>1.64</ele>
      </trkpt>
      <trkpt lat="59.941545724868774" lon="30.33500075340271">
        <ele>1.77</ele>
      </trkpt>
      <trkpt lat="59.941545808687806" lon="30.33500075340271">
        <ele>2.08</ele>
      </trkpt>
      <trkpt lat="59.941513538360596" lon="30.33473253250122">
        <ele>2.2</ele>
      </trkpt>
      <trkpt lat="59.94156735017896" lon="30.334237329661846">
        <ele>2.35</ele>
      </trkpt>
      <trkpt lat="59.94162116199732" lon="30.333742210641503">
        <ele>2.58</ele>
      </trkpt>
      <trkpt lat="59.94167497381568" lon="30.33324709162116">
        <ele>2.99</ele>
      </trkpt>
      <trkpt lat="59.94172878563404" lon="30.332751888781786">
        <ele>3.43</ele>
      </trkpt>
      <trkpt lat="59.941781759262085" lon="30.33226490020752">
        <ele>3.69</ele>
      </trkpt>
      <trkpt lat="59.94178184308112" lon="30.33226490020752">
        <ele>4.07</ele>
      </trkpt>
      <trkpt lat="59.94184101931751" lon="30.331710521131754">
        <ele>4.33</ele>
      </trkpt>
      <trkpt lat="59.94189986027777" lon="30.331159830093384">
        <ele>4.9</ele>
      </trkpt>
      <trkpt lat="59.9419105052948" lon="30.331063270568848">
        <ele>5.4</ele>
      </trkpt>
      <trkpt lat="59.9419641494751" lon="30.33054828643799">
        <ele>6.1</ele>
      </trkpt>
      <trkpt lat="59.94202617555857" lon="30.33049807883799">
        <ele>6.6</ele>
      </trkpt>
      <trkpt lat="59.94218945503235" lon="30.330365896224976">
        <ele>7.59</ele>
      </trkpt>
      <trkpt lat="59.94241786189377" lon="30.33018576912582">
        <ele>8.05</ele>
      </trkpt>
      <trkpt lat="59.9426462687552" lon="30.330005725845695">
        <ele>8.54</ele>
      </trkpt>
      <trkpt lat="59.94287467561662" lon="30.32982568256557">
        <ele>9.01</ele>
      </trkpt>
      <trkpt lat="59.94310140609741" lon="30.329647064208984">
        <ele>9.42</ele>
      </trkpt>
      <trkpt lat="59.94315505027771" lon="30.329604148864746">
        <ele>9.65</ele>
      </trkpt>
      <trkpt lat="59.94315513409674" lon="30.329604148864746">
        <ele>9.77</ele>
      </trkpt>
      <trkpt lat="59.943388905376196" lon="30.329421339556575">
        <ele>9.79</ele>
      </trkpt>
      <trkpt lat="59.94362267665565" lon="30.329238614067435">
        <ele>9.59</ele>
      </trkpt>
      <trkpt lat="59.943856447935104" lon="30.329055888578296">
        <ele>9.41</ele>
      </trkpt>
      <trkpt lat="59.94408845901489" lon="30.328874588012695">
        <ele>9.26</ele>
      </trkpt>
      <trkpt lat="59.944088542833924" lon="30.328874588012695">
        <ele>9.01</ele>
      </trkpt>
      <trkpt lat="59.94430881924927" lon="30.328702591359615">
        <ele>8.73</ele>
      </trkpt>
      <trkpt lat="59.94452842511237" lon="30.32853126525879">
        <ele>8.28</ele>
      </trkpt>
      <trkpt lat="59.94466781616211" lon="30.328423976898193">
        <ele>7.82</ele>
      </trkpt>
      <trkpt lat="59.94466789998114" lon="30.328423976898193">
        <ele>6.55</ele>
      </trkpt>
      <trkpt lat="59.944775104522705" lon="30.328874588012695">
        <ele>5.92</ele>
      </trkpt>
      <trkpt lat="59.944565473124385" lon="30.329041136428714">
        <ele>5.43</ele>
      </trkpt>
      <trkpt lat="59.94435667991638" lon="30.329207181930542">
        <ele>5.05</ele>
      </trkpt>
      <trkpt lat="59.94419583119452" lon="30.329325199127197">
        <ele>4.71</ele>
      </trkpt>
      <trkpt lat="59.94422189891338" lon="30.32946266233921">
        <ele>4.29</ele>
      </trkpt>
      <trkpt lat="59.94422189891338" lon="30.32946257852018">
        <ele>4.02</ele>
      </trkpt>
      <trkpt lat="59.94419583119452" lon="30.329325199127197">
        <ele>3.91</ele>
      </trkpt>
      <trkpt lat="59.94435667991638" lon="30.329207181930542">
        <ele>3.72</ele>
      </trkpt>
      <trkpt lat="59.9445663113147" lon="30.329040549695492">
        <ele>3.56</ele>
      </trkpt>
      <trkpt lat="59.94477518834174" lon="30.328874588012695">
        <ele>3.49</ele>
      </trkpt>
      <trkpt lat="59.944775104522705" lon="30.328874588012695">
        <ele>3.36</ele>
      </trkpt>
      <trkpt lat="59.944871915504336" lon="30.329278092831373">
        <ele>3.1</ele>
      </trkpt>
      <trkpt lat="59.94496822357178" lon="30.329679250717163">
        <ele>3.01</ele>
      </trkpt>
      <trkpt lat="59.945086324587464" lon="30.330140590667725">
        <ele>2.99</ele>
      </trkpt>
      <trkpt lat="59.94508624076843" lon="30.330140590667725">
        <ele>2.83</ele>
      </trkpt>
      <trkpt lat="59.94510778225958" lon="30.33023715019226">
        <ele>2.66</ele>
      </trkpt>
      <trkpt lat="59.94510769844055" lon="30.33023715019226">
        <ele>2.43</ele>
      </trkpt>
      <trkpt lat="59.94516142643988" lon="30.33049464225769">
        <ele>2.16</ele>
      </trkpt>
      <trkpt lat="59.9452365282923" lon="30.330837965011597">
        <ele>1.9</ele>
      </trkpt>
      <trkpt lat="59.945268630981445" lon="30.330945253372192">
        <ele>1.59</ele>
      </trkpt>
      <trkpt lat="59.94508028961718" lon="30.331407766789198">
        <ele>0.98</ele>
      </trkpt>
      <trkpt lat="59.94489312171936" lon="30.331867933273315">
        <ele>0.54</ele>
      </trkpt>
      <trkpt lat="59.944775104522705" lon="30.331825017929077">
        <ele>0.08</ele>
      </trkpt>
      <trkpt lat="59.94473218917847" lon="30.33199667930603">
        <ele>-1.27</ele>
      </trkpt>
      <trkpt lat="59.94448500685394" lon="30.33198050223291">
        <ele>-1.7</ele>
      </trkpt>
      <trkpt lat="59.94423866271973" lon="30.33196449279785">
        <ele>-1.81</ele>
      </trkpt>
      <trkpt lat="59.9441207293421" lon="30.3317928314209">
        <ele>-1.92</ele>
      </trkpt>
      <trkpt lat="59.94412064552307" lon="30.3317928314209">
        <ele>-2.09</ele>
      </trkpt>
      <trkpt lat="59.94397044181824" lon="30.33223271369934">
        <ele>-2.04</ele>
      </trkpt>
      <trkpt lat="59.9437237624079" lon="30.332436561584473">
        <ele>-2.21</ele>
      </trkpt>
      <trkpt lat="59.94369157589972" lon="30.33246874809265">
        <ele>-2.32</ele>
      </trkpt>
      <trkpt lat="59.94365938939154" lon="30.33249020576477">
        <ele>-2.4</ele>
      </trkpt>
      <trkpt lat="59.94350340217352" lon="30.33262456767261">
        <ele>-2.51</ele>
      </trkpt>
      <trkpt lat="59.94334816932678" lon="30.33275842666626">
        <ele>-2.57</ele>
      </trkpt>
      <trkpt lat="59.943306343629956" lon="30.332755409181118">
        <ele>-2.54</ele>
      </trkpt>
      <trkpt lat="59.94319804944098" lon="30.3327476978302">
        <ele>-2.37</ele>
      </trkpt>
      <trkpt lat="59.94311213493347" lon="30.332629680633545">
        <ele>-2.23</ele>
      </trkpt>
      <trkpt lat="59.94302638806403" lon="30.332340002059937">
        <ele>-2.03</ele>
      </trkpt>
      <trkpt lat="59.943026304244995" lon="30.332340002059937">
        <ele>-1.77</ele>
      </trkpt>
      <trkpt lat="59.942838214337826" lon="30.332501186057925">
        <ele>-1.5</ele>
      </trkpt>
      <trkpt lat="59.94265087880194" lon="30.332661867141724">
        <ele>-1.11</ele>
      </trkpt>
      <trkpt lat="59.94238207116723" lon="30.332882227376103">
        <ele>-0.56</ele>
      </trkpt>
      <trkpt lat="59.94211435317993" lon="30.333101749420166">
        <ele>-0.12</ele>
      </trkpt>
      <trkpt lat="59.94216799736023" lon="30.333423614501953">
        <ele>0.05</ele>
      </trkpt>
      <trkpt lat="59.94218945503235" lon="30.33353090286255">
        <ele>0.17</ele>
      </trkpt>
      <trkpt lat="59.94216799736023" lon="30.333423614501953">
        <ele>-0.03</ele>
      </trkpt>
      <trkpt lat="59.94211435317993" lon="30.333101749420166">
        <ele>-0.25</ele>
      </trkpt>
      <trkpt lat="59.94238307699561" lon="30.332881389185786">
        <ele>-0.72</ele>
      </trkpt>
      <trkpt lat="59.94265087880194" lon="30.332661867141724">
        <ele>-1.27</ele>
      </trkpt>
      <trkpt lat="59.94283888489008" lon="30.332500599324703">
        <ele>-1.62</ele>
      </trkpt>
      <trkpt lat="59.943026304244995" lon="30.332340002059937">
        <ele>-1.84</ele>
      </trkpt>
      <trkpt lat="59.94302638806403" lon="30.332340002059937">
        <ele>-2.05</ele>
      </trkpt>
      <trkpt lat="59.943026304244995" lon="30.332340002059937">
        <ele>-2.24</ele>
      </trkpt>
      <trkpt lat="59.94302638806403" lon="30.332340002059937">
        <ele>-2.55</ele>
      </trkpt>
      <trkpt lat="59.943294525146484" lon="30.332103967666626">
        <ele>-2.52</ele>
      </trkpt>
      <trkpt lat="59.94344472885132" lon="30.332061052322388">
        <ele>-2.44</ele>
      </trkpt>
      <trkpt lat="59.9434232711792" lon="30.33199667930603">
        <ele>-2.47</ele>
      </trkpt>
      <trkpt lat="59.943530559539795" lon="30.331921577453613">
        <ele>-2.39</ele>
      </trkpt>
      <trkpt lat="59.943584287539124" lon="30.33196449279785">
        <ele>-2.32</ele>
      </trkpt>
      <trkpt lat="59.94358420372009" lon="30.33196449279785">
        <ele>-2.34</ele>
      </trkpt>
      <trkpt lat="59.94361639022827" lon="30.331857204437256">
        <ele>-2.34</ele>
      </trkpt>
      <trkpt lat="59.9437237624079" lon="30.33178210258484">
        <ele>-2.32</ele>
      </trkpt>
      <trkpt lat="59.94371294975281" lon="30.331707000732422">
        <ele>-2.46</ele>
      </trkpt>
      <trkpt lat="59.94385242462158" lon="30.331664085388184">
        <ele>-2.56</ele>
      </trkpt>
      <trkpt lat="59.944056356325746" lon="30.33147096633911">
        <ele>-2.82</ele>
      </trkpt>
      <trkpt lat="59.944056272506714" lon="30.33147096633911">
        <ele>-2.9</ele>
      </trkpt>
      <trkpt lat="59.944056356325746" lon="30.33147096633911">
        <ele>-3.05</ele>
      </trkpt>
      <trkpt lat="59.94399198330939" lon="30.331181287765503">
        <ele>-3.16</ele>
      </trkpt>
      <trkpt lat="59.94402416981757" lon="30.330859422683716">
        <ele>-3.21</ele>
      </trkpt>
      <trkpt lat="59.944163896143436" lon="30.33052054233849">
        <ele>-3.11</ele>
      </trkpt>
      <trkpt lat="59.944303035736084" lon="30.330183506011963">
        <ele>-3.06</ele>
      </trkpt>
      <trkpt lat="59.94438895024359" lon="30.33021569252014">
        <ele>-2.98</ele>
      </trkpt>
      <trkpt lat="59.94444251060486" lon="30.330097675323486">
        <ele>-2.84</ele>
      </trkpt>
      <trkpt lat="59.94441032409668" lon="30.329904556274414">
        <ele>-2.71</ele>
      </trkpt>
      <trkpt lat="59.944517612457275" lon="30.329636335372925">
        <ele>-1.59</ele>
      </trkpt>
      <trkpt lat="59.94464669376612" lon="30.329254372045398">
        <ele>1.2</ele>
      </trkpt>
      <trkpt lat="59.944775104522705" lon="30.328874588012695">
        <ele>2.06</ele>
      </trkpt>
      <trkpt lat="59.94496830739081" lon="30.3287136554718">
        <ele>2.65</ele>
      </trkpt>
      <trkpt lat="59.94496822357178" lon="30.3287136554718">
        <ele>3.1</ele>
      </trkpt>
      <trkpt lat="59.94496830739081" lon="30.3287136554718">
        <ele>3.93</ele>
      </trkpt>
      <trkpt lat="59.94508665986359" lon="30.32920324243605">
        <ele>4.26</ele>
      </trkpt>
      <trkpt lat="59.94520434178412" lon="30.329689979553223">
        <ele>4.85</ele>
      </trkpt>
      <trkpt lat="59.94522579945624" lon="30.329807996749878">
        <ele>5.2</ele>
      </trkpt>
      <trkpt lat="59.945290172472596" lon="30.330065488815308">
        <ele>5.54</ele>
      </trkpt>
      <trkpt lat="59.94532747194171" lon="30.33022105693817">
        <ele>5.8</ele>
      </trkpt>
    </trkseg>
  </trk>
</gpx>
