<?xml version="1.0" encoding="UTF-8"?>
<gpx creator="Garmin Connect" version="1.1"
  xsi:schemaLocation="http://www.topografix.com/GPX/1/1 http://www.topografix.com/GPX/11.xsd"
  xmlns:ns3="http://www.garmin.com/xmlschemas/TrackPointExtension/v1"
  xmlns="http://www.topografix.com/GPX/1/1"
  xmlns:xsi="http://www.w3.org/2001/XMLSchema-instance" xmlns:ns2="http://www.garmin.com/xmlschemas/GpxExtensions/v3">
  <metadata>
    <name>Парк Сосновка
Выборгский район (м. Удельная / Политехническая) Бег 10 км</name>
    <link href="connect.garmin.com">
      <text>Garmin Connect</text>
    </link>
    <time>2026-09-25T19:25:38.000Z</time>
  </metadata>
  <trk>
    <name>Парк Сосновка
Выборгский район (м. Удельная / Политехническая) Бег 10 км</name>
    <trkseg>
      <trkpt lat="60.01334309577942" lon="30.343337059020996">
        <ele>36.35</ele>
      </trkpt>
      <trkpt lat="60.01334317959845" lon="30.343337059020996">
        <ele>36.21</ele>
      </trkpt>
      <trkpt lat="60.01311728730798" lon="30.343681136146188">
        <ele>36.41</ele>
      </trkpt>
      <trkpt lat="60.012891478836536" lon="30.34402521327138">
        <ele>36.25</ele>
      </trkpt>
      <trkpt lat="60.012667179107666" lon="30.344367027282715">
        <ele>35.95</ele>
      </trkpt>
      <trkpt lat="60.0126672629267" lon="30.344367027282715">
        <ele>35.63</ele>
      </trkpt>
      <trkpt lat="60.012425277382135" lon="30.344743374735117">
        <ele>35.2</ele>
      </trkpt>
      <trkpt lat="60.01218446530402" lon="30.345118045806885">
        <ele>34.42</ele>
      </trkpt>
      <trkpt lat="60.01208782196045" lon="30.34520387649536">
        <ele>33.76</ele>
      </trkpt>
      <trkpt lat="60.01208790577948" lon="30.34520387649536">
        <ele>33.28</ele>
      </trkpt>
      <trkpt lat="60.01205563545227" lon="30.34520387649536">
        <ele>32.9</ele>
      </trkpt>
      <trkpt lat="60.0120557192713" lon="30.34520387649536">
        <ele>32.63</ele>
      </trkpt>
      <trkpt lat="60.01192127354443" lon="30.345402779057622">
        <ele>32.34</ele>
      </trkpt>
      <trkpt lat="60.01178749836981" lon="30.345600843429565">
        <ele>32.14</ele>
      </trkpt>
      <trkpt lat="60.0115514639765" lon="30.34596562385559">
        <ele>32.05</ele>
      </trkpt>
      <trkpt lat="60.01133990474045" lon="30.346302576363087">
        <ele>32.07</ele>
      </trkpt>
      <trkpt lat="60.0111283455044" lon="30.346639528870583">
        <ele>32.13</ele>
      </trkpt>
      <trkpt lat="60.010918378829956" lon="30.34697413444519">
        <ele>32.28</ele>
      </trkpt>
      <trkpt lat="60.01091846264899" lon="30.34697413444519">
        <ele>32.41</ele>
      </trkpt>
      <trkpt lat="60.01087546348572" lon="30.347059965133667">
        <ele>32.57</ele>
      </trkpt>
      <trkpt lat="60.0108849350363" lon="30.3471134416759">
        <ele>32.73</ele>
      </trkpt>
      <trkpt lat="60.0109076499939" lon="30.34724235534668">
        <ele>33.09</ele>
      </trkpt>
      <trkpt lat="60.010961377993226" lon="30.34719944000244">
        <ele>33.28</ele>
      </trkpt>
      <trkpt lat="60.011219289153814" lon="30.34729071892798">
        <ele>33.42</ele>
      </trkpt>
      <trkpt lat="60.011476362124085" lon="30.347381830215454">
        <ele>33.62</ele>
      </trkpt>
      <trkpt lat="60.01144417561591" lon="30.347617864608765">
        <ele>33.83</ele>
      </trkpt>
      <trkpt lat="60.01141198910773" lon="30.348068475723267">
        <ele>34.06</ele>
      </trkpt>
      <trkpt lat="60.01139053143561" lon="30.348572731018066">
        <ele>34.33</ele>
      </trkpt>
      <trkpt lat="60.01157334074378" lon="30.349035244435072">
        <ele>34.7</ele>
      </trkpt>
      <trkpt lat="60.01175623387098" lon="30.34949784167111">
        <ele>34.87</ele>
      </trkpt>
      <trkpt lat="60.011937618255615" lon="30.34995675086975">
        <ele>34.93</ele>
      </trkpt>
      <trkpt lat="60.01193770207465" lon="30.34995675086975">
        <ele>35.01</ele>
      </trkpt>
      <trkpt lat="60.01211338676512" lon="30.35040132701397">
        <ele>34.97</ele>
      </trkpt>
      <trkpt lat="60.0122890714556" lon="30.35084598697722">
        <ele>34.94</ele>
      </trkpt>
      <trkpt lat="60.012463415041566" lon="30.351287126541138">
        <ele>34.88</ele>
      </trkpt>
      <trkpt lat="60.01261395402253" lon="30.351666323840618">
        <ele>34.86</ele>
      </trkpt>
      <trkpt lat="60.01276457682252" lon="30.3520455211401">
        <ele>34.89</ele>
      </trkpt>
      <trkpt lat="60.01291519962251" lon="30.35242471843958">
        <ele>34.92</ele>
      </trkpt>
      <trkpt lat="60.0130642298609" lon="30.352799892425537">
        <ele>34.91</ele>
      </trkpt>
      <trkpt lat="60.01323580741882" lon="30.3532612323761">
        <ele>34.85</ele>
      </trkpt>
      <trkpt lat="60.013235891237855" lon="30.3532612323761">
        <ele>34.86</ele>
      </trkpt>
      <trkpt lat="60.01341828145087" lon="30.35349726676941">
        <ele>34.86</ele>
      </trkpt>
      <trkpt lat="60.013418197631836" lon="30.35349726676941">
        <ele>34.9</ele>
      </trkpt>
      <trkpt lat="60.01341828145087" lon="30.35349726676941">
        <ele>35.02</ele>
      </trkpt>
      <trkpt lat="60.013439655303955" lon="30.353540182113647">
        <ele>35.08</ele>
      </trkpt>
      <trkpt lat="60.01350402832031" lon="30.353658199310303">
        <ele>35.18</ele>
      </trkpt>
      <trkpt lat="60.013504112139344" lon="30.353658199310303">
        <ele>35.27</ele>
      </trkpt>
      <trkpt lat="60.013676192611456" lon="30.35408617928624">
        <ele>35.44</ele>
      </trkpt>
      <trkpt lat="60.01384827308357" lon="30.35451415926218">
        <ele>35.57</ele>
      </trkpt>
      <trkpt lat="60.01402043737471" lon="30.35494213923812">
        <ele>35.69</ele>
      </trkpt>
      <trkpt lat="60.01419251784682" lon="30.355370119214058">
        <ele>35.7</ele>
      </trkpt>
      <trkpt lat="60.014364598318934" lon="30.355798099189997">
        <ele>35.71</ele>
      </trkpt>
      <trkpt lat="60.01453399658203" lon="30.356219289824367">
        <ele>35.6</ele>
      </trkpt>
      <trkpt lat="60.014727618545294" lon="30.35670083016157">
        <ele>35.4</ele>
      </trkpt>
      <trkpt lat="60.01492132432759" lon="30.357182370498776">
        <ele>35.2</ele>
      </trkpt>
      <trkpt lat="60.01511343754828" lon="30.357660055160522">
        <ele>34.87</ele>
      </trkpt>
      <trkpt lat="60.01522089354694" lon="30.357934311032295">
        <ele>34.66</ele>
      </trkpt>
      <trkpt lat="60.01532793045044" lon="30.35820722579956">
        <ele>34.46</ele>
      </trkpt>
      <trkpt lat="60.01532801426947" lon="30.35820722579956">
        <ele>34.24</ele>
      </trkpt>
      <trkpt lat="60.01546782441437" lon="30.358562199398875">
        <ele>34.09</ele>
      </trkpt>
      <trkpt lat="60.01560696400702" lon="30.358915328979492">
        <ele>33.82</ele>
      </trkpt>
      <trkpt lat="60.015792455524206" lon="30.359372477978468">
        <ele>33.64</ele>
      </trkpt>
      <trkpt lat="60.015978030860424" lon="30.359829710796475">
        <ele>33.45</ele>
      </trkpt>
      <trkpt lat="60.01616360619664" lon="30.36028685979545">
        <ele>33.28</ele>
      </trkpt>
      <trkpt lat="60.01634725369513" lon="30.36073923110962">
        <ele>33.08</ele>
      </trkpt>
      <trkpt lat="60.016505839303136" lon="30.36113452166319">
        <ele>33.02</ele>
      </trkpt>
      <trkpt lat="60.01666450873017" lon="30.36152989603579">
        <ele>33.02</ele>
      </trkpt>
      <trkpt lat="60.01682317815721" lon="30.36192518658936">
        <ele>33.04</ele>
      </trkpt>
      <trkpt lat="60.01698017120361" lon="30.362316370010376">
        <ele>33.02</ele>
      </trkpt>
      <trkpt lat="60.016980255022645" lon="30.362316370010376">
        <ele>33.17</ele>
      </trkpt>
      <trkpt lat="60.017023757100105" lon="30.362428100779653">
        <ele>33.38</ele>
      </trkpt>
      <trkpt lat="60.01698017120361" lon="30.362316370010376">
        <ele>34.08</ele>
      </trkpt>
      <trkpt lat="60.0170982722193" lon="30.362123250961304">
        <ele>34.57</ele>
      </trkpt>
      <trkpt lat="60.01718410290778" lon="30.36197304725647">
        <ele>35.1</ele>
      </trkpt>
      <trkpt lat="60.01736691221595" lon="30.361671885475516">
        <ele>35.75</ele>
      </trkpt>
      <trkpt lat="60.01754972152412" lon="30.361370807513595">
        <ele>36.42</ele>
      </trkpt>
      <trkpt lat="60.017731273546815" lon="30.361071825027466">
        <ele>37.2</ele>
      </trkpt>
      <trkpt lat="60.017763460054994" lon="30.361018180847168">
        <ele>37.81</ele>
      </trkpt>
      <trkpt lat="60.017978455871344" lon="30.3606659732759">
        <ele>38.55</ele>
      </trkpt>
      <trkpt lat="60.018193535506725" lon="30.360313765704632">
        <ele>39.17</ele>
      </trkpt>
      <trkpt lat="60.01840861514211" lon="30.359961558133364">
        <ele>39.69</ele>
      </trkpt>
      <trkpt lat="60.01862168312073" lon="30.359612703323364">
        <ele>40.12</ele>
      </trkpt>
      <trkpt lat="60.01882561482489" lon="30.359269380569458">
        <ele>40.45</ele>
      </trkpt>
      <trkpt lat="60.01882553100586" lon="30.359269380569458">
        <ele>40.77</ele>
      </trkpt>
      <trkpt lat="60.019011944532394" lon="30.35897182300687">
        <ele>40.99</ele>
      </trkpt>
      <trkpt lat="60.01919835805893" lon="30.35867426544428">
        <ele>41.14</ele>
      </trkpt>
      <trkpt lat="60.01938351429999" lon="30.358378887176514">
        <ele>41.27</ele>
      </trkpt>
      <trkpt lat="60.01958736218512" lon="30.358057022094727">
        <ele>41.38</ele>
      </trkpt>
      <trkpt lat="60.01951217651367" lon="30.357885360717773">
        <ele>41.48</ele>
      </trkpt>
      <trkpt lat="60.01974158920348" lon="30.357483783736825">
        <ele>41.61</ele>
      </trkpt>
      <trkpt lat="60.01997100189328" lon="30.35708229057491">
        <ele>41.72</ele>
      </trkpt>
      <trkpt lat="60.020198822021484" lon="30.3566837310791">
        <ele>41.73</ele>
      </trkpt>
      <trkpt lat="60.02027057111263" lon="30.35627469420433">
        <ele>41.68</ele>
      </trkpt>
      <trkpt lat="60.02034232020378" lon="30.35586574114859">
        <ele>41.56</ele>
      </trkpt>
      <trkpt lat="60.020413398742676" lon="30.35546064376831">
        <ele>41.51</ele>
      </trkpt>
      <trkpt lat="60.02041348256171" lon="30.35546064376831">
        <ele>41.47</ele>
      </trkpt>
      <trkpt lat="60.020643565803766" lon="30.355135845020413">
        <ele>41.4</ele>
      </trkpt>
      <trkpt lat="60.020873649045825" lon="30.354811130091548">
        <ele>41.46</ele>
      </trkpt>
      <trkpt lat="60.021103732287884" lon="30.354486415162683">
        <ele>41.52</ele>
      </trkpt>
      <trkpt lat="60.02133381552994" lon="30.354161700233817">
        <ele>41.45</ele>
      </trkpt>
      <trkpt lat="60.02156138420105" lon="30.353840589523315">
        <ele>41.44</ele>
      </trkpt>
      <trkpt lat="60.02156146802008" lon="30.353840589523315">
        <ele>41.41</ele>
      </trkpt>
      <trkpt lat="60.02160429954529" lon="30.3537654876709">
        <ele>41.39</ele>
      </trkpt>
      <trkpt lat="60.02160438336432" lon="30.3537654876709">
        <ele>41.35</ele>
      </trkpt>
      <trkpt lat="60.02174955792725" lon="30.353394336998463">
        <ele>41.34</ele>
      </trkpt>
      <trkpt lat="60.0218939781189" lon="30.353025197982788">
        <ele>41.35</ele>
      </trkpt>
      <trkpt lat="60.021866988390684" lon="30.35242228768766">
        <ele>41.3</ele>
      </trkpt>
      <trkpt lat="60.0218403339386" lon="30.351823568344116">
        <ele>41.22</ele>
      </trkpt>
      <trkpt lat="60.02192096784711" lon="30.351462978869677">
        <ele>41.06</ele>
      </trkpt>
      <trkpt lat="60.02200126647949" lon="30.351104736328125">
        <ele>40.9</ele>
      </trkpt>
      <trkpt lat="60.022001350298524" lon="30.351104736328125">
        <ele>40.78</ele>
      </trkpt>
      <trkpt lat="60.022114254534245" lon="30.350593524053693">
        <ele>40.6</ele>
      </trkpt>
      <trkpt lat="60.02222657203674" lon="30.350085496902466">
        <ele>40.43</ele>
      </trkpt>
      <trkpt lat="60.02218684181571" lon="30.350086502730846">
        <ele>40.31</ele>
      </trkpt>
      <trkpt lat="60.022226655855775" lon="30.350085496902466">
        <ele>40.32</ele>
      </trkpt>
      <trkpt lat="60.02222657203674" lon="30.349559783935547">
        <ele>40.35</ele>
      </trkpt>
      <trkpt lat="60.022226655855775" lon="30.349559783935547">
        <ele>40.47</ele>
      </trkpt>
      <trkpt lat="60.02212967723608" lon="30.349113112315536">
        <ele>40.65</ele>
      </trkpt>
      <trkpt lat="60.02203345298767" lon="30.348669290542603">
        <ele>40.9</ele>
      </trkpt>
      <trkpt lat="60.0218559242785" lon="30.348295457661152">
        <ele>41.31</ele>
      </trkpt>
      <trkpt lat="60.021678479388356" lon="30.347921708598733">
        <ele>41.62</ele>
      </trkpt>
      <trkpt lat="60.02150095067918" lon="30.347547875717282">
        <ele>41.87</ele>
      </trkpt>
      <trkpt lat="60.02132534980774" lon="30.347177982330322">
        <ele>42.13</ele>
      </trkpt>
      <trkpt lat="60.021233819425106" lon="30.346801299601793">
        <ele>42.48</ele>
      </trkpt>
      <trkpt lat="60.02114295959473" lon="30.346426963806152">
        <ele>42.88</ele>
      </trkpt>
      <trkpt lat="60.02114304341376" lon="30.346426963806152">
        <ele>43.23</ele>
      </trkpt>
      <trkpt lat="60.02113223075867" lon="30.346341133117676">
        <ele>43.59</ele>
      </trkpt>
      <trkpt lat="60.0211323145777" lon="30.346341133117676">
        <ele>43.94</ele>
      </trkpt>
      <trkpt lat="60.02112150192261" lon="30.3462553024292">
        <ele>44.31</ele>
      </trkpt>
      <trkpt lat="60.02112158574164" lon="30.3462553024292">
        <ele>44.62</ele>
      </trkpt>
      <trkpt lat="60.021035419777036" lon="30.34573503769934">
        <ele>45.01</ele>
      </trkpt>
      <trkpt lat="60.02094925381243" lon="30.345214856788516">
        <ele>45.31</ele>
      </trkpt>
      <trkpt lat="60.02086400985718" lon="30.34469962120056">
        <ele>45.54</ele>
      </trkpt>
      <trkpt lat="60.02085294574499" lon="30.344561152160168">
        <ele>45.7</ele>
      </trkpt>
      <trkpt lat="60.02085294574499" lon="30.3445612359792">
        <ele>45.8</ele>
      </trkpt>
      <trkpt lat="60.02084255218506" lon="30.344431400299072">
        <ele>45.86</ele>
      </trkpt>
      <trkpt lat="60.02084263600409" lon="30.344431400299072">
        <ele>45.83</ele>
      </trkpt>
      <trkpt lat="60.02082109451294" lon="30.343916416168213">
        <ele>45.73</ele>
      </trkpt>
      <trkpt lat="60.02082117833197" lon="30.343916416168213">
        <ele>45.56</ele>
      </trkpt>
      <trkpt lat="60.02082109451294" lon="30.34376621246338">
        <ele>45.31</ele>
      </trkpt>
      <trkpt lat="60.02084615640342" lon="30.343195656314492">
        <ele>45.0</ele>
      </trkpt>
      <trkpt lat="60.02087130211294" lon="30.342625100165606">
        <ele>44.6</ele>
      </trkpt>
      <trkpt lat="60.020896196365356" lon="30.342060327529907">
        <ele>44.06</ele>
      </trkpt>
      <trkpt lat="60.02089628018439" lon="30.342060327529907">
        <ele>43.6</ele>
      </trkpt>
      <trkpt lat="60.02098764292896" lon="30.341543667018414">
        <ele>43.05</ele>
      </trkpt>
      <trkpt lat="60.02107858657837" lon="30.34103035926819">
        <ele>42.56</ele>
      </trkpt>
      <trkpt lat="60.02112150192261" lon="30.34097671508789">
        <ele>42.04</ele>
      </trkpt>
      <trkpt lat="60.021336833015084" lon="30.340623082593083">
        <ele>41.5</ele>
      </trkpt>
      <trkpt lat="60.02155224792659" lon="30.340269533917308">
        <ele>41.03</ele>
      </trkpt>
      <trkpt lat="60.02176757901907" lon="30.339915985241532">
        <ele>40.45</ele>
      </trkpt>
      <trkpt lat="60.02198299393058" lon="30.339562352746725">
        <ele>39.99</ele>
      </trkpt>
      <trkpt lat="60.022198325023055" lon="30.33920880407095">
        <ele>39.67</ele>
      </trkpt>
      <trkpt lat="60.02241072244942" lon="30.338860200718045">
        <ele>39.41</ele>
      </trkpt>
      <trkpt lat="60.022650277242064" lon="30.338466838002205">
        <ele>39.19</ele>
      </trkpt>
      <trkpt lat="60.02288983203471" lon="30.338073475286365">
        <ele>39.27</ele>
      </trkpt>
      <trkpt lat="60.02312779426575" lon="30.337682962417603">
        <ele>39.61</ele>
      </trkpt>
      <trkpt lat="60.02310591749847" lon="30.33761389553547">
        <ele>40.39</ele>
      </trkpt>
      <trkpt lat="60.02310583367944" lon="30.33761389553547">
        <ele>40.88</ele>
      </trkpt>
      <trkpt lat="60.0230092741549" lon="30.33730954863131">
        <ele>41.6</ele>
      </trkpt>
      <trkpt lat="60.02291330136359" lon="30.33700704574585">
        <ele>42.32</ele>
      </trkpt>
      <trkpt lat="60.022768042981625" lon="30.33655509352684">
        <ele>43.1</ele>
      </trkpt>
      <trkpt lat="60.02262362278998" lon="30.336105823516846">
        <ele>43.77</ele>
      </trkpt>
      <trkpt lat="60.02248724922538" lon="30.335664600133896">
        <ele>44.45</ele>
      </trkpt>
      <trkpt lat="60.02235095947981" lon="30.335223460569978">
        <ele>45.1</ele>
      </trkpt>
      <trkpt lat="60.022215927019715" lon="30.33478617668152">
        <ele>45.62</ele>
      </trkpt>
      <trkpt lat="60.0220974907279" lon="30.33441494219005">
        <ele>46.07</ele>
      </trkpt>
      <trkpt lat="60.021979892626405" lon="30.334045886993408">
        <ele>46.45</ele>
      </trkpt>
      <trkpt lat="60.02190479077399" lon="30.333809852600098">
        <ele>46.75</ele>
      </trkpt>
      <trkpt lat="60.02180772833526" lon="30.333495866507292">
        <ele>46.9</ele>
      </trkpt>
      <trkpt lat="60.02171133644879" lon="30.333183808252215">
        <ele>47.04</ele>
      </trkpt>
      <trkpt lat="60.02167948521674" lon="30.333080291748047">
        <ele>47.06</ele>
      </trkpt>
      <trkpt lat="60.021679401397705" lon="30.333080291748047">
        <ele>46.96</ele>
      </trkpt>
      <trkpt lat="60.02159365452826" lon="30.33277988433838">
        <ele>46.77</ele>
      </trkpt>
      <trkpt lat="60.02159357070923" lon="30.33277988433838">
        <ele>46.5</ele>
      </trkpt>
      <trkpt lat="60.02159365452826" lon="30.33277988433838">
        <ele>45.75</ele>
      </trkpt>
      <trkpt lat="60.02171200700104" lon="30.33230639062822">
        <ele>45.26</ele>
      </trkpt>
      <trkpt lat="60.02182968892157" lon="30.331835746765137">
        <ele>44.75</ele>
      </trkpt>
      <trkpt lat="60.021947622299194" lon="30.331310033798218">
        <ele>44.15</ele>
      </trkpt>
      <trkpt lat="60.02206563949585" lon="30.330730676651">
        <ele>43.42</ele>
      </trkpt>
      <trkpt lat="60.02212481573224" lon="30.33038618043065">
        <ele>42.69</ele>
      </trkpt>
      <trkpt lat="60.02218374051154" lon="30.33004403114319">
        <ele>41.92</ele>
      </trkpt>
      <trkpt lat="60.022215927019715" lon="30.329904556274414">
        <ele>41.27</ele>
      </trkpt>
      <trkpt lat="60.022215843200684" lon="30.329901538789272">
        <ele>40.72</ele>
      </trkpt>
      <trkpt lat="60.022215843200684" lon="30.329861640930176">
        <ele>39.72</ele>
      </trkpt>
      <trkpt lat="60.02202280797064" lon="30.329593420028687">
        <ele>39.22</ele>
      </trkpt>
      <trkpt lat="60.02199565060437" lon="30.329634994268417">
        <ele>38.86</ele>
      </trkpt>
      <trkpt lat="60.02199565060437" lon="30.32963507808745">
        <ele>38.56</ele>
      </trkpt>
      <trkpt lat="60.02188333310187" lon="30.329807996749878">
        <ele>38.35</ele>
      </trkpt>
      <trkpt lat="60.02181887626648" lon="30.329904556274414">
        <ele>38.18</ele>
      </trkpt>
      <trkpt lat="60.02181896008551" lon="30.329904556274414">
        <ele>38.03</ele>
      </trkpt>
      <trkpt lat="60.02163967117667" lon="30.330191301181912">
        <ele>38.0</ele>
      </trkpt>
      <trkpt lat="60.02146038226783" lon="30.33047804608941">
        <ele>37.89</ele>
      </trkpt>
      <trkpt lat="60.0212824344635" lon="30.33076286315918">
        <ele>37.75</ele>
      </trkpt>
      <trkpt lat="60.02128251828253" lon="30.33076286315918">
        <ele>37.72</ele>
      </trkpt>
      <trkpt lat="60.021185958758" lon="30.330913066864014">
        <ele>37.7</ele>
      </trkpt>
      <trkpt lat="60.02104640007019" lon="30.331116914749146">
        <ele>37.64</ele>
      </trkpt>
      <trkpt lat="60.02104648388922" lon="30.331116914749146">
        <ele>37.68</ele>
      </trkpt>
      <trkpt lat="60.02080642618239" lon="30.331497117877007">
        <ele>37.77</ele>
      </trkpt>
      <trkpt lat="60.020566368475556" lon="30.331877321004868">
        <ele>37.89</ele>
      </trkpt>
      <trkpt lat="60.02032631076872" lon="30.33225752413273">
        <ele>37.97</ele>
      </trkpt>
      <trkpt lat="60.02008625306189" lon="30.33263772726059">
        <ele>38.05</ele>
      </trkpt>
      <trkpt lat="60.019849045202136" lon="30.3330135717988">
        <ele>38.19</ele>
      </trkpt>
      <trkpt lat="60.01960295252502" lon="30.333403330296278">
        <ele>38.17</ele>
      </trkpt>
      <trkpt lat="60.019356943666935" lon="30.333793088793755">
        <ele>38.11</ele>
      </trkpt>
      <trkpt lat="60.01911085098982" lon="30.33418284729123">
        <ele>38.04</ele>
      </trkpt>
      <trkpt lat="60.018864842131734" lon="30.334572605788708">
        <ele>37.87</ele>
      </trkpt>
      <trkpt lat="60.01862168312073" lon="30.33495783805847">
        <ele>37.68</ele>
      </trkpt>
      <trkpt lat="60.01862176693976" lon="30.33495783805847">
        <ele>37.58</ele>
      </trkpt>
      <trkpt lat="60.018410962074995" lon="30.335291186347604">
        <ele>37.46</ele>
      </trkpt>
      <trkpt lat="60.01820015721023" lon="30.335624534636736">
        <ele>37.35</ele>
      </trkpt>
      <trkpt lat="60.01798935234547" lon="30.335957882925868">
        <ele>37.3</ele>
      </trkpt>
      <trkpt lat="60.0177785474807" lon="30.336291315034032">
        <ele>37.26</ele>
      </trkpt>
      <trkpt lat="60.01757025718689" lon="30.336620807647705">
        <ele>37.15</ele>
      </trkpt>
      <trkpt lat="60.01757034100592" lon="30.336620807647705">
        <ele>37.03</ele>
      </trkpt>
      <trkpt lat="60.01745316199958" lon="30.336805628612638">
        <ele>36.86</ele>
      </trkpt>
      <trkpt lat="60.01726280897856" lon="30.337105868384242">
        <ele>36.57</ele>
      </trkpt>
      <trkpt lat="60.017072539776564" lon="30.33740619197488">
        <ele>36.32</ele>
      </trkpt>
      <trkpt lat="60.01688361167908" lon="30.33770442008972">
        <ele>36.21</ele>
      </trkpt>
      <trkpt lat="60.01688369549811" lon="30.33770442008972">
        <ele>36.16</ele>
      </trkpt>
      <trkpt lat="60.01669057644904" lon="30.33801555633545">
        <ele>36.18</ele>
      </trkpt>
      <trkpt lat="60.01660474576056" lon="30.338155031204224">
        <ele>36.22</ele>
      </trkpt>
      <trkpt lat="60.01639318652451" lon="30.338484775274992">
        <ele>36.27</ele>
      </trkpt>
      <trkpt lat="60.01618171110749" lon="30.33881451934576">
        <ele>36.33</ele>
      </trkpt>
      <trkpt lat="60.015971660614014" lon="30.339142084121704">
        <ele>36.44</ele>
      </trkpt>
      <trkpt lat="60.015971744433045" lon="30.339142084121704">
        <ele>36.48</ele>
      </trkpt>
      <trkpt lat="60.01573512330651" lon="30.339518431574106">
        <ele>36.57</ele>
      </trkpt>
      <trkpt lat="60.01549850217998" lon="30.33989486284554">
        <ele>36.61</ele>
      </trkpt>
      <trkpt lat="60.01526188105345" lon="30.340271210297942">
        <ele>36.6</ele>
      </trkpt>
      <trkpt lat="60.01502752304077" lon="30.340644121170044">
        <ele>36.62</ele>
      </trkpt>
      <trkpt lat="60.0150276068598" lon="30.340644121170044">
        <ele>36.63</ele>
      </trkpt>
      <trkpt lat="60.01494177617133" lon="30.34077286720276">
        <ele>36.59</ele>
      </trkpt>
      <trkpt lat="60.01473038457334" lon="30.341104455292225">
        <ele>36.6</ele>
      </trkpt>
      <trkpt lat="60.01454288139939" lon="30.341398660093546">
        <ele>36.54</ele>
      </trkpt>
      <trkpt lat="60.014355378225446" lon="30.3416929487139">
        <ele>36.47</ele>
      </trkpt>
      <trkpt lat="60.01416929997504" lon="30.34198522567749">
        <ele>36.38</ele>
      </trkpt>
      <trkpt lat="60.01405128277838" lon="30.342178344726562">
        <ele>36.26</ele>
      </trkpt>
      <trkpt lat="60.01386302523315" lon="30.342479422688484">
        <ele>36.18</ele>
      </trkpt>
      <trkpt lat="60.0136757735163" lon="30.3427791595459">
        <ele>36.1</ele>
      </trkpt>
      <trkpt lat="60.01348257064819" lon="30.343111753463745">
        <ele>36.12</ele>
      </trkpt>
      <trkpt lat="60.013482654467225" lon="30.343111753463745">
        <ele>36.06</ele>
      </trkpt>
      <trkpt lat="60.01348257064819" lon="30.343111753463745">
        <ele>35.99</ele>
      </trkpt>
      <trkpt lat="60.013482654467225" lon="30.343111753463745">
        <ele>35.82</ele>
      </trkpt>
      <trkpt lat="60.01334317959845" lon="30.343337059020996">
        <ele>35.77</ele>
      </trkpt>
      <trkpt lat="60.01311728730798" lon="30.343681136146188">
        <ele>35.77</ele>
      </trkpt>
      <trkpt lat="60.012891478836536" lon="30.34402521327138">
        <ele>35.57</ele>
      </trkpt>
      <trkpt lat="60.012667179107666" lon="30.344367027282715">
        <ele>35.34</ele>
      </trkpt>
      <trkpt lat="60.0126672629267" lon="30.344367027282715">
        <ele>35.11</ele>
      </trkpt>
      <trkpt lat="60.012425277382135" lon="30.344743374735117">
        <ele>34.83</ele>
      </trkpt>
      <trkpt lat="60.01218446530402" lon="30.345118045806885">
        <ele>34.37</ele>
      </trkpt>
      <trkpt lat="60.01208782196045" lon="30.34520387649536">
        <ele>34.02</ele>
      </trkpt>
      <trkpt lat="60.01208790577948" lon="30.34520387649536">
        <ele>33.75</ele>
      </trkpt>
      <trkpt lat="60.01205563545227" lon="30.34520387649536">
        <ele>33.5</ele>
      </trkpt>
      <trkpt lat="60.0120557192713" lon="30.34520387649536">
        <ele>33.27</ele>
      </trkpt>
      <trkpt lat="60.01192127354443" lon="30.345402779057622">
        <ele>33.02</ele>
      </trkpt>
      <trkpt lat="60.01178749836981" lon="30.345600843429565">
        <ele>32.81</ele>
      </trkpt>
      <trkpt lat="60.0115514639765" lon="30.34596562385559">
        <ele>32.68</ele>
      </trkpt>
      <trkpt lat="60.01135557889938" lon="30.346277514472604">
        <ele>32.61</ele>
      </trkpt>
      <trkpt lat="60.011159777641296" lon="30.34658948890865">
        <ele>32.56</ele>
      </trkpt>
      <trkpt lat="60.01096540130675" lon="30.34689928404987">
        <ele>32.59</ele>
      </trkpt>
      <trkpt lat="60.010918378829956" lon="30.34697413444519">
        <ele>32.65</ele>
      </trkpt>
      <trkpt lat="60.01091846264899" lon="30.34697413444519">
        <ele>32.73</ele>
      </trkpt>
      <trkpt lat="60.01087546348572" lon="30.347059965133667">
        <ele>32.84</ele>
      </trkpt>
      <trkpt lat="60.01090773381293" lon="30.34724235534668">
        <ele>32.97</ele>
      </trkpt>
      <trkpt lat="60.011039078235626" lon="30.347604537382722">
        <ele>33.12</ele>
      </trkpt>
      <trkpt lat="60.0111698359251" lon="30.347964875400066">
        <ele>33.28</ele>
      </trkpt>
      <trkpt lat="60.0111698359251" lon="30.347964791581035">
        <ele>33.46</ele>
      </trkpt>
      <trkpt lat="60.011280393227935" lon="30.348269557580352">
        <ele>33.67</ele>
      </trkpt>
      <trkpt lat="60.01139044761658" lon="30.348572731018066">
        <ele>33.96</ele>
      </trkpt>
      <trkpt lat="60.01139053143561" lon="30.348572731018066">
        <ele>34.14</ele>
      </trkpt>
      <trkpt lat="60.01157334074378" lon="30.349035244435072">
        <ele>34.48</ele>
      </trkpt>
      <trkpt lat="60.01175623387098" lon="30.34949784167111">
        <ele>34.62</ele>
      </trkpt>
      <trkpt lat="60.011937618255615" lon="30.34995675086975">
        <ele>34.68</ele>
      </trkpt>
      <trkpt lat="60.01193770207465" lon="30.34995675086975">
        <ele>34.77</ele>
      </trkpt>
      <trkpt lat="60.01211338676512" lon="30.35040132701397">
        <ele>34.76</ele>
      </trkpt>
      <trkpt lat="60.0122890714556" lon="30.35084598697722">
        <ele>34.77</ele>
      </trkpt>
      <trkpt lat="60.012463415041566" lon="30.351287126541138">
        <ele>34.76</ele>
      </trkpt>
      <trkpt lat="60.01261395402253" lon="30.351666323840618">
        <ele>34.78</ele>
      </trkpt>
      <trkpt lat="60.01276457682252" lon="30.3520455211401">
        <ele>34.84</ele>
      </trkpt>
      <trkpt lat="60.01291519962251" lon="30.35242471843958">
        <ele>34.9</ele>
      </trkpt>
      <trkpt lat="60.0130642298609" lon="30.352799892425537">
        <ele>34.91</ele>
      </trkpt>
      <trkpt lat="60.01323580741882" lon="30.3532612323761">
        <ele>34.87</ele>
      </trkpt>
      <trkpt lat="60.013235891237855" lon="30.3532612323761">
        <ele>34.89</ele>
      </trkpt>
      <trkpt lat="60.01323580741882" lon="30.3532612323761">
        <ele>34.92</ele>
      </trkpt>
      <trkpt lat="60.013235891237855" lon="30.3532612323761">
        <ele>35.07</ele>
      </trkpt>
      <trkpt lat="60.01341828145087" lon="30.35349726676941">
        <ele>35.13</ele>
      </trkpt>
      <trkpt lat="60.013439655303955" lon="30.353540182113647">
        <ele>35.19</ele>
      </trkpt>
      <trkpt lat="60.01350402832031" lon="30.353658199310303">
        <ele>35.29</ele>
      </trkpt>
      <trkpt lat="60.013504112139344" lon="30.353658199310303">
        <ele>35.37</ele>
      </trkpt>
      <trkpt lat="60.01369647681713" lon="30.354136554524302">
        <ele>35.52</ele>
      </trkpt>
      <trkpt lat="60.01388884149492" lon="30.354614993557334">
        <ele>35.66</ele>
      </trkpt>
      <trkpt lat="60.014081206172705" lon="30.355093432590365">
        <ele>35.72</ele>
      </trkpt>
      <trkpt lat="60.01427357085049" lon="30.355571871623397">
        <ele>35.72</ele>
      </trkpt>
      <trkpt lat="60.01446601934731" lon="30.35605031065643">
        <ele>35.67</ele>
      </trkpt>
      <trkpt lat="60.01465528272092" lon="30.356521122157574">
        <ele>35.57</ele>
      </trkpt>
      <trkpt lat="60.01465528272092" lon="30.356521038338542">
        <ele>35.47</ele>
      </trkpt>
      <trkpt lat="60.014808336272836" lon="30.35690166056156">
        <ele>35.36</ele>
      </trkpt>
      <trkpt lat="60.01496147364378" lon="30.357282366603613">
        <ele>35.13</ele>
      </trkpt>
      <trkpt lat="60.01511343754828" lon="30.357660055160522">
        <ele>34.83</ele>
      </trkpt>
      <trkpt lat="60.01522089354694" lon="30.357934311032295">
        <ele>34.63</ele>
      </trkpt>
      <trkpt lat="60.01532793045044" lon="30.35820722579956">
        <ele>34.43</ele>
      </trkpt>
      <trkpt lat="60.01532801426947" lon="30.35820722579956">
        <ele>34.22</ele>
      </trkpt>
      <trkpt lat="60.01546782441437" lon="30.358562199398875">
        <ele>34.08</ele>
      </trkpt>
      <trkpt lat="60.01560696400702" lon="30.358915328979492">
        <ele>33.81</ele>
      </trkpt>
      <trkpt lat="60.015792455524206" lon="30.359372477978468">
        <ele>33.64</ele>
      </trkpt>
      <trkpt lat="60.015978030860424" lon="30.359829710796475">
        <ele>33.45</ele>
      </trkpt>
      <trkpt lat="60.01616360619664" lon="30.36028685979545">
        <ele>33.29</ele>
      </trkpt>
      <trkpt lat="60.01634725369513" lon="30.36073923110962">
        <ele>33.1</ele>
      </trkpt>
      <trkpt lat="60.016505839303136" lon="30.36113452166319">
        <ele>33.05</ele>
      </trkpt>
      <trkpt lat="60.01666450873017" lon="30.36152989603579">
        <ele>33.06</ele>
      </trkpt>
      <trkpt lat="60.01682317815721" lon="30.36192518658936">
        <ele>33.08</ele>
      </trkpt>
      <trkpt lat="60.01698017120361" lon="30.362316370010376">
        <ele>33.07</ele>
      </trkpt>
      <trkpt lat="60.0170982722193" lon="30.362123250961304">
        <ele>34.62</ele>
      </trkpt>
      <trkpt lat="60.01718410290778" lon="30.36197304725647">
        <ele>35.15</ele>
      </trkpt>
      <trkpt lat="60.01736691221595" lon="30.361671885475516">
        <ele>35.79</ele>
      </trkpt>
      <trkpt lat="60.01754972152412" lon="30.361370807513595">
        <ele>36.45</ele>
      </trkpt>
      <trkpt lat="60.017731273546815" lon="30.361071825027466">
        <ele>37.22</ele>
      </trkpt>
      <trkpt lat="60.017763460054994" lon="30.361018180847168">
        <ele>37.82</ele>
      </trkpt>
      <trkpt lat="60.017978455871344" lon="30.3606659732759">
        <ele>38.56</ele>
      </trkpt>
      <trkpt lat="60.018193535506725" lon="30.360313765704632">
        <ele>39.17</ele>
      </trkpt>
      <trkpt lat="60.01840861514211" lon="30.359961558133364">
        <ele>39.68</ele>
      </trkpt>
      <trkpt lat="60.01862168312073" lon="30.359612703323364">
        <ele>40.1</ele>
      </trkpt>
      <trkpt lat="60.01882561482489" lon="30.359269380569458">
        <ele>40.44</ele>
      </trkpt>
      <trkpt lat="60.01882553100586" lon="30.359269380569458">
        <ele>40.75</ele>
      </trkpt>
      <trkpt lat="60.019011944532394" lon="30.35897182300687">
        <ele>40.97</ele>
      </trkpt>
      <trkpt lat="60.01919835805893" lon="30.35867426544428">
        <ele>41.12</ele>
      </trkpt>
      <trkpt lat="60.01938351429999" lon="30.358378887176514">
        <ele>41.25</ele>
      </trkpt>
      <trkpt lat="60.01958736218512" lon="30.358057022094727">
        <ele>41.36</ele>
      </trkpt>
      <trkpt lat="60.01951217651367" lon="30.357885360717773">
        <ele>41.46</ele>
      </trkpt>
      <trkpt lat="60.01974158920348" lon="30.357483783736825">
        <ele>41.59</ele>
      </trkpt>
      <trkpt lat="60.01997100189328" lon="30.35708229057491">
        <ele>41.71</ele>
      </trkpt>
      <trkpt lat="60.020198822021484" lon="30.3566837310791">
        <ele>41.71</ele>
      </trkpt>
      <trkpt lat="60.02027057111263" lon="30.35627469420433">
        <ele>41.66</ele>
      </trkpt>
      <trkpt lat="60.02034232020378" lon="30.35586574114859">
        <ele>41.54</ele>
      </trkpt>
      <trkpt lat="60.020413398742676" lon="30.35546064376831">
        <ele>41.49</ele>
      </trkpt>
      <trkpt lat="60.02041348256171" lon="30.35546064376831">
        <ele>41.45</ele>
      </trkpt>
      <trkpt lat="60.020643565803766" lon="30.355135845020413">
        <ele>41.37</ele>
      </trkpt>
      <trkpt lat="60.020873649045825" lon="30.354811130091548">
        <ele>41.44</ele>
      </trkpt>
      <trkpt lat="60.021103732287884" lon="30.354486415162683">
        <ele>41.49</ele>
      </trkpt>
      <trkpt lat="60.02133381552994" lon="30.354161700233817">
        <ele>41.42</ele>
      </trkpt>
      <trkpt lat="60.02156138420105" lon="30.353840589523315">
        <ele>41.41</ele>
      </trkpt>
      <trkpt lat="60.02156146802008" lon="30.353840589523315">
        <ele>41.38</ele>
      </trkpt>
      <trkpt lat="60.02160429954529" lon="30.3537654876709">
        <ele>41.36</ele>
      </trkpt>
      <trkpt lat="60.02160438336432" lon="30.3537654876709">
        <ele>41.32</ele>
      </trkpt>
      <trkpt lat="60.02174955792725" lon="30.353394336998463">
        <ele>41.32</ele>
      </trkpt>
      <trkpt lat="60.0218939781189" lon="30.353025197982788">
        <ele>41.33</ele>
      </trkpt>
      <trkpt lat="60.021866988390684" lon="30.35242228768766">
        <ele>41.29</ele>
      </trkpt>
      <trkpt lat="60.0218403339386" lon="30.351823568344116">
        <ele>41.21</ele>
      </trkpt>
      <trkpt lat="60.02192096784711" lon="30.351462978869677">
        <ele>41.07</ele>
      </trkpt>
      <trkpt lat="60.02200126647949" lon="30.351104736328125">
        <ele>40.92</ele>
      </trkpt>
      <trkpt lat="60.022001350298524" lon="30.351104736328125">
        <ele>40.82</ele>
      </trkpt>
      <trkpt lat="60.02208709716797" lon="30.350716318935156">
        <ele>40.67</ele>
      </trkpt>
      <trkpt lat="60.022172424942255" lon="30.350330332294106">
        <ele>40.52</ele>
      </trkpt>
      <trkpt lat="60.022172424942255" lon="30.350330416113138">
        <ele>40.47</ele>
      </trkpt>
      <trkpt lat="60.02222657203674" lon="30.350085496902466">
        <ele>40.44</ele>
      </trkpt>
      <trkpt lat="60.022226655855775" lon="30.350085496902466">
        <ele>40.46</ele>
      </trkpt>
      <trkpt lat="60.02222657203674" lon="30.349559783935547">
        <ele>40.49</ele>
      </trkpt>
      <trkpt lat="60.022226655855775" lon="30.349559783935547">
        <ele>40.59</ele>
      </trkpt>
      <trkpt lat="60.02212967723608" lon="30.349113112315536">
        <ele>40.75</ele>
      </trkpt>
      <trkpt lat="60.02203345298767" lon="30.348669290542603">
        <ele>40.99</ele>
      </trkpt>
      <trkpt lat="60.0218559242785" lon="30.348295457661152">
        <ele>41.38</ele>
      </trkpt>
      <trkpt lat="60.021678479388356" lon="30.347921708598733">
        <ele>41.67</ele>
      </trkpt>
      <trkpt lat="60.02150095067918" lon="30.347547875717282">
        <ele>41.9</ele>
      </trkpt>
      <trkpt lat="60.02132534980774" lon="30.347177982330322">
        <ele>42.14</ele>
      </trkpt>
      <trkpt lat="60.021233819425106" lon="30.346801299601793">
        <ele>42.48</ele>
      </trkpt>
      <trkpt lat="60.02114295959473" lon="30.346426963806152">
        <ele>42.86</ele>
      </trkpt>
      <trkpt lat="60.02114304341376" lon="30.346426963806152">
        <ele>43.19</ele>
      </trkpt>
      <trkpt lat="60.02113223075867" lon="30.346341133117676">
        <ele>43.53</ele>
      </trkpt>
      <trkpt lat="60.0211323145777" lon="30.346341133117676">
        <ele>43.86</ele>
      </trkpt>
      <trkpt lat="60.02112150192261" lon="30.3462553024292">
        <ele>44.21</ele>
      </trkpt>
      <trkpt lat="60.02112158574164" lon="30.3462553024292">
        <ele>44.51</ele>
      </trkpt>
      <trkpt lat="60.02104824408889" lon="30.34581257030368">
        <ele>44.87</ele>
      </trkpt>
      <trkpt lat="60.02097498625517" lon="30.34536992199719">
        <ele>45.15</ele>
      </trkpt>
      <trkpt lat="60.0209023989737" lon="30.344931548461318">
        <ele>45.37</ele>
      </trkpt>
      <trkpt lat="60.0209023989737" lon="30.34493163228035">
        <ele>45.51</ele>
      </trkpt>
      <trkpt lat="60.02086400985718" lon="30.34469962120056">
        <ele>45.61</ele>
      </trkpt>
      <trkpt lat="60.02084255218506" lon="30.344431400299072">
        <ele>45.67</ele>
      </trkpt>
      <trkpt lat="60.02084263600409" lon="30.344431400299072">
        <ele>45.63</ele>
      </trkpt>
      <trkpt lat="60.02082109451294" lon="30.343916416168213">
        <ele>45.53</ele>
      </trkpt>
      <trkpt lat="60.02082117833197" lon="30.343916416168213">
        <ele>45.36</ele>
      </trkpt>
      <trkpt lat="60.02082109451294" lon="30.34376621246338">
        <ele>45.12</ele>
      </trkpt>
      <trkpt lat="60.02084615640342" lon="30.343195656314492">
        <ele>44.82</ele>
      </trkpt>
      <trkpt lat="60.02087130211294" lon="30.342625100165606">
        <ele>44.44</ele>
      </trkpt>
      <trkpt lat="60.020896196365356" lon="30.342060327529907">
        <ele>43.92</ele>
      </trkpt>
      <trkpt lat="60.02089628018439" lon="30.342060327529907">
        <ele>43.49</ele>
      </trkpt>
      <trkpt lat="60.02098764292896" lon="30.341543667018414">
        <ele>42.98</ele>
      </trkpt>
      <trkpt lat="60.02107858657837" lon="30.34103035926819">
        <ele>42.54</ele>
      </trkpt>
      <trkpt lat="60.02112150192261" lon="30.34097671508789">
        <ele>42.09</ele>
      </trkpt>
      <trkpt lat="60.021353010088205" lon="30.34059651196003">
        <ele>41.61</ele>
      </trkpt>
      <trkpt lat="60.021584602072835" lon="30.34021630883217">
        <ele>41.2</ele>
      </trkpt>
      <trkpt lat="60.021816194057465" lon="30.33983618952334">
        <ele>40.71</ele>
      </trkpt>
      <trkpt lat="60.02204770222306" lon="30.33945598639548">
        <ele>40.36</ele>
      </trkpt>
      <trkpt lat="60.02227661199868" lon="30.33908030949533">
        <ele>40.2</ele>
      </trkpt>
      <trkpt lat="60.02248984761536" lon="30.338730113580823">
        <ele>40.02</ele>
      </trkpt>
      <trkpt lat="60.02270316705108" lon="30.338380001485348">
        <ele>40.07</ele>
      </trkpt>
      <trkpt lat="60.02291648648679" lon="30.33802980557084">
        <ele>40.28</ele>
      </trkpt>
      <trkpt lat="60.02312779426575" lon="30.337682962417603">
        <ele>40.74</ele>
      </trkpt>
      <trkpt lat="60.023020170629025" lon="30.337343998253345">
        <ele>41.85</ele>
      </trkpt>
      <trkpt lat="60.02291330136359" lon="30.33700704574585">
        <ele>42.51</ele>
      </trkpt>
      <trkpt lat="60.022768042981625" lon="30.33655509352684">
        <ele>43.23</ele>
      </trkpt>
      <trkpt lat="60.02262362278998" lon="30.336105823516846">
        <ele>43.83</ele>
      </trkpt>
      <trkpt lat="60.02248724922538" lon="30.335664600133896">
        <ele>44.45</ele>
      </trkpt>
      <trkpt lat="60.02235095947981" lon="30.335223460569978">
        <ele>45.03</ele>
      </trkpt>
      <trkpt lat="60.022215927019715" lon="30.33478617668152">
        <ele>45.47</ele>
      </trkpt>
      <trkpt lat="60.0220974907279" lon="30.33441494219005">
        <ele>45.83</ele>
      </trkpt>
      <trkpt lat="60.021979892626405" lon="30.334045886993408">
        <ele>46.11</ele>
      </trkpt>
      <trkpt lat="60.02190479077399" lon="30.333809852600098">
        <ele>46.3</ele>
      </trkpt>
      <trkpt lat="60.021779565140605" lon="30.333404587581754">
        <ele>46.32</ele>
      </trkpt>
      <trkpt lat="60.02167948521674" lon="30.333080291748047">
        <ele>46.24</ele>
      </trkpt>
      <trkpt lat="60.021679401397705" lon="30.333080291748047">
        <ele>46.06</ele>
      </trkpt>
      <trkpt lat="60.02159365452826" lon="30.33277988433838">
        <ele>45.79</ele>
      </trkpt>
      <trkpt lat="60.02171200700104" lon="30.33230639062822">
        <ele>45.4</ele>
      </trkpt>
      <trkpt lat="60.02182968892157" lon="30.331835746765137">
        <ele>44.98</ele>
      </trkpt>
      <trkpt lat="60.021947622299194" lon="30.331310033798218">
        <ele>44.46</ele>
      </trkpt>
      <trkpt lat="60.02206563949585" lon="30.330730676651">
        <ele>43.77</ele>
      </trkpt>
      <trkpt lat="60.02212934195995" lon="30.330360112711787">
        <ele>43.06</ele>
      </trkpt>
      <trkpt lat="60.02218374051154" lon="30.33004403114319">
        <ele>41.73</ele>
      </trkpt>
      <trkpt lat="60.022215927019715" lon="30.329904556274414">
        <ele>41.1</ele>
      </trkpt>
      <trkpt lat="60.022215843200684" lon="30.329861640930176">
        <ele>40.55</ele>
      </trkpt>
      <trkpt lat="60.02212129533291" lon="30.32973038032651">
        <ele>39.98</ele>
      </trkpt>
      <trkpt lat="60.02212129533291" lon="30.329730296507478">
        <ele>39.53</ele>
      </trkpt>
      <trkpt lat="60.02202280797064" lon="30.329593420028687">
        <ele>39.11</ele>
      </trkpt>
      <trkpt lat="60.02193965949118" lon="30.329721244052052">
        <ele>38.78</ele>
      </trkpt>
      <trkpt lat="60.02188333310187" lon="30.329807996749878">
        <ele>38.29</ele>
      </trkpt>
      <trkpt lat="60.02181887626648" lon="30.329904556274414">
        <ele>38.13</ele>
      </trkpt>
      <trkpt lat="60.02181896008551" lon="30.329904556274414">
        <ele>37.98</ele>
      </trkpt>
      <trkpt lat="60.02163967117667" lon="30.330191301181912">
        <ele>37.95</ele>
      </trkpt>
      <trkpt lat="60.02146038226783" lon="30.33047804608941">
        <ele>37.84</ele>
      </trkpt>
      <trkpt lat="60.0212824344635" lon="30.33076286315918">
        <ele>37.7</ele>
      </trkpt>
      <trkpt lat="60.02128251828253" lon="30.33076286315918">
        <ele>37.68</ele>
      </trkpt>
      <trkpt lat="60.021185958758" lon="30.330913066864014">
        <ele>37.66</ele>
      </trkpt>
      <trkpt lat="60.02104640007019" lon="30.331116914749146">
        <ele>37.61</ele>
      </trkpt>
      <trkpt lat="60.02104648388922" lon="30.331116914749146">
        <ele>37.68</ele>
      </trkpt>
      <trkpt lat="60.02083375118673" lon="30.33145378343761">
        <ele>37.79</ele>
      </trkpt>
      <trkpt lat="60.020621018484235" lon="30.331790735945106">
        <ele>37.97</ele>
      </trkpt>
      <trkpt lat="60.02040828578174" lon="30.33212760463357">
        <ele>38.0</ele>
      </trkpt>
      <trkpt lat="60.02019563689828" lon="30.332464557141066">
        <ele>38.11</ele>
      </trkpt>
      <trkpt lat="60.01998541876674" lon="30.33279757015407">
        <ele>38.25</ele>
      </trkpt>
      <trkpt lat="60.019757598638535" lon="30.333158411085606">
        <ele>38.32</ele>
      </trkpt>
      <trkpt lat="60.01952977851033" lon="30.333519335836172">
        <ele>38.25</ele>
      </trkpt>
      <trkpt lat="60.01930195838213" lon="30.333880176767707">
        <ele>38.17</ele>
      </trkpt>
      <trkpt lat="60.01907413825393" lon="30.334241101518273">
        <ele>38.06</ele>
      </trkpt>
      <trkpt lat="60.018846318125725" lon="30.33460202626884">
        <ele>37.85</ele>
      </trkpt>
      <trkpt lat="60.01862168312073" lon="30.33495783805847">
        <ele>37.63</ele>
      </trkpt>
      <trkpt lat="60.01862176693976" lon="30.33495783805847">
        <ele>37.52</ele>
      </trkpt>
      <trkpt lat="60.018410962074995" lon="30.335291186347604">
        <ele>37.38</ele>
      </trkpt>
      <trkpt lat="60.01820015721023" lon="30.335624534636736">
        <ele>37.25</ele>
      </trkpt>
      <trkpt lat="60.01798935234547" lon="30.335957882925868">
        <ele>37.17</ele>
      </trkpt>
      <trkpt lat="60.0177785474807" lon="30.336291315034032">
        <ele>37.09</ele>
      </trkpt>
      <trkpt lat="60.01757025718689" lon="30.336620807647705">
        <ele>36.91</ele>
      </trkpt>
      <trkpt lat="60.01757034100592" lon="30.336620807647705">
        <ele>36.71</ele>
      </trkpt>
      <trkpt lat="60.017340844497085" lon="30.336982822045684">
        <ele>36.43</ele>
      </trkpt>
      <trkpt lat="60.01711143180728" lon="30.337344836443663">
        <ele>36.12</ele>
      </trkpt>
      <trkpt lat="60.01688361167908" lon="30.33770442008972">
        <ele>35.98</ele>
      </trkpt>
      <trkpt lat="60.01688369549811" lon="30.33770442008972">
        <ele>35.96</ele>
      </trkpt>
      <trkpt lat="60.01669057644904" lon="30.33801555633545">
        <ele>36.03</ele>
      </trkpt>
      <trkpt lat="60.01660474576056" lon="30.338155031204224">
        <ele>36.13</ele>
      </trkpt>
      <trkpt lat="60.01639318652451" lon="30.338484775274992">
        <ele>36.25</ele>
      </trkpt>
      <trkpt lat="60.01618171110749" lon="30.33881451934576">
        <ele>36.37</ele>
      </trkpt>
      <trkpt lat="60.015971660614014" lon="30.339142084121704">
        <ele>36.55</ele>
      </trkpt>
      <trkpt lat="60.015971744433045" lon="30.339142084121704">
        <ele>36.63</ele>
      </trkpt>
      <trkpt lat="60.01573512330651" lon="30.339518431574106">
        <ele>36.75</ele>
      </trkpt>
      <trkpt lat="60.01549850217998" lon="30.33989486284554">
        <ele>36.79</ele>
      </trkpt>
      <trkpt lat="60.01526188105345" lon="30.340271210297942">
        <ele>36.77</ele>
      </trkpt>
      <trkpt lat="60.01502752304077" lon="30.340644121170044">
        <ele>36.8</ele>
      </trkpt>
      <trkpt lat="60.0150276068598" lon="30.340644121170044">
        <ele>36.79</ele>
      </trkpt>
      <trkpt lat="60.01494177617133" lon="30.34077286720276">
        <ele>36.7</ele>
      </trkpt>
      <trkpt lat="60.014748154208064" lon="30.341076627373695">
        <ele>36.64</ele>
      </trkpt>
      <trkpt lat="60.01455461606383" lon="30.341380387544632">
        <ele>36.53</ele>
      </trkpt>
      <trkpt lat="60.01436099410057" lon="30.3416842315346">
        <ele>36.28</ele>
      </trkpt>
      <trkpt lat="60.01416929997504" lon="30.34198522567749">
        <ele>35.98</ele>
      </trkpt>
      <trkpt lat="60.01405128277838" lon="30.342178344726562">
        <ele>35.63</ele>
      </trkpt>
      <trkpt lat="60.01386302523315" lon="30.342479422688484">
        <ele>35.38</ele>
      </trkpt>
      <trkpt lat="60.0136757735163" lon="30.3427791595459">
        <ele>35.14</ele>
      </trkpt>
      <trkpt lat="60.013675689697266" lon="30.3427791595459">
        <ele>35.0</ele>
      </trkpt>
    </trkseg>
  </trk>
</gpx>
