<?xml version="1.0" encoding="UTF-8"?>
<gpx creator="Garmin Connect" version="1.1"
  xsi:schemaLocation="http://www.topografix.com/GPX/1/1 http://www.topografix.com/GPX/11.xsd"
  xmlns:ns3="http://www.garmin.com/xmlschemas/TrackPointExtension/v1"
  xmlns="http://www.topografix.com/GPX/1/1"
  xmlns:xsi="http://www.w3.org/2001/XMLSchema-instance" xmlns:ns2="http://www.garmin.com/xmlschemas/GpxExtensions/v3">
  <metadata>
    <name>Парк Сосновка
Выборгский район (м. Удельная / Политехническая) Бег 5 км</name>
    <link href="connect.garmin.com">
      <text>Garmin Connect</text>
    </link>
    <time>2026-09-25T19:46:11.000Z</time>
  </metadata>
  <trk>
    <name>Парк Сосновка
Выборгский район (м. Удельная / Политехническая) Бег 5 км</name>
    <trkseg>
      <trkpt lat="60.01348257064819" lon="30.343111753463745">
        <ele>35.41</ele>
      </trkpt>
      <trkpt lat="60.01348257064819" lon="30.34326195716858">
        <ele>36.11</ele>
      </trkpt>
      <trkpt lat="60.013504112139344" lon="30.343433618545532">
        <ele>36.66</ele>
      </trkpt>
      <trkpt lat="60.01353621482849" lon="30.343605279922485">
        <ele>37.26</ele>
      </trkpt>
      <trkpt lat="60.01355767250061" lon="30.34374475479126">
        <ele>39.32</ele>
      </trkpt>
      <trkpt lat="60.01358013600111" lon="30.3438962996006">
        <ele>40.0</ele>
      </trkpt>
      <trkpt lat="60.01358013600111" lon="30.34389621578157">
        <ele>40.57</ele>
      </trkpt>
      <trkpt lat="60.01360058784485" lon="30.344034433364868">
        <ele>41.19</ele>
      </trkpt>
      <trkpt lat="60.013653142377734" lon="30.34449820406735">
        <ele>42.0</ele>
      </trkpt>
      <trkpt lat="60.01370569691062" lon="30.34496197476983">
        <ele>42.62</ele>
      </trkpt>
      <trkpt lat="60.013757748529315" lon="30.34542130306363">
        <ele>43.14</ele>
      </trkpt>
      <trkpt lat="60.013757748529315" lon="30.345421386882663">
        <ele>43.56</ele>
      </trkpt>
      <trkpt lat="60.01378297805786" lon="30.345643758773804">
        <ele>43.91</ele>
      </trkpt>
      <trkpt lat="60.01378297805786" lon="30.345654487609863">
        <ele>44.18</ele>
      </trkpt>
      <trkpt lat="60.01378297805786" lon="30.346187325194478">
        <ele>44.44</ele>
      </trkpt>
      <trkpt lat="60.01378297805786" lon="30.34671664237976">
        <ele>44.66</ele>
      </trkpt>
      <trkpt lat="60.01384592615068" lon="30.347121069207788">
        <ele>44.81</ele>
      </trkpt>
      <trkpt lat="60.01384592615068" lon="30.34712115302682">
        <ele>44.87</ele>
      </trkpt>
      <trkpt lat="60.01385816372931" lon="30.34719944000244">
        <ele>44.88</ele>
      </trkpt>
      <trkpt lat="60.01392253674567" lon="30.34751057624817">
        <ele>44.86</ele>
      </trkpt>
      <trkpt lat="60.014019096270204" lon="30.347886085510254">
        <ele>44.75</ele>
      </trkpt>
      <trkpt lat="60.01405865885317" lon="30.34806864336133">
        <ele>44.58</ele>
      </trkpt>
      <trkpt lat="60.01405865885317" lon="30.3480685595423">
        <ele>44.4</ele>
      </trkpt>
      <trkpt lat="60.01407265663147" lon="30.348132848739624">
        <ele>44.18</ele>
      </trkpt>
      <trkpt lat="60.01416410319507" lon="30.34851481206715">
        <ele>43.93</ele>
      </trkpt>
      <trkpt lat="60.01425504684448" lon="30.348894596099854">
        <ele>43.62</ele>
      </trkpt>
      <trkpt lat="60.01428731717169" lon="30.349308997392654">
        <ele>43.32</ele>
      </trkpt>
      <trkpt lat="60.01431941986084" lon="30.34972071647644">
        <ele>42.91</ele>
      </trkpt>
      <trkpt lat="60.01431950367987" lon="30.34972071647644">
        <ele>42.56</ele>
      </trkpt>
      <trkpt lat="60.01434490084648" lon="30.350035037845373">
        <ele>42.14</ele>
      </trkpt>
      <trkpt lat="60.01435160636902" lon="30.350117683410645">
        <ele>41.46</ele>
      </trkpt>
      <trkpt lat="60.01438387669623" lon="30.350353717803955">
        <ele>41.14</ele>
      </trkpt>
      <trkpt lat="60.014415979385376" lon="30.35076141357422">
        <ele>40.7</ele>
      </trkpt>
      <trkpt lat="60.01441606320441" lon="30.35076141357422">
        <ele>40.42</ele>
      </trkpt>
      <trkpt lat="60.014448165893555" lon="30.351051092147827">
        <ele>40.11</ele>
      </trkpt>
      <trkpt lat="60.014469623565674" lon="30.351383686065674">
        <ele>39.83</ele>
      </trkpt>
      <trkpt lat="60.014469707384706" lon="30.351383686065674">
        <ele>39.68</ele>
      </trkpt>
      <trkpt lat="60.01449108123779" lon="30.351566076278687">
        <ele>39.59</ele>
      </trkpt>
      <trkpt lat="60.014561070129275" lon="30.351926581934094">
        <ele>39.56</ele>
      </trkpt>
      <trkpt lat="60.0146306399256" lon="30.352284908294678">
        <ele>39.62</ele>
      </trkpt>
      <trkpt lat="60.01463055610657" lon="30.352284908294678">
        <ele>39.66</ele>
      </trkpt>
      <trkpt lat="60.014705741778016" lon="30.352810621261597">
        <ele>39.76</ele>
      </trkpt>
      <trkpt lat="60.014705657958984" lon="30.352810621261597">
        <ele>39.86</ele>
      </trkpt>
      <trkpt lat="60.014727199450135" lon="30.353293418884277">
        <ele>39.98</ele>
      </trkpt>
      <trkpt lat="60.01473784446716" lon="30.35347580909729">
        <ele>40.1</ele>
      </trkpt>
      <trkpt lat="60.01482367515564" lon="30.35372257232666">
        <ele>40.26</ele>
      </trkpt>
      <trkpt lat="60.01488142646849" lon="30.35391116514802">
        <ele>40.39</ele>
      </trkpt>
      <trkpt lat="60.01488142646849" lon="30.353911081328988">
        <ele>40.46</ele>
      </trkpt>
      <trkpt lat="60.014984691515565" lon="30.35424828529358">
        <ele>40.54</ele>
      </trkpt>
      <trkpt lat="60.0150276068598" lon="30.354409217834473">
        <ele>40.54</ele>
      </trkpt>
      <trkpt lat="60.0150276068598" lon="30.35447359085083">
        <ele>40.52</ele>
      </trkpt>
      <trkpt lat="60.01505979336798" lon="30.35499930381775">
        <ele>40.42</ele>
      </trkpt>
      <trkpt lat="60.01505970954895" lon="30.35499930381775">
        <ele>40.32</ele>
      </trkpt>
      <trkpt lat="60.01505979336798" lon="30.355031490325928">
        <ele>40.19</ele>
      </trkpt>
      <trkpt lat="60.01505970954895" lon="30.35545871593058">
        <ele>39.94</ele>
      </trkpt>
      <trkpt lat="60.01505970954895" lon="30.355883091688156">
        <ele>39.7</ele>
      </trkpt>
      <trkpt lat="60.01505979336798" lon="30.356168746948242">
        <ele>39.27</ele>
      </trkpt>
      <trkpt lat="60.01505970954895" lon="30.356168746948242">
        <ele>39.07</ele>
      </trkpt>
      <trkpt lat="60.01525500789285" lon="30.356247536838055">
        <ele>38.89</ele>
      </trkpt>
      <trkpt lat="60.01544971950352" lon="30.356326075270772">
        <ele>38.7</ele>
      </trkpt>
      <trkpt lat="60.01544971950352" lon="30.356326159089804">
        <ele>38.52</ele>
      </trkpt>
      <trkpt lat="60.01567133702338" lon="30.356415510177612">
        <ele>38.36</ele>
      </trkpt>
      <trkpt lat="60.01577862538397" lon="30.35651206970215">
        <ele>38.22</ele>
      </trkpt>
      <trkpt lat="60.01590762287378" lon="30.35674324259162">
        <ele>38.1</ele>
      </trkpt>
      <trkpt lat="60.0160361174494" lon="30.35697340965271">
        <ele>37.98</ele>
      </trkpt>
      <trkpt lat="60.016181292012334" lon="30.357274571433663">
        <ele>37.83</ele>
      </trkpt>
      <trkpt lat="60.01632579602301" lon="30.357574224472046">
        <ele>37.77</ele>
      </trkpt>
      <trkpt lat="60.01639008522034" lon="30.35771369934082">
        <ele>37.8</ele>
      </trkpt>
      <trkpt lat="60.01639016903937" lon="30.35771369934082">
        <ele>38.14</ele>
      </trkpt>
      <trkpt lat="60.01655110158026" lon="30.357745885849">
        <ele>38.36</ele>
      </trkpt>
      <trkpt lat="60.01655101776123" lon="30.357745885849">
        <ele>38.59</ele>
      </trkpt>
      <trkpt lat="60.01684119924903" lon="30.357823250815272">
        <ele>39.02</ele>
      </trkpt>
      <trkpt lat="60.01713138073683" lon="30.357900615781546">
        <ele>39.41</ele>
      </trkpt>
      <trkpt lat="60.01742156222463" lon="30.35797798074782">
        <ele>39.67</ele>
      </trkpt>
      <trkpt lat="60.017711743712425" lon="30.358055345714092">
        <ele>39.94</ele>
      </trkpt>
      <trkpt lat="60.017999494448304" lon="30.358132123947144">
        <ele>40.23</ele>
      </trkpt>
      <trkpt lat="60.0182569026947" lon="30.35793900489807">
        <ele>40.44</ele>
      </trkpt>
      <trkpt lat="60.0185573939234" lon="30.35792827606201">
        <ele>40.56</ele>
      </trkpt>
      <trkpt lat="60.01855731010437" lon="30.35792827606201">
        <ele>40.71</ele>
      </trkpt>
      <trkpt lat="60.018811617046595" lon="30.35794973373413">
        <ele>40.79</ele>
      </trkpt>
      <trkpt lat="60.01906592398882" lon="30.35797119140625">
        <ele>40.88</ele>
      </trkpt>
      <trkpt lat="60.0193190574646" lon="30.35799264907837">
        <ele>40.88</ele>
      </trkpt>
      <trkpt lat="60.01951217651367" lon="30.357885360717773">
        <ele>40.94</ele>
      </trkpt>
      <trkpt lat="60.019512260332704" lon="30.357885360717773">
        <ele>41.04</ele>
      </trkpt>
      <trkpt lat="60.01932500861585" lon="30.35742058418691">
        <ele>41.15</ele>
      </trkpt>
      <trkpt lat="60.01913784071803" lon="30.35695580765605">
        <ele>41.22</ele>
      </trkpt>
      <trkpt lat="60.01895058900118" lon="30.35649111494422">
        <ele>41.2</ele>
      </trkpt>
      <trkpt lat="60.01876342110336" lon="30.356026338413358">
        <ele>41.12</ele>
      </trkpt>
      <trkpt lat="60.01857876777649" lon="30.355567932128906">
        <ele>41.04</ele>
      </trkpt>
      <trkpt lat="60.01857885159552" lon="30.355567932128906">
        <ele>41.02</ele>
      </trkpt>
      <trkpt lat="60.01838875003159" lon="30.355112459510565">
        <ele>41.1</ele>
      </trkpt>
      <trkpt lat="60.01819873228669" lon="30.354657070711255">
        <ele>41.2</ele>
      </trkpt>
      <trkpt lat="60.018010223284364" lon="30.35420536994934">
        <ele>41.17</ele>
      </trkpt>
      <trkpt lat="60.01792439259589" lon="30.35401225090027">
        <ele>41.13</ele>
      </trkpt>
      <trkpt lat="60.017763460054994" lon="30.353561639785767">
        <ele>40.97</ele>
      </trkpt>
      <trkpt lat="60.01758106984198" lon="30.353111028671265">
        <ele>40.84</ele>
      </trkpt>
      <trkpt lat="60.01745726913214" lon="30.35278824158013">
        <ele>40.73</ele>
      </trkpt>
      <trkpt lat="60.01733422279358" lon="30.35246729850769">
        <ele>40.73</ele>
      </trkpt>
      <trkpt lat="60.0171675067395" lon="30.352020794525743">
        <ele>40.84</ele>
      </trkpt>
      <trkpt lat="60.017001712694764" lon="30.351576805114746">
        <ele>41.0</ele>
      </trkpt>
      <trkpt lat="60.01692661084235" lon="30.351383686065674">
        <ele>41.07</ele>
      </trkpt>
      <trkpt lat="60.01677640713751" lon="30.350922346115112">
        <ele>41.14</ele>
      </trkpt>
      <trkpt lat="60.01666911877692" lon="30.350568294525146">
        <ele>41.26</ele>
      </trkpt>
      <trkpt lat="60.01661539077759" lon="30.350407361984253">
        <ele>41.41</ele>
      </trkpt>
      <trkpt lat="60.01661547459662" lon="30.350407361984253">
        <ele>41.55</ele>
      </trkpt>
      <trkpt lat="60.016464767977595" lon="30.35001282580197">
        <ele>41.79</ele>
      </trkpt>
      <trkpt lat="60.0163141451776" lon="30.349618373438716">
        <ele>42.05</ele>
      </trkpt>
      <trkpt lat="60.016164779663086" lon="30.3492271900177">
        <ele>42.2</ele>
      </trkpt>
      <trkpt lat="60.01617735251784" lon="30.34914990887046">
        <ele>42.32</ele>
      </trkpt>
      <trkpt lat="60.01616486348212" lon="30.3492271900177">
        <ele>42.51</ele>
      </trkpt>
      <trkpt lat="60.016164779663086" lon="30.3492271900177">
        <ele>42.57</ele>
      </trkpt>
      <trkpt lat="60.01640131697059" lon="30.34882117062807">
        <ele>42.54</ele>
      </trkpt>
      <trkpt lat="60.01663793809712" lon="30.348415235057473">
        <ele>42.5</ele>
      </trkpt>
      <trkpt lat="60.01687455922365" lon="30.348009215667844">
        <ele>42.49</ele>
      </trkpt>
      <trkpt lat="60.01710900105536" lon="30.347607135772705">
        <ele>42.47</ele>
      </trkpt>
      <trkpt lat="60.01723799854517" lon="30.347386607900262">
        <ele>42.47</ele>
      </trkpt>
      <trkpt lat="60.01736649312079" lon="30.347167253494263">
        <ele>42.47</ele>
      </trkpt>
      <trkpt lat="60.01740940846503" lon="30.347092151641846">
        <ele>42.46</ele>
      </trkpt>
      <trkpt lat="60.017409324645996" lon="30.347092151641846">
        <ele>42.41</ele>
      </trkpt>
      <trkpt lat="60.01740940846503" lon="30.347092151641846">
        <ele>42.26</ele>
      </trkpt>
      <trkpt lat="60.01751694828272" lon="30.34736104309559">
        <ele>42.13</ele>
      </trkpt>
      <trkpt lat="60.01762398518622" lon="30.347628593444824">
        <ele>41.98</ele>
      </trkpt>
      <trkpt lat="60.01768835820258" lon="30.347778797149658">
        <ele>41.89</ele>
      </trkpt>
      <trkpt lat="60.017731273546815" lon="30.347896814346313">
        <ele>41.79</ele>
      </trkpt>
      <trkpt lat="60.017908718436956" lon="30.34834323450923">
        <ele>41.77</ele>
      </trkpt>
      <trkpt lat="60.01808532513678" lon="30.348787307739258">
        <ele>41.65</ele>
      </trkpt>
      <trkpt lat="60.0181982293725" lon="30.34908310510218">
        <ele>41.51</ele>
      </trkpt>
      <trkpt lat="60.01831063069403" lon="30.349377393722534">
        <ele>41.27</ele>
      </trkpt>
      <trkpt lat="60.0183641910553" lon="30.34950613975525">
        <ele>41.12</ele>
      </trkpt>
      <trkpt lat="60.0184968765825" lon="30.34986832179129">
        <ele>40.91</ele>
      </trkpt>
      <trkpt lat="60.01862956210971" lon="30.350230503827333">
        <ele>40.74</ele>
      </trkpt>
      <trkpt lat="60.0187611579895" lon="30.350589752197266">
        <ele>40.72</ele>
      </trkpt>
      <trkpt lat="60.018761241808534" lon="30.350589752197266">
        <ele>40.66</ele>
      </trkpt>
      <trkpt lat="60.01884707249701" lon="30.350793600082397">
        <ele>40.68</ele>
      </trkpt>
      <trkpt lat="60.01884698867798" lon="30.350793600082397">
        <ele>40.67</ele>
      </trkpt>
      <trkpt lat="60.01884707249701" lon="30.350793600082397">
        <ele>40.72</ele>
      </trkpt>
      <trkpt lat="60.01888990402222" lon="30.35070776939392">
        <ele>40.76</ele>
      </trkpt>
      <trkpt lat="60.01888998784125" lon="30.35070776939392">
        <ele>40.84</ele>
      </trkpt>
      <trkpt lat="60.01906206831336" lon="30.35036712884903">
        <ele>40.98</ele>
      </trkpt>
      <trkpt lat="60.01923414878547" lon="30.35002657212317">
        <ele>41.15</ele>
      </trkpt>
      <trkpt lat="60.01940497197211" lon="30.34968852996826">
        <ele>41.36</ele>
      </trkpt>
      <trkpt lat="60.01952315680683" lon="30.34947336651385">
        <ele>41.56</ele>
      </trkpt>
      <trkpt lat="60.01964092254639" lon="30.34925937652588">
        <ele>41.74</ele>
      </trkpt>
      <trkpt lat="60.01964100636542" lon="30.34925937652588">
        <ele>41.92</ele>
      </trkpt>
      <trkpt lat="60.01977000385523" lon="30.348990401253104">
        <ele>42.08</ele>
      </trkpt>
      <trkpt lat="60.01989849843085" lon="30.3487229347229">
        <ele>42.26</ele>
      </trkpt>
      <trkpt lat="60.02002724446356" lon="30.34845471382141">
        <ele>42.47</ele>
      </trkpt>
      <trkpt lat="60.020222375169396" lon="30.34811801277101">
        <ele>42.71</ele>
      </trkpt>
      <trkpt lat="60.02041658386588" lon="30.347782988101244">
        <ele>42.95</ele>
      </trkpt>
      <trkpt lat="60.020456314086914" lon="30.3477144241333">
        <ele>43.48</ele>
      </trkpt>
      <trkpt lat="60.020525297150016" lon="30.347203966230154">
        <ele>43.78</ele>
      </trkpt>
      <trkpt lat="60.02059436403215" lon="30.346693508327007">
        <ele>44.1</ele>
      </trkpt>
      <trkpt lat="60.02066334709525" lon="30.346183134242892">
        <ele>44.52</ele>
      </trkpt>
      <trkpt lat="60.020732413977385" lon="30.345672676339746">
        <ele>44.77</ele>
      </trkpt>
      <trkpt lat="60.020800307393074" lon="30.34517051652074">
        <ele>44.94</ele>
      </trkpt>
      <trkpt lat="60.020800307393074" lon="30.34517060033977">
        <ele>45.11</ele>
      </trkpt>
      <trkpt lat="60.02086400985718" lon="30.34469962120056">
        <ele>45.22</ele>
      </trkpt>
      <trkpt lat="60.02084255218506" lon="30.344431400299072">
        <ele>45.35</ele>
      </trkpt>
      <trkpt lat="60.02084263600409" lon="30.344431400299072">
        <ele>45.41</ele>
      </trkpt>
      <trkpt lat="60.02082109451294" lon="30.343916416168213">
        <ele>45.44</ele>
      </trkpt>
      <trkpt lat="60.02082117833197" lon="30.343916416168213">
        <ele>45.43</ele>
      </trkpt>
      <trkpt lat="60.02082109451294" lon="30.34376621246338">
        <ele>45.39</ele>
      </trkpt>
      <trkpt lat="60.02084615640342" lon="30.343195656314492">
        <ele>45.33</ele>
      </trkpt>
      <trkpt lat="60.02087130211294" lon="30.342625100165606">
        <ele>45.23</ele>
      </trkpt>
      <trkpt lat="60.020896196365356" lon="30.342060327529907">
        <ele>45.01</ele>
      </trkpt>
      <trkpt lat="60.02089628018439" lon="30.342060327529907">
        <ele>44.93</ele>
      </trkpt>
      <trkpt lat="60.02098764292896" lon="30.341543667018414">
        <ele>44.79</ele>
      </trkpt>
      <trkpt lat="60.02107858657837" lon="30.34103035926819">
        <ele>44.75</ele>
      </trkpt>
      <trkpt lat="60.02097113057971" lon="30.341201769188046">
        <ele>44.76</ele>
      </trkpt>
      <trkpt lat="60.02107858657837" lon="30.34103035926819">
        <ele>44.69</ele>
      </trkpt>
      <trkpt lat="60.02112150192261" lon="30.34097671508789">
        <ele>44.71</ele>
      </trkpt>
      <trkpt lat="60.02108931541443" lon="30.340933799743652">
        <ele>44.78</ele>
      </trkpt>
      <trkpt lat="60.02108939923346" lon="30.340933799743652">
        <ele>44.84</ele>
      </trkpt>
      <trkpt lat="60.02086887136102" lon="30.34057890996337">
        <ele>45.11</ele>
      </trkpt>
      <trkpt lat="60.020649433135986" lon="30.34022569656372">
        <ele>45.23</ele>
      </trkpt>
      <trkpt lat="60.02052999101579" lon="30.339928893372416">
        <ele>45.31</ele>
      </trkpt>
      <trkpt lat="60.02041130326688" lon="30.33963385038078">
        <ele>45.35</ele>
      </trkpt>
      <trkpt lat="60.02041121944785" lon="30.33963385038078">
        <ele>45.39</ele>
      </trkpt>
      <trkpt lat="60.02029538154602" lon="30.339345932006836">
        <ele>45.38</ele>
      </trkpt>
      <trkpt lat="60.02029546536505" lon="30.339345932006836">
        <ele>45.39</ele>
      </trkpt>
      <trkpt lat="60.020201755687594" lon="30.3388677444309">
        <ele>45.35</ele>
      </trkpt>
      <trkpt lat="60.02010863274336" lon="30.338392574340105">
        <ele>45.23</ele>
      </trkpt>
      <trkpt lat="60.02010863274336" lon="30.338392658159137">
        <ele>45.23</ele>
      </trkpt>
      <trkpt lat="60.02009161747992" lon="30.338305234909058">
        <ele>45.23</ele>
      </trkpt>
      <trkpt lat="60.02023125998676" lon="30.338160060346127">
        <ele>45.23</ele>
      </trkpt>
      <trkpt lat="60.02037048339844" lon="30.33801555633545">
        <ele>45.27</ele>
      </trkpt>
      <trkpt lat="60.020649852231145" lon="30.337945651263">
        <ele>45.47</ele>
      </trkpt>
      <trkpt lat="60.020928382873535" lon="30.337876081466675">
        <ele>45.62</ele>
      </trkpt>
      <trkpt lat="60.02110566012561" lon="30.337784718722105">
        <ele>45.66</ele>
      </trkpt>
      <trkpt lat="60.0212824344635" lon="30.337693691253662">
        <ele>45.75</ele>
      </trkpt>
      <trkpt lat="60.02143833786249" lon="30.33742479979992">
        <ele>45.84</ele>
      </trkpt>
      <trkpt lat="60.02159357070923" lon="30.337157249450684">
        <ele>45.91</ele>
      </trkpt>
      <trkpt lat="60.02159365452826" lon="30.337157249450684">
        <ele>46.03</ele>
      </trkpt>
      <trkpt lat="60.021687699481845" lon="30.336824068799615">
        <ele>46.16</ele>
      </trkpt>
      <trkpt lat="60.021687699481845" lon="30.336824152618647">
        <ele>46.29</ele>
      </trkpt>
      <trkpt lat="60.02178031951189" lon="30.336496168747544">
        <ele>46.44</ele>
      </trkpt>
      <trkpt lat="60.02187252044678" lon="30.336170196533203">
        <ele>46.57</ele>
      </trkpt>
      <trkpt lat="60.02195323817432" lon="30.3357127122581">
        <ele>46.77</ele>
      </trkpt>
      <trkpt lat="60.02203345298767" lon="30.33525824546814">
        <ele>46.88</ele>
      </trkpt>
      <trkpt lat="60.02217301167548" lon="30.334893465042114">
        <ele>46.95</ele>
      </trkpt>
      <trkpt lat="60.022215927019715" lon="30.33478617668152">
        <ele>47.01</ele>
      </trkpt>
      <trkpt lat="60.02224895171821" lon="30.334351239725947">
        <ele>47.04</ele>
      </trkpt>
      <trkpt lat="60.022281808778644" lon="30.333919236436486">
        <ele>47.05</ele>
      </trkpt>
      <trkpt lat="60.0222909450531" lon="30.333799123764038">
        <ele>46.98</ele>
      </trkpt>
      <trkpt lat="60.02233394421637" lon="30.333455801010132">
        <ele>46.95</ele>
      </trkpt>
      <trkpt lat="60.02233386039734" lon="30.333455801010132">
        <ele>46.84</ele>
      </trkpt>
      <trkpt lat="60.02239789813757" lon="30.332987504079938">
        <ele>46.64</ele>
      </trkpt>
      <trkpt lat="60.02246160060167" lon="30.332522308453918">
        <ele>46.36</ele>
      </trkpt>
      <trkpt lat="60.02247333526611" lon="30.332436561584473">
        <ele>45.98</ele>
      </trkpt>
      <trkpt lat="60.02252941019833" lon="30.332038421183825">
        <ele>45.77</ele>
      </trkpt>
      <trkpt lat="60.02258523367345" lon="30.33164287917316">
        <ele>45.45</ele>
      </trkpt>
      <trkpt lat="60.02258523367345" lon="30.33164296299219">
        <ele>45.24</ele>
      </trkpt>
      <trkpt lat="60.0225914362818" lon="30.331599712371826">
        <ele>45.02</ele>
      </trkpt>
      <trkpt lat="60.02259135246277" lon="30.331599712371826">
        <ele>44.8</ele>
      </trkpt>
      <trkpt lat="60.02261281013489" lon="30.33149242401123">
        <ele>44.55</ele>
      </trkpt>
      <trkpt lat="60.02230326645076" lon="30.331407515332103">
        <ele>44.45</ele>
      </trkpt>
      <trkpt lat="60.02199481241405" lon="30.331322941929102">
        <ele>44.19</ele>
      </trkpt>
      <trkpt lat="60.021947706118226" lon="30.331310033798218">
        <ele>43.49</ele>
      </trkpt>
      <trkpt lat="60.02192549407482" lon="30.330904433503747">
        <ele>42.98</ele>
      </trkpt>
      <trkpt lat="60.021915435791016" lon="30.33071994781494">
        <ele>42.04</ele>
      </trkpt>
      <trkpt lat="60.02173732034862" lon="30.33073201775551">
        <ele>41.53</ele>
      </trkpt>
      <trkpt lat="60.02155995927751" lon="30.330744087696075">
        <ele>40.97</ele>
      </trkpt>
      <trkpt lat="60.02128251828253" lon="30.33076286315918">
        <ele>39.87</ele>
      </trkpt>
      <trkpt lat="60.02123583108187" lon="30.330835366621614">
        <ele>39.46</ele>
      </trkpt>
      <trkpt lat="60.021185958758" lon="30.330913066864014">
        <ele>38.8</ele>
      </trkpt>
      <trkpt lat="60.02104640007019" lon="30.331116914749146">
        <ele>38.46</ele>
      </trkpt>
      <trkpt lat="60.02104648388922" lon="30.331116914749146">
        <ele>38.25</ele>
      </trkpt>
      <trkpt lat="60.02080340869725" lon="30.331501895561814">
        <ele>38.12</ele>
      </trkpt>
      <trkpt lat="60.02056033350527" lon="30.331886876374483">
        <ele>38.05</ele>
      </trkpt>
      <trkpt lat="60.02031734213233" lon="30.332271941006184">
        <ele>37.96</ele>
      </trkpt>
      <trkpt lat="60.020074266940355" lon="30.332656921818852">
        <ele>37.9</ele>
      </trkpt>
      <trkpt lat="60.01983119174838" lon="30.33304190263152">
        <ele>37.9</ele>
      </trkpt>
      <trkpt lat="60.01958820037544" lon="30.33342696726322">
        <ele>37.77</ele>
      </trkpt>
      <trkpt lat="60.01934512518346" lon="30.33381194807589">
        <ele>37.63</ele>
      </trkpt>
      <trkpt lat="60.01910213381052" lon="30.33419692888856">
        <ele>37.51</ele>
      </trkpt>
      <trkpt lat="60.018859058618546" lon="30.334581909701228">
        <ele>37.29</ele>
      </trkpt>
      <trkpt lat="60.01862168312073" lon="30.33495783805847">
        <ele>37.08</ele>
      </trkpt>
      <trkpt lat="60.01862176693976" lon="30.33495783805847">
        <ele>36.99</ele>
      </trkpt>
      <trkpt lat="60.018410962074995" lon="30.335291186347604">
        <ele>36.89</ele>
      </trkpt>
      <trkpt lat="60.01820015721023" lon="30.335624534636736">
        <ele>36.81</ele>
      </trkpt>
      <trkpt lat="60.01798935234547" lon="30.335957882925868">
        <ele>36.77</ele>
      </trkpt>
      <trkpt lat="60.0177785474807" lon="30.336291315034032">
        <ele>36.75</ele>
      </trkpt>
      <trkpt lat="60.01757025718689" lon="30.336620807647705">
        <ele>36.62</ele>
      </trkpt>
      <trkpt lat="60.01757034100592" lon="30.336620807647705">
        <ele>36.47</ele>
      </trkpt>
      <trkpt lat="60.017340844497085" lon="30.336982822045684">
        <ele>36.23</ele>
      </trkpt>
      <trkpt lat="60.01711143180728" lon="30.337344836443663">
        <ele>35.97</ele>
      </trkpt>
      <trkpt lat="60.01688361167908" lon="30.33770442008972">
        <ele>35.86</ele>
      </trkpt>
      <trkpt lat="60.01688369549811" lon="30.33770442008972">
        <ele>35.88</ele>
      </trkpt>
      <trkpt lat="60.01669057644904" lon="30.33801555633545">
        <ele>35.98</ele>
      </trkpt>
      <trkpt lat="60.01660474576056" lon="30.338155031204224">
        <ele>36.11</ele>
      </trkpt>
      <trkpt lat="60.01639318652451" lon="30.338484775274992">
        <ele>36.26</ele>
      </trkpt>
      <trkpt lat="60.01618171110749" lon="30.33881451934576">
        <ele>36.4</ele>
      </trkpt>
      <trkpt lat="60.015971660614014" lon="30.339142084121704">
        <ele>36.59</ele>
      </trkpt>
      <trkpt lat="60.015971744433045" lon="30.339142084121704">
        <ele>36.69</ele>
      </trkpt>
      <trkpt lat="60.01573512330651" lon="30.339518431574106">
        <ele>36.82</ele>
      </trkpt>
      <trkpt lat="60.01549850217998" lon="30.33989486284554">
        <ele>36.87</ele>
      </trkpt>
      <trkpt lat="60.01526188105345" lon="30.340271210297942">
        <ele>36.85</ele>
      </trkpt>
      <trkpt lat="60.01502752304077" lon="30.340644121170044">
        <ele>36.88</ele>
      </trkpt>
      <trkpt lat="60.0150276068598" lon="30.340644121170044">
        <ele>36.87</ele>
      </trkpt>
      <trkpt lat="60.01494177617133" lon="30.34077286720276">
        <ele>36.78</ele>
      </trkpt>
      <trkpt lat="60.014748154208064" lon="30.341076627373695">
        <ele>36.72</ele>
      </trkpt>
      <trkpt lat="60.01455461606383" lon="30.341380387544632">
        <ele>36.61</ele>
      </trkpt>
      <trkpt lat="60.01436099410057" lon="30.3416842315346">
        <ele>36.34</ele>
      </trkpt>
      <trkpt lat="60.01416929997504" lon="30.34198522567749">
        <ele>36.04</ele>
      </trkpt>
      <trkpt lat="60.01405128277838" lon="30.342178344726562">
        <ele>35.67</ele>
      </trkpt>
      <trkpt lat="60.01386302523315" lon="30.342479422688484">
        <ele>35.38</ele>
      </trkpt>
      <trkpt lat="60.0136757735163" lon="30.3427791595459">
        <ele>35.09</ele>
      </trkpt>
      <trkpt lat="60.01361056230962" lon="30.342891225591302">
        <ele>34.83</ele>
      </trkpt>
    </trkseg>
  </trk>
</gpx>
