<?xml version="1.0" encoding="UTF-8"?>
<gpx creator="Garmin Connect" version="1.1"
  xsi:schemaLocation="http://www.topografix.com/GPX/1/1 http://www.topografix.com/GPX/11.xsd"
  xmlns:ns3="http://www.garmin.com/xmlschemas/TrackPointExtension/v1"
  xmlns="http://www.topografix.com/GPX/1/1"
  xmlns:xsi="http://www.w3.org/2001/XMLSchema-instance" xmlns:ns2="http://www.garmin.com/xmlschemas/GpxExtensions/v3">
  <metadata>
    <name>Удельный парк
Выборгский / Приморский районы Бег 10 км</name>
    <link href="connect.garmin.com">
      <text>Garmin Connect</text>
    </link>
    <time>2026-09-25T20:25:35.000Z</time>
  </metadata>
  <trk>
    <name>Удельный парк
Выборгский / Приморский районы Бег 10 км</name>
    <trkseg>
      <trkpt lat="60.009727478027344" lon="30.299134254455566">
        <ele>15.78</ele>
      </trkpt>
      <trkpt lat="60.00966821797192" lon="30.299570113420486">
        <ele>15.28</ele>
      </trkpt>
      <trkpt lat="60.00960946083069" lon="30.30000329017639">
        <ele>14.78</ele>
      </trkpt>
      <trkpt lat="60.00956637784839" lon="30.30035843141377">
        <ele>14.3</ele>
      </trkpt>
      <trkpt lat="60.009523713961244" lon="30.300711393356323">
        <ele>13.76</ele>
      </trkpt>
      <trkpt lat="60.0094189401716" lon="30.301205087453127">
        <ele>13.33</ele>
      </trkpt>
      <trkpt lat="60.00931483693421" lon="30.30169576406479">
        <ele>13.14</ele>
      </trkpt>
      <trkpt lat="60.00929840840399" lon="30.30177354812622">
        <ele>13.02</ele>
      </trkpt>
      <trkpt lat="60.00940033234656" lon="30.30224067158997">
        <ele>13.05</ele>
      </trkpt>
      <trkpt lat="60.009502256289124" lon="30.30270779505372">
        <ele>13.26</ele>
      </trkpt>
      <trkpt lat="60.00960334204137" lon="30.303170643746853">
        <ele>13.64</ele>
      </trkpt>
      <trkpt lat="60.00963100232184" lon="30.30329704284668">
        <ele>14.38</ele>
      </trkpt>
      <trkpt lat="60.00965245999396" lon="30.303490161895752">
        <ele>14.8</ele>
      </trkpt>
      <trkpt lat="60.00983526930213" lon="30.303871957585216">
        <ele>15.13</ele>
      </trkpt>
      <trkpt lat="60.01001715660095" lon="30.30425190925598">
        <ele>15.57</ele>
      </trkpt>
      <trkpt lat="60.010017240419984" lon="30.30425190925598">
        <ele>16.1</ele>
      </trkpt>
      <trkpt lat="60.01002796925604" lon="30.30426263809204">
        <ele>16.7</ele>
      </trkpt>
      <trkpt lat="60.010103238746524" lon="30.304585425183177">
        <ele>17.53</ele>
      </trkpt>
      <trkpt lat="60.010178089141846" lon="30.304906368255615">
        <ele>18.52</ele>
      </trkpt>
      <trkpt lat="60.01025344245136" lon="30.30523451976478">
        <ele>19.59</ele>
      </trkpt>
      <trkpt lat="60.01032837666571" lon="30.30556082725525">
        <ele>20.64</ele>
      </trkpt>
      <trkpt lat="60.01028135418892" lon="30.305631570518017">
        <ele>21.6</ele>
      </trkpt>
      <trkpt lat="60.0100645981729" lon="30.305957878008485">
        <ele>23.31</ele>
      </trkpt>
      <trkpt lat="60.00984784215689" lon="30.306284269317985">
        <ele>24.11</ele>
      </trkpt>
      <trkpt lat="60.0096311699599" lon="30.306610660627484">
        <ele>24.83</ele>
      </trkpt>
      <trkpt lat="60.00941642560065" lon="30.306934118270874">
        <ele>25.51</ele>
      </trkpt>
      <trkpt lat="60.009416341781616" lon="30.306934118270874">
        <ele>26.06</ele>
      </trkpt>
      <trkpt lat="60.0093948841095" lon="30.306966304779053">
        <ele>26.53</ele>
      </trkpt>
      <trkpt lat="60.00940569676459" lon="30.30699849128723">
        <ele>26.94</ele>
      </trkpt>
      <trkpt lat="60.009427070617676" lon="30.30701994895935">
        <ele>27.27</ele>
      </trkpt>
      <trkpt lat="60.00942715443671" lon="30.30701994895935">
        <ele>27.52</ele>
      </trkpt>
      <trkpt lat="60.009427070617676" lon="30.30701994895935">
        <ele>27.69</ele>
      </trkpt>
      <trkpt lat="60.00942715443671" lon="30.30701994895935">
        <ele>27.82</ele>
      </trkpt>
      <trkpt lat="60.00964432954788" lon="30.307417837902904">
        <ele>27.89</ele>
      </trkpt>
      <trkpt lat="60.00986158847809" lon="30.307815726846457">
        <ele>27.73</ele>
      </trkpt>
      <trkpt lat="60.010078847408295" lon="30.30821369960904">
        <ele>27.64</ele>
      </trkpt>
      <trkpt lat="60.0102961063385" lon="30.308611588552594">
        <ele>27.42</ele>
      </trkpt>
      <trkpt lat="60.010510766878724" lon="30.30900478363037">
        <ele>27.06</ele>
      </trkpt>
      <trkpt lat="60.0105429533869" lon="30.30906915664673">
        <ele>26.59</ele>
      </trkpt>
      <trkpt lat="60.01074369996786" lon="30.3094419836998">
        <ele>26.05</ele>
      </trkpt>
      <trkpt lat="60.01094444654882" lon="30.30981481075287">
        <ele>25.31</ele>
      </trkpt>
      <trkpt lat="60.01114519312978" lon="30.31018763780594">
        <ele>24.56</ele>
      </trkpt>
      <trkpt lat="60.011345939710736" lon="30.31056046485901">
        <ele>23.77</ele>
      </trkpt>
      <trkpt lat="60.011546686291695" lon="30.31093329191208">
        <ele>22.93</ele>
      </trkpt>
      <trkpt lat="60.01174449920654" lon="30.31130075454712">
        <ele>21.93</ele>
      </trkpt>
      <trkpt lat="60.011744583025575" lon="30.31130075454712">
        <ele>21.15</ele>
      </trkpt>
      <trkpt lat="60.01187332905829" lon="30.31154751777649">
        <ele>20.24</ele>
      </trkpt>
      <trkpt lat="60.01200769096613" lon="30.31180023215711">
        <ele>19.43</ele>
      </trkpt>
      <trkpt lat="60.01214146614075" lon="30.31205177307129">
        <ele>18.73</ele>
      </trkpt>
      <trkpt lat="60.012192176654935" lon="30.312143974006176">
        <ele>18.21</ele>
      </trkpt>
      <trkpt lat="60.012259567156434" lon="30.31226634979248">
        <ele>17.61</ele>
      </trkpt>
      <trkpt lat="60.01229175366461" lon="30.312330722808838">
        <ele>17.54</ele>
      </trkpt>
      <trkpt lat="60.01229166984558" lon="30.312330722808838">
        <ele>17.62</ele>
      </trkpt>
      <trkpt lat="60.012470204383135" lon="30.31264739111066">
        <ele>17.9</ele>
      </trkpt>
      <trkpt lat="60.01264873892069" lon="30.31296405941248">
        <ele>18.41</ele>
      </trkpt>
      <trkpt lat="60.01282601617277" lon="30.313278464600444">
        <ele>18.99</ele>
      </trkpt>
      <trkpt lat="60.01282601617277" lon="30.313278380781412">
        <ele>19.6</ele>
      </trkpt>
      <trkpt lat="60.01286029815674" lon="30.313339233398438">
        <ele>20.31</ele>
      </trkpt>
      <trkpt lat="60.01273155212402" lon="30.313478708267212">
        <ele>21.12</ele>
      </trkpt>
      <trkpt lat="60.012731635943055" lon="30.313478708267212">
        <ele>21.97</ele>
      </trkpt>
      <trkpt lat="60.012505827471614" lon="30.313718765974045">
        <ele>23.0</ele>
      </trkpt>
      <trkpt lat="60.01228001900017" lon="30.31395890749991">
        <ele>24.15</ele>
      </trkpt>
      <trkpt lat="60.01205563545227" lon="30.314197540283203">
        <ele>25.25</ele>
      </trkpt>
      <trkpt lat="60.0120557192713" lon="30.314197540283203">
        <ele>26.15</ele>
      </trkpt>
      <trkpt lat="60.0117760989815" lon="30.314476992934942">
        <ele>27.12</ele>
      </trkpt>
      <trkpt lat="60.01149773597717" lon="30.3147554397583">
        <ele>28.01</ele>
      </trkpt>
      <trkpt lat="60.0115583371371" lon="30.314818136394024">
        <ele>28.67</ele>
      </trkpt>
      <trkpt lat="60.011497819796205" lon="30.3147554397583">
        <ele>29.81</ele>
      </trkpt>
      <trkpt lat="60.01143344677985" lon="30.314819812774658">
        <ele>30.19</ele>
      </trkpt>
      <trkpt lat="60.011272514238954" lon="30.31498074531555">
        <ele>30.44</ele>
      </trkpt>
      <trkpt lat="60.01099616289139" lon="30.315251648426056">
        <ele>30.57</ele>
      </trkpt>
      <trkpt lat="60.010719895362854" lon="30.31552255153656">
        <ele>30.68</ele>
      </trkpt>
      <trkpt lat="60.01044362783432" lon="30.315793454647064">
        <ele>30.71</ele>
      </trkpt>
      <trkpt lat="60.010167276486754" lon="30.3160644415766">
        <ele>30.58</ele>
      </trkpt>
      <trkpt lat="60.00989100895822" lon="30.316335344687104">
        <ele>30.51</ele>
      </trkpt>
      <trkpt lat="60.00961474142969" lon="30.31660624779761">
        <ele>30.39</ele>
      </trkpt>
      <trkpt lat="60.00933847390115" lon="30.316877150908113">
        <ele>30.05</ele>
      </trkpt>
      <trkpt lat="60.00906212255359" lon="30.317148054018617">
        <ele>29.65</ele>
      </trkpt>
      <trkpt lat="60.00878585502505" lon="30.31741895712912">
        <ele>29.25</ele>
      </trkpt>
      <trkpt lat="60.00851511955261" lon="30.317684412002563">
        <ele>28.83</ele>
      </trkpt>
      <trkpt lat="60.008515203371644" lon="30.317684412002563">
        <ele>28.36</ele>
      </trkpt>
      <trkpt lat="60.00828227028251" lon="30.317913740873337">
        <ele>27.81</ele>
      </trkpt>
      <trkpt lat="60.00804933719337" lon="30.31814306974411">
        <ele>27.3</ele>
      </trkpt>
      <trkpt lat="60.00781782902777" lon="30.318371057510376">
        <ele>26.67</ele>
      </trkpt>
      <trkpt lat="60.007753456011415" lon="30.318413972854614">
        <ele>26.09</ele>
      </trkpt>
      <trkpt lat="60.007484732195735" lon="30.318575156852603">
        <ele>25.49</ele>
      </trkpt>
      <trkpt lat="60.007216008380055" lon="30.318736424669623">
        <ele>24.89</ele>
      </trkpt>
      <trkpt lat="60.00694879330695" lon="30.318896770477295">
        <ele>24.29</ele>
      </trkpt>
      <trkpt lat="60.006701527163386" lon="30.319027863442898">
        <ele>23.81</ele>
      </trkpt>
      <trkpt lat="60.00645434483886" lon="30.3191589564085">
        <ele>23.38</ele>
      </trkpt>
      <trkpt lat="60.0062070786953" lon="30.319290133193135">
        <ele>22.89</ele>
      </trkpt>
      <trkpt lat="60.00595989637077" lon="30.319421226158738">
        <ele>22.4</ele>
      </trkpt>
      <trkpt lat="60.005714893341064" lon="30.31955122947693">
        <ele>21.94</ele>
      </trkpt>
      <trkpt lat="60.005714977160096" lon="30.31955122947693">
        <ele>21.64</ele>
      </trkpt>
      <trkpt lat="60.00557550229132" lon="30.319604873657227">
        <ele>21.37</ele>
      </trkpt>
      <trkpt lat="60.005500400438905" lon="30.319637060165405">
        <ele>21.19</ele>
      </trkpt>
      <trkpt lat="60.00550031661987" lon="30.319637060165405">
        <ele>21.07</ele>
      </trkpt>
      <trkpt lat="60.005500400438905" lon="30.319637060165405">
        <ele>21.04</ele>
      </trkpt>
      <trkpt lat="60.00556468963623" lon="30.320162773132324">
        <ele>21.16</ele>
      </trkpt>
      <trkpt lat="60.00557541847229" lon="30.320205688476562">
        <ele>21.3</ele>
      </trkpt>
      <trkpt lat="60.00558614730835" lon="30.320312976837158">
        <ele>21.51</ele>
      </trkpt>
      <trkpt lat="60.00560760498047" lon="30.32051682472229">
        <ele>21.76</ele>
      </trkpt>
      <trkpt lat="60.00566141679883" lon="30.320985037833452">
        <ele>22.05</ele>
      </trkpt>
      <trkpt lat="60.00571522861719" lon="30.321453250944614">
        <ele>22.32</ele>
      </trkpt>
      <trkpt lat="60.00576904043555" lon="30.321921464055777">
        <ele>22.61</ele>
      </trkpt>
      <trkpt lat="60.00582218170166" lon="30.322383642196655">
        <ele>23.0</ele>
      </trkpt>
      <trkpt lat="60.00582226552069" lon="30.322383642196655">
        <ele>23.36</ele>
      </trkpt>
      <trkpt lat="60.005961740389466" lon="30.32272696495056">
        <ele>23.72</ele>
      </trkpt>
      <trkpt lat="60.00609048642218" lon="30.32304883003235">
        <ele>24.08</ele>
      </trkpt>
      <trkpt lat="60.0061119440943" lon="30.32325267791748">
        <ele>24.44</ele>
      </trkpt>
      <trkpt lat="60.00613331794739" lon="30.323456525802612">
        <ele>24.82</ele>
      </trkpt>
      <trkpt lat="60.0061655882746" lon="30.32375693321228">
        <ele>25.17</ele>
      </trkpt>
      <trkpt lat="60.00619777478278" lon="30.324132442474365">
        <ele>25.53</ele>
      </trkpt>
      <trkpt lat="60.00624060630798" lon="30.324615240097046">
        <ele>25.94</ele>
      </trkpt>
      <trkpt lat="60.006278241053224" lon="30.32512108795345">
        <ele>26.23</ele>
      </trkpt>
      <trkpt lat="60.0063157081604" lon="30.325623750686646">
        <ele>26.29</ele>
      </trkpt>
      <trkpt lat="60.0063693523407" lon="30.326106548309326">
        <ele>26.09</ele>
      </trkpt>
      <trkpt lat="60.006307577714324" lon="30.326130436733365">
        <ele>26.07</ele>
      </trkpt>
      <trkpt lat="60.00603684224188" lon="30.32623529434204">
        <ele>25.79</ele>
      </trkpt>
      <trkpt lat="60.00577616505325" lon="30.3263427503407">
        <ele>25.53</ele>
      </trkpt>
      <trkpt lat="60.005515571683645" lon="30.32645020633936">
        <ele>25.27</ele>
      </trkpt>
      <trkpt lat="60.00525489449501" lon="30.32655766233802">
        <ele>24.86</ele>
      </trkpt>
      <trkpt lat="60.004996145144105" lon="30.326664447784424">
        <ele>24.37</ele>
      </trkpt>
      <trkpt lat="60.00491031445563" lon="30.326696634292603">
        <ele>23.94</ele>
      </trkpt>
      <trkpt lat="60.00492104329169" lon="30.326814651489258">
        <ele>23.5</ele>
      </trkpt>
      <trkpt lat="60.004920959472656" lon="30.326814651489258">
        <ele>23.13</ele>
      </trkpt>
      <trkpt lat="60.00493177212775" lon="30.326846837997437">
        <ele>22.74</ele>
      </trkpt>
      <trkpt lat="60.00491031445563" lon="30.326857566833496">
        <ele>22.36</ele>
      </trkpt>
      <trkpt lat="60.00465273857117" lon="30.326954126358032">
        <ele>21.97</ele>
      </trkpt>
      <trkpt lat="60.0044059753418" lon="30.32698631286621">
        <ele>21.67</ele>
      </trkpt>
      <trkpt lat="60.00420715659857" lon="30.3270507697016">
        <ele>21.28</ele>
      </trkpt>
      <trkpt lat="60.004009092226624" lon="30.327115058898926">
        <ele>20.92</ele>
      </trkpt>
      <trkpt lat="60.00394924543798" lon="30.327032329514623">
        <ele>20.63</ele>
      </trkpt>
      <trkpt lat="60.00386953353882" lon="30.326921939849854">
        <ele>20.02</ele>
      </trkpt>
      <trkpt lat="60.00386961735785" lon="30.326921939849854">
        <ele>19.69</ele>
      </trkpt>
      <trkpt lat="60.00381597317755" lon="30.326417684555054">
        <ele>19.58</ele>
      </trkpt>
      <trkpt lat="60.00378378666937" lon="30.326063632965088">
        <ele>19.31</ele>
      </trkpt>
      <trkpt lat="60.00366576947272" lon="30.32550573348999">
        <ele>18.79</ele>
      </trkpt>
      <trkpt lat="60.003472650423646" lon="30.325065851211548">
        <ele>18.14</ele>
      </trkpt>
      <trkpt lat="60.00333309173584" lon="30.324593782424927">
        <ele>17.65</ele>
      </trkpt>
      <trkpt lat="60.003268802538514" lon="30.32404661178589">
        <ele>17.14</ele>
      </trkpt>
      <trkpt lat="60.00321490690112" lon="30.323473373427987">
        <ele>16.54</ele>
      </trkpt>
      <trkpt lat="60.00316109508276" lon="30.322900135070086">
        <ele>15.88</ele>
      </trkpt>
      <trkpt lat="60.0031072832644" lon="30.322326980531216">
        <ele>15.5</ele>
      </trkpt>
      <trkpt lat="60.00305414199829" lon="30.3217613697052">
        <ele>15.3</ele>
      </trkpt>
      <trkpt lat="60.00305422581732" lon="30.3217613697052">
        <ele>15.07</ele>
      </trkpt>
      <trkpt lat="60.00301105901599" lon="30.321287708356977">
        <ele>14.9</ele>
      </trkpt>
      <trkpt lat="60.002968311309814" lon="30.320817232131958">
        <ele>14.78</ele>
      </trkpt>
      <trkpt lat="60.002968395128846" lon="30.320817232131958">
        <ele>14.82</ele>
      </trkpt>
      <trkpt lat="60.002968311309814" lon="30.320817232131958">
        <ele>14.96</ele>
      </trkpt>
      <trkpt lat="60.00309705734253" lon="30.32077431678772">
        <ele>16.03</ele>
      </trkpt>
      <trkpt lat="60.00308775343001" lon="30.32069024629891">
        <ele>16.55</ele>
      </trkpt>
      <trkpt lat="60.00308775343001" lon="30.32069033011794">
        <ele>17.14</ele>
      </trkpt>
      <trkpt lat="60.00307568348944" lon="30.320581197738647">
        <ele>17.82</ele>
      </trkpt>
      <trkpt lat="60.00311851501465" lon="30.320677757263184">
        <ele>18.54</ele>
      </trkpt>
      <trkpt lat="60.00320442952216" lon="30.32047390937805">
        <ele>19.4</ele>
      </trkpt>
      <trkpt lat="60.00334423966706" lon="30.320129664614797">
        <ele>20.33</ele>
      </trkpt>
      <trkpt lat="60.00348404981196" lon="30.31978541985154">
        <ele>21.35</ele>
      </trkpt>
      <trkpt lat="60.00362277030945" lon="30.319443941116333">
        <ele>22.24</ele>
      </trkpt>
      <trkpt lat="60.00362285412848" lon="30.319443941116333">
        <ele>22.86</ele>
      </trkpt>
      <trkpt lat="60.00366568565369" lon="30.319347381591797">
        <ele>23.44</ele>
      </trkpt>
      <trkpt lat="60.00366576947272" lon="30.319347381591797">
        <ele>23.87</ele>
      </trkpt>
      <trkpt lat="60.00379485078156" lon="30.319040771573782">
        <ele>24.26</ele>
      </trkpt>
      <trkpt lat="60.00392326153815" lon="30.3187358379364">
        <ele>24.46</ele>
      </trkpt>
      <trkpt lat="60.00406458042562" lon="30.318505419418216">
        <ele>24.54</ele>
      </trkpt>
      <trkpt lat="60.00406458042562" lon="30.318505335599184">
        <ele>24.54</ele>
      </trkpt>
      <trkpt lat="60.004212940111756" lon="30.31826376914978">
        <ele>24.33</ele>
      </trkpt>
      <trkpt lat="60.00433120876551" lon="30.318016335368156">
        <ele>24.01</ele>
      </trkpt>
      <trkpt lat="60.004448890686035" lon="30.31777024269104">
        <ele>23.6</ele>
      </trkpt>
      <trkpt lat="60.00434168614447" lon="30.317416191101074">
        <ele>22.19</ele>
      </trkpt>
      <trkpt lat="60.0043523311615" lon="30.317169427871704">
        <ele>21.83</ele>
      </trkpt>
      <trkpt lat="60.00428804196417" lon="30.316933393478394">
        <ele>21.5</ele>
      </trkpt>
      <trkpt lat="60.00412669032812" lon="30.31657841987908">
        <ele>21.29</ele>
      </trkpt>
      <trkpt lat="60.003966176882386" lon="30.316225290298462">
        <ele>21.01</ele>
      </trkpt>
      <trkpt lat="60.003944635391235" lon="30.315957069396973">
        <ele>20.7</ele>
      </trkpt>
      <trkpt lat="60.0038047414273" lon="30.315634282305837">
        <ele>20.38</ele>
      </trkpt>
      <trkpt lat="60.00366568565369" lon="30.3153133392334">
        <ele>20.05</ele>
      </trkpt>
      <trkpt lat="60.0036443118006" lon="30.31505584716797">
        <ele>19.75</ele>
      </trkpt>
      <trkpt lat="60.003626961261034" lon="30.314797181636095">
        <ele>19.46</ele>
      </trkpt>
      <trkpt lat="60.00361204147339" lon="30.314573049545288">
        <ele>19.06</ele>
      </trkpt>
      <trkpt lat="60.00365495681763" lon="30.314422845840454">
        <ele>18.87</ele>
      </trkpt>
      <trkpt lat="60.00351548194885" lon="30.313918590545654">
        <ele>18.72</ele>
      </trkpt>
      <trkpt lat="60.00350475311279" lon="30.31350946985185">
        <ele>18.66</ele>
      </trkpt>
      <trkpt lat="60.003494108095765" lon="30.313103199005127">
        <ele>18.51</ele>
      </trkpt>
      <trkpt lat="60.003494108095765" lon="30.312952995300293">
        <ele>18.33</ele>
      </trkpt>
      <trkpt lat="60.003461837768555" lon="30.31277060508728">
        <ele>18.1</ele>
      </trkpt>
      <trkpt lat="60.00338681973517" lon="30.31227707862854">
        <ele>17.86</ele>
      </trkpt>
      <trkpt lat="60.003289924934506" lon="30.31188966706395">
        <ele>17.65</ele>
      </trkpt>
      <trkpt lat="60.003193616867065" lon="30.31150460243225">
        <ele>17.4</ele>
      </trkpt>
      <trkpt lat="60.003150533884764" lon="30.3111170232296">
        <ele>17.15</ele>
      </trkpt>
      <trkpt lat="60.00310778617859" lon="30.310732126235962">
        <ele>16.87</ele>
      </trkpt>
      <trkpt lat="60.00310233794153" lon="30.310129215940833">
        <ele>16.58</ele>
      </trkpt>
      <trkpt lat="60.00309705734253" lon="30.30953049659729">
        <ele>16.19</ele>
      </trkpt>
      <trkpt lat="60.00309714116156" lon="30.30953049659729">
        <ele>14.88</ele>
      </trkpt>
      <trkpt lat="60.00283042900264" lon="30.309580452740192">
        <ele>14.24</ele>
      </trkpt>
      <trkpt lat="60.002563800662756" lon="30.309630408883095">
        <ele>13.57</ele>
      </trkpt>
      <trkpt lat="60.00229851342738" lon="30.309680197387934">
        <ele>12.85</ele>
      </trkpt>
      <trkpt lat="60.002238750457764" lon="30.309691429138184">
        <ele>11.81</ele>
      </trkpt>
      <trkpt lat="60.00234603881836" lon="30.309369564056396">
        <ele>11.38</ele>
      </trkpt>
      <trkpt lat="60.00240521505475" lon="30.308949714526534">
        <ele>10.95</ele>
      </trkpt>
      <trkpt lat="60.002464056015015" lon="30.30853271484375">
        <ele>10.52</ele>
      </trkpt>
      <trkpt lat="60.00263571739197" lon="30.308114290237427">
        <ele>10.11</ele>
      </trkpt>
      <trkpt lat="60.00265717506409" lon="30.307652950286865">
        <ele>9.71</ele>
      </trkpt>
      <trkpt lat="60.002721548080444" lon="30.307137966156006">
        <ele>9.38</ele>
      </trkpt>
      <trkpt lat="60.00287175178528" lon="30.306708812713623">
        <ele>9.03</ele>
      </trkpt>
      <trkpt lat="60.00285037793219" lon="30.306226015090942">
        <ele>8.54</ele>
      </trkpt>
      <trkpt lat="60.00288248062134" lon="30.306172370910645">
        <ele>8.27</ele>
      </trkpt>
      <trkpt lat="60.00288256444037" lon="30.306172370910645">
        <ele>8.09</ele>
      </trkpt>
      <trkpt lat="60.00309621915221" lon="30.305820163339376">
        <ele>7.88</ele>
      </trkpt>
      <trkpt lat="60.003309957683086" lon="30.30546795576811">
        <ele>7.8</ele>
      </trkpt>
      <trkpt lat="60.00352369621396" lon="30.305115832015872">
        <ele>7.8</ele>
      </trkpt>
      <trkpt lat="60.003737434744835" lon="30.304763624444604">
        <ele>7.86</ele>
      </trkpt>
      <trkpt lat="60.00395117327571" lon="30.304411416873336">
        <ele>8.02</ele>
      </trkpt>
      <trkpt lat="60.00416491180658" lon="30.304059209302068">
        <ele>8.17</ele>
      </trkpt>
      <trkpt lat="60.00437865033746" lon="30.3037070017308">
        <ele>8.31</ele>
      </trkpt>
      <trkpt lat="60.00458836555481" lon="30.303361415863037">
        <ele>8.58</ele>
      </trkpt>
      <trkpt lat="60.00458844937384" lon="30.303361415863037">
        <ele>8.76</ele>
      </trkpt>
      <trkpt lat="60.00468324869871" lon="30.303187491372228">
        <ele>9.03</ele>
      </trkpt>
      <trkpt lat="60.00468324869871" lon="30.303187407553196">
        <ele>9.22</ele>
      </trkpt>
      <trkpt lat="60.00491031445563" lon="30.30277132987976">
        <ele>9.43</ele>
      </trkpt>
      <trkpt lat="60.00513562001288" lon="30.302352905273438">
        <ele>9.64</ele>
      </trkpt>
      <trkpt lat="60.0053505320102" lon="30.30225969851017">
        <ele>9.74</ele>
      </trkpt>
      <trkpt lat="60.005565444007516" lon="30.302166575565934">
        <ele>9.87</ele>
      </trkpt>
      <trkpt lat="60.00577926635742" lon="30.30207395553589">
        <ele>10.04</ele>
      </trkpt>
      <trkpt lat="60.00602644868195" lon="30.301821241155267">
        <ele>10.23</ele>
      </trkpt>
      <trkpt lat="60.00627279281616" lon="30.30156970024109">
        <ele>10.39</ele>
      </trkpt>
      <trkpt lat="60.006272876635194" lon="30.30156970024109">
        <ele>10.56</ele>
      </trkpt>
      <trkpt lat="60.006476640701294" lon="30.30132293701172">
        <ele>10.85</ele>
      </trkpt>
      <trkpt lat="60.006508911028504" lon="30.30105471611023">
        <ele>11.05</ele>
      </trkpt>
      <trkpt lat="60.00648728571832" lon="30.30072631314397">
        <ele>11.22</ele>
      </trkpt>
      <trkpt lat="60.006465911865234" lon="30.300400257110596">
        <ele>11.34</ele>
      </trkpt>
      <trkpt lat="60.006594909355044" lon="30.300201270729303">
        <ele>11.56</ele>
      </trkpt>
      <trkpt lat="60.006723403930664" lon="30.30000329017639">
        <ele>11.77</ele>
      </trkpt>
      <trkpt lat="60.006906213238835" lon="30.29974521137774">
        <ele>11.93</ele>
      </trkpt>
      <trkpt lat="60.00708902254701" lon="30.299487132579088">
        <ele>12.12</ele>
      </trkpt>
      <trkpt lat="60.007270658388734" lon="30.299230813980103">
        <ele>12.41</ele>
      </trkpt>
      <trkpt lat="60.0072705745697" lon="30.299230813980103">
        <ele>12.92</ele>
      </trkpt>
      <trkpt lat="60.00743159092963" lon="30.299166440963745">
        <ele>13.23</ele>
      </trkpt>
      <trkpt lat="60.007641054689884" lon="30.299166440963745">
        <ele>13.65</ele>
      </trkpt>
      <trkpt lat="60.00784993171692" lon="30.299166440963745">
        <ele>13.98</ele>
      </trkpt>
      <trkpt lat="60.00813290476799" lon="30.299155628308654">
        <ele>14.21</ele>
      </trkpt>
      <trkpt lat="60.00841587781906" lon="30.299144899472594">
        <ele>14.42</ele>
      </trkpt>
      <trkpt lat="60.008697509765625" lon="30.299134254455566">
        <ele>14.6</ele>
      </trkpt>
      <trkpt lat="60.00892021693289" lon="30.299104750156403">
        <ele>14.74</ele>
      </trkpt>
      <trkpt lat="60.00914292410016" lon="30.29907524585724">
        <ele>14.85</ele>
      </trkpt>
      <trkpt lat="60.00936462543905" lon="30.29904599301517">
        <ele>14.97</ele>
      </trkpt>
      <trkpt lat="60.00942715443671" lon="30.29903769493103">
        <ele>15.07</ele>
      </trkpt>
      <trkpt lat="60.009597055613995" lon="30.29909234493971">
        <ele>15.13</ele>
      </trkpt>
      <trkpt lat="60.009727478027344" lon="30.299134254455566">
        <ele>15.01</ele>
      </trkpt>
      <trkpt lat="60.00966821797192" lon="30.299570113420486">
        <ele>14.93</ele>
      </trkpt>
      <trkpt lat="60.00960946083069" lon="30.30000329017639">
        <ele>14.74</ele>
      </trkpt>
      <trkpt lat="60.00956637784839" lon="30.30035843141377">
        <ele>14.58</ele>
      </trkpt>
      <trkpt lat="60.009523713961244" lon="30.300711393356323">
        <ele>14.4</ele>
      </trkpt>
      <trkpt lat="60.00941064208746" lon="30.301244063302875">
        <ele>14.3</ele>
      </trkpt>
      <trkpt lat="60.00929840840399" lon="30.30177354812622">
        <ele>14.31</ele>
      </trkpt>
      <trkpt lat="60.009418688714504" lon="30.302324909716845">
        <ele>14.32</ele>
      </trkpt>
      <trkpt lat="60.009538382291794" lon="30.30287300236523">
        <ele>14.48</ele>
      </trkpt>
      <trkpt lat="60.00963100232184" lon="30.30329704284668">
        <ele>14.92</ele>
      </trkpt>
      <trkpt lat="60.00965245999396" lon="30.303490161895752">
        <ele>15.22</ele>
      </trkpt>
      <trkpt lat="60.00983526930213" lon="30.303871957585216">
        <ele>15.52</ele>
      </trkpt>
      <trkpt lat="60.01001715660095" lon="30.30425190925598">
        <ele>15.95</ele>
      </trkpt>
      <trkpt lat="60.010017240419984" lon="30.30425190925598">
        <ele>16.5</ele>
      </trkpt>
      <trkpt lat="60.01002796925604" lon="30.30426263809204">
        <ele>17.12</ele>
      </trkpt>
      <trkpt lat="60.010103238746524" lon="30.304585425183177">
        <ele>17.94</ele>
      </trkpt>
      <trkpt lat="60.010178089141846" lon="30.304906368255615">
        <ele>18.85</ele>
      </trkpt>
      <trkpt lat="60.01025344245136" lon="30.30523451976478">
        <ele>19.82</ele>
      </trkpt>
      <trkpt lat="60.01032837666571" lon="30.30556082725525">
        <ele>20.76</ele>
      </trkpt>
      <trkpt lat="60.01010399311781" lon="30.305898617953062">
        <ele>21.69</ele>
      </trkpt>
      <trkpt lat="60.00987960956991" lon="30.306236408650875">
        <ele>22.53</ele>
      </trkpt>
      <trkpt lat="60.00965681858361" lon="30.306571936234832">
        <ele>23.32</ele>
      </trkpt>
      <trkpt lat="60.00941642560065" lon="30.306934118270874">
        <ele>24.79</ele>
      </trkpt>
      <trkpt lat="60.009416341781616" lon="30.306934118270874">
        <ele>25.4</ele>
      </trkpt>
      <trkpt lat="60.0093948841095" lon="30.306966304779053">
        <ele>25.93</ele>
      </trkpt>
      <trkpt lat="60.00940569676459" lon="30.30699849128723">
        <ele>26.4</ele>
      </trkpt>
      <trkpt lat="60.009427070617676" lon="30.30701994895935">
        <ele>26.77</ele>
      </trkpt>
      <trkpt lat="60.00942715443671" lon="30.30701994895935">
        <ele>27.04</ele>
      </trkpt>
      <trkpt lat="60.00964432954788" lon="30.307417837902904">
        <ele>27.32</ele>
      </trkpt>
      <trkpt lat="60.00986158847809" lon="30.307815726846457">
        <ele>27.35</ele>
      </trkpt>
      <trkpt lat="60.010078847408295" lon="30.30821369960904">
        <ele>27.41</ele>
      </trkpt>
      <trkpt lat="60.0102961063385" lon="30.308611588552594">
        <ele>27.32</ele>
      </trkpt>
      <trkpt lat="60.010510766878724" lon="30.30900478363037">
        <ele>27.07</ele>
      </trkpt>
      <trkpt lat="60.0105429533869" lon="30.30906915664673">
        <ele>26.7</ele>
      </trkpt>
      <trkpt lat="60.01074369996786" lon="30.3094419836998">
        <ele>26.25</ele>
      </trkpt>
      <trkpt lat="60.01094444654882" lon="30.30981481075287">
        <ele>25.6</ele>
      </trkpt>
      <trkpt lat="60.01114519312978" lon="30.31018763780594">
        <ele>24.94</ele>
      </trkpt>
      <trkpt lat="60.011345939710736" lon="30.31056046485901">
        <ele>24.24</ele>
      </trkpt>
      <trkpt lat="60.011546686291695" lon="30.31093329191208">
        <ele>23.51</ele>
      </trkpt>
      <trkpt lat="60.01174449920654" lon="30.31130075454712">
        <ele>22.63</ele>
      </trkpt>
      <trkpt lat="60.011744583025575" lon="30.31130075454712">
        <ele>21.97</ele>
      </trkpt>
      <trkpt lat="60.01187332905829" lon="30.31154751777649">
        <ele>21.2</ele>
      </trkpt>
      <trkpt lat="60.01200769096613" lon="30.31180023215711">
        <ele>20.53</ele>
      </trkpt>
      <trkpt lat="60.01214146614075" lon="30.31205177307129">
        <ele>19.99</ele>
      </trkpt>
      <trkpt lat="60.012259567156434" lon="30.31226634979248">
        <ele>19.59</ele>
      </trkpt>
      <trkpt lat="60.01229175366461" lon="30.312330722808838">
        <ele>19.39</ele>
      </trkpt>
      <trkpt lat="60.01229166984558" lon="30.312330722808838">
        <ele>19.34</ele>
      </trkpt>
      <trkpt lat="60.01248076558113" lon="30.31266608275473">
        <ele>19.49</ele>
      </trkpt>
      <trkpt lat="60.012669023126364" lon="30.312999933958054">
        <ele>19.86</ele>
      </trkpt>
      <trkpt lat="60.01266893930733" lon="30.312999933958054">
        <ele>20.21</ele>
      </trkpt>
      <trkpt lat="60.01286029815674" lon="30.313339233398438">
        <ele>20.75</ele>
      </trkpt>
      <trkpt lat="60.01273155212402" lon="30.313478708267212">
        <ele>21.35</ele>
      </trkpt>
      <trkpt lat="60.012731635943055" lon="30.313478708267212">
        <ele>22.01</ele>
      </trkpt>
      <trkpt lat="60.012505827471614" lon="30.313718765974045">
        <ele>22.87</ele>
      </trkpt>
      <trkpt lat="60.01228001900017" lon="30.31395890749991">
        <ele>23.85</ele>
      </trkpt>
      <trkpt lat="60.01205563545227" lon="30.314197540283203">
        <ele>24.82</ele>
      </trkpt>
      <trkpt lat="60.0120557192713" lon="30.314197540283203">
        <ele>25.59</ele>
      </trkpt>
      <trkpt lat="60.01177618280053" lon="30.314476992934942">
        <ele>26.46</ele>
      </trkpt>
      <trkpt lat="60.011497819796205" lon="30.3147554397583">
        <ele>27.25</ele>
      </trkpt>
      <trkpt lat="60.01143344677985" lon="30.314819812774658">
        <ele>27.86</ele>
      </trkpt>
      <trkpt lat="60.011272514238954" lon="30.31498074531555">
        <ele>28.35</ele>
      </trkpt>
      <trkpt lat="60.01099616289139" lon="30.315251648426056">
        <ele>28.73</ele>
      </trkpt>
      <trkpt lat="60.010719895362854" lon="30.31552255153656">
        <ele>29.1</ele>
      </trkpt>
      <trkpt lat="60.01044362783432" lon="30.315793454647064">
        <ele>29.38</ele>
      </trkpt>
      <trkpt lat="60.010167276486754" lon="30.3160644415766">
        <ele>29.49</ele>
      </trkpt>
      <trkpt lat="60.00989100895822" lon="30.316335344687104">
        <ele>29.66</ele>
      </trkpt>
      <trkpt lat="60.00961474142969" lon="30.31660624779761">
        <ele>29.74</ele>
      </trkpt>
      <trkpt lat="60.00933847390115" lon="30.316877150908113">
        <ele>29.59</ele>
      </trkpt>
      <trkpt lat="60.00906212255359" lon="30.317148054018617">
        <ele>29.36</ele>
      </trkpt>
      <trkpt lat="60.00878585502505" lon="30.31741895712912">
        <ele>29.11</ele>
      </trkpt>
      <trkpt lat="60.00851511955261" lon="30.317684412002563">
        <ele>28.82</ele>
      </trkpt>
      <trkpt lat="60.008515203371644" lon="30.317684412002563">
        <ele>28.46</ele>
      </trkpt>
      <trkpt lat="60.00828227028251" lon="30.317913740873337">
        <ele>28.0</ele>
      </trkpt>
      <trkpt lat="60.00804933719337" lon="30.31814306974411">
        <ele>27.56</ele>
      </trkpt>
      <trkpt lat="60.00781782902777" lon="30.318371057510376">
        <ele>26.98</ele>
      </trkpt>
      <trkpt lat="60.007753456011415" lon="30.318413972854614">
        <ele>26.45</ele>
      </trkpt>
      <trkpt lat="60.007484732195735" lon="30.318575156852603">
        <ele>25.88</ele>
      </trkpt>
      <trkpt lat="60.007216008380055" lon="30.318736424669623">
        <ele>25.31</ele>
      </trkpt>
      <trkpt lat="60.00694879330695" lon="30.318896770477295">
        <ele>24.72</ele>
      </trkpt>
      <trkpt lat="60.00669649802148" lon="30.319030545651913">
        <ele>24.25</ele>
      </trkpt>
      <trkpt lat="60.00644428655505" lon="30.31916432082653">
        <ele>23.83</ele>
      </trkpt>
      <trkpt lat="60.00619207508862" lon="30.31929809600115">
        <ele>23.34</ele>
      </trkpt>
      <trkpt lat="60.005941707640886" lon="30.319430949166417">
        <ele>22.85</ele>
      </trkpt>
      <trkpt lat="60.005714893341064" lon="30.31955122947693">
        <ele>22.11</ele>
      </trkpt>
      <trkpt lat="60.005714977160096" lon="30.31955122947693">
        <ele>21.87</ele>
      </trkpt>
      <trkpt lat="60.00557550229132" lon="30.319604873657227">
        <ele>21.68</ele>
      </trkpt>
      <trkpt lat="60.005500400438905" lon="30.319637060165405">
        <ele>21.57</ele>
      </trkpt>
      <trkpt lat="60.00556468963623" lon="30.320162773132324">
        <ele>21.58</ele>
      </trkpt>
      <trkpt lat="60.00557541847229" lon="30.320205688476562">
        <ele>21.62</ele>
      </trkpt>
      <trkpt lat="60.00558614730835" lon="30.320312976837158">
        <ele>21.73</ele>
      </trkpt>
      <trkpt lat="60.00560760498047" lon="30.32051682472229">
        <ele>21.91</ele>
      </trkpt>
      <trkpt lat="60.00566141679883" lon="30.320985037833452">
        <ele>22.13</ele>
      </trkpt>
      <trkpt lat="60.00571522861719" lon="30.321453250944614">
        <ele>22.34</ele>
      </trkpt>
      <trkpt lat="60.00576904043555" lon="30.321921464055777">
        <ele>22.6</ele>
      </trkpt>
      <trkpt lat="60.00582218170166" lon="30.322383642196655">
        <ele>22.97</ele>
      </trkpt>
      <trkpt lat="60.00582226552069" lon="30.322383642196655">
        <ele>23.31</ele>
      </trkpt>
      <trkpt lat="60.005961740389466" lon="30.32272696495056">
        <ele>23.67</ele>
      </trkpt>
      <trkpt lat="60.00609048642218" lon="30.32304883003235">
        <ele>24.05</ele>
      </trkpt>
      <trkpt lat="60.0061119440943" lon="30.32325267791748">
        <ele>24.42</ele>
      </trkpt>
      <trkpt lat="60.00613331794739" lon="30.323456525802612">
        <ele>24.83</ele>
      </trkpt>
      <trkpt lat="60.0061655882746" lon="30.32375693321228">
        <ele>25.21</ele>
      </trkpt>
      <trkpt lat="60.00619777478278" lon="30.324132442474365">
        <ele>25.62</ele>
      </trkpt>
      <trkpt lat="60.00624060630798" lon="30.324615240097046">
        <ele>26.06</ele>
      </trkpt>
      <trkpt lat="60.006278241053224" lon="30.32512108795345">
        <ele>26.41</ele>
      </trkpt>
      <trkpt lat="60.0063157081604" lon="30.325623750686646">
        <ele>26.5</ele>
      </trkpt>
      <trkpt lat="60.00634026713669" lon="30.325844949111342">
        <ele>26.49</ele>
      </trkpt>
      <trkpt lat="60.0063693523407" lon="30.326106548309326">
        <ele>26.25</ele>
      </trkpt>
      <trkpt lat="60.00620280392468" lon="30.326171005144715">
        <ele>26.14</ele>
      </trkpt>
      <trkpt lat="60.00603684224188" lon="30.32623529434204">
        <ele>25.91</ele>
      </trkpt>
      <trkpt lat="60.00577616505325" lon="30.3263427503407">
        <ele>25.6</ele>
      </trkpt>
      <trkpt lat="60.005515571683645" lon="30.32645020633936">
        <ele>25.3</ele>
      </trkpt>
      <trkpt lat="60.00525489449501" lon="30.32655766233802">
        <ele>24.85</ele>
      </trkpt>
      <trkpt lat="60.004996145144105" lon="30.326664447784424">
        <ele>24.32</ele>
      </trkpt>
      <trkpt lat="60.00491031445563" lon="30.326696634292603">
        <ele>23.86</ele>
      </trkpt>
      <trkpt lat="60.00492104329169" lon="30.326814651489258">
        <ele>23.4</ele>
      </trkpt>
      <trkpt lat="60.004920959472656" lon="30.326814651489258">
        <ele>23.01</ele>
      </trkpt>
      <trkpt lat="60.00493177212775" lon="30.326846837997437">
        <ele>22.61</ele>
      </trkpt>
      <trkpt lat="60.00491031445563" lon="30.326857566833496">
        <ele>22.23</ele>
      </trkpt>
      <trkpt lat="60.00465273857117" lon="30.326954126358032">
        <ele>21.84</ele>
      </trkpt>
      <trkpt lat="60.0044059753418" lon="30.32698631286621">
        <ele>21.56</ele>
      </trkpt>
      <trkpt lat="60.00420715659857" lon="30.3270507697016">
        <ele>21.2</ele>
      </trkpt>
      <trkpt lat="60.004009092226624" lon="30.327115058898926">
        <ele>20.87</ele>
      </trkpt>
      <trkpt lat="60.00386953353882" lon="30.326921939849854">
        <ele>20.67</ele>
      </trkpt>
      <trkpt lat="60.00386961735785" lon="30.326921939849854">
        <ele>20.4</ele>
      </trkpt>
      <trkpt lat="60.00386953353882" lon="30.326921939849854">
        <ele>20.15</ele>
      </trkpt>
      <trkpt lat="60.00386961735785" lon="30.326921939849854">
        <ele>19.35</ele>
      </trkpt>
      <trkpt lat="60.00381597317755" lon="30.326417684555054">
        <ele>19.31</ele>
      </trkpt>
      <trkpt lat="60.00378378666937" lon="30.326063632965088">
        <ele>19.1</ele>
      </trkpt>
      <trkpt lat="60.00366576947272" lon="30.32550573348999">
        <ele>18.65</ele>
      </trkpt>
      <trkpt lat="60.003472650423646" lon="30.325065851211548">
        <ele>18.08</ele>
      </trkpt>
      <trkpt lat="60.00333309173584" lon="30.324593782424927">
        <ele>17.67</ele>
      </trkpt>
      <trkpt lat="60.003268802538514" lon="30.32404661178589">
        <ele>17.25</ele>
      </trkpt>
      <trkpt lat="60.00321490690112" lon="30.323473373427987">
        <ele>16.75</ele>
      </trkpt>
      <trkpt lat="60.00316109508276" lon="30.322900135070086">
        <ele>16.21</ele>
      </trkpt>
      <trkpt lat="60.0031072832644" lon="30.322326980531216">
        <ele>15.96</ele>
      </trkpt>
      <trkpt lat="60.00305414199829" lon="30.3217613697052">
        <ele>15.9</ele>
      </trkpt>
      <trkpt lat="60.00305422581732" lon="30.3217613697052">
        <ele>15.82</ele>
      </trkpt>
      <trkpt lat="60.0030258949846" lon="30.321450317278504">
        <ele>15.83</ele>
      </trkpt>
      <trkpt lat="60.00299781560898" lon="30.321141444146633">
        <ele>15.88</ele>
      </trkpt>
      <trkpt lat="60.00299781560898" lon="30.321141527965665">
        <ele>16.1</ele>
      </trkpt>
      <trkpt lat="60.002968311309814" lon="30.320817232131958">
        <ele>16.4</ele>
      </trkpt>
      <trkpt lat="60.00309705734253" lon="30.32077431678772">
        <ele>17.39</ele>
      </trkpt>
      <trkpt lat="60.00307568348944" lon="30.320581197738647">
        <ele>17.98</ele>
      </trkpt>
      <trkpt lat="60.00311851501465" lon="30.320677757263184">
        <ele>18.64</ele>
      </trkpt>
      <trkpt lat="60.00320442952216" lon="30.32047390937805">
        <ele>19.46</ele>
      </trkpt>
      <trkpt lat="60.00334423966706" lon="30.320129664614797">
        <ele>20.35</ele>
      </trkpt>
      <trkpt lat="60.00348404981196" lon="30.31978541985154">
        <ele>21.36</ele>
      </trkpt>
      <trkpt lat="60.00362277030945" lon="30.319443941116333">
        <ele>22.24</ele>
      </trkpt>
      <trkpt lat="60.00362285412848" lon="30.319443941116333">
        <ele>22.87</ele>
      </trkpt>
      <trkpt lat="60.00366568565369" lon="30.319347381591797">
        <ele>23.47</ele>
      </trkpt>
      <trkpt lat="60.00366576947272" lon="30.319347381591797">
        <ele>23.93</ele>
      </trkpt>
      <trkpt lat="60.00379485078156" lon="30.319040771573782">
        <ele>24.36</ele>
      </trkpt>
      <trkpt lat="60.00392326153815" lon="30.3187358379364">
        <ele>24.6</ele>
      </trkpt>
      <trkpt lat="60.00406843610108" lon="30.31849921680987">
        <ele>24.72</ele>
      </trkpt>
      <trkpt lat="60.004212940111756" lon="30.31826376914978">
        <ele>24.66</ele>
      </trkpt>
      <trkpt lat="60.004212856292725" lon="30.31826376914978">
        <ele>24.62</ele>
      </trkpt>
      <trkpt lat="60.004212940111756" lon="30.31826376914978">
        <ele>24.29</ele>
      </trkpt>
      <trkpt lat="60.00433120876551" lon="30.318016335368156">
        <ele>23.88</ele>
      </trkpt>
      <trkpt lat="60.004448890686035" lon="30.31777024269104">
        <ele>23.4</ele>
      </trkpt>
      <trkpt lat="60.00434168614447" lon="30.317416191101074">
        <ele>22.94</ele>
      </trkpt>
      <trkpt lat="60.0043523311615" lon="30.317169427871704">
        <ele>22.58</ele>
      </trkpt>
      <trkpt lat="60.00428804196417" lon="30.316933393478394">
        <ele>22.25</ele>
      </trkpt>
      <trkpt lat="60.00412669032812" lon="30.31657841987908">
        <ele>22.01</ele>
      </trkpt>
      <trkpt lat="60.003966176882386" lon="30.316225290298462">
        <ele>21.69</ele>
      </trkpt>
      <trkpt lat="60.003944635391235" lon="30.315957069396973">
        <ele>21.35</ele>
      </trkpt>
      <trkpt lat="60.0038047414273" lon="30.315634282305837">
        <ele>20.98</ele>
      </trkpt>
      <trkpt lat="60.00366568565369" lon="30.3153133392334">
        <ele>20.6</ele>
      </trkpt>
      <trkpt lat="60.00365026295185" lon="30.31512868590653">
        <ele>20.27</ele>
      </trkpt>
      <trkpt lat="60.00365026295185" lon="30.315128602087498">
        <ele>19.99</ele>
      </trkpt>
      <trkpt lat="60.0036443118006" lon="30.31505584716797">
        <ele>19.7</ele>
      </trkpt>
      <trkpt lat="60.00361204147339" lon="30.314573049545288">
        <ele>19.38</ele>
      </trkpt>
      <trkpt lat="60.00365495681763" lon="30.314422845840454">
        <ele>19.13</ele>
      </trkpt>
      <trkpt lat="60.00351548194885" lon="30.313918590545654">
        <ele>18.92</ele>
      </trkpt>
      <trkpt lat="60.00350475311279" lon="30.31350946985185">
        <ele>18.8</ele>
      </trkpt>
      <trkpt lat="60.003494108095765" lon="30.313103199005127">
        <ele>18.57</ele>
      </trkpt>
      <trkpt lat="60.003494108095765" lon="30.312952995300293">
        <ele>18.34</ele>
      </trkpt>
      <trkpt lat="60.003461837768555" lon="30.31277060508728">
        <ele>18.04</ele>
      </trkpt>
      <trkpt lat="60.00338681973517" lon="30.31227707862854">
        <ele>17.74</ele>
      </trkpt>
      <trkpt lat="60.003289924934506" lon="30.31188966706395">
        <ele>17.47</ele>
      </trkpt>
      <trkpt lat="60.003193616867065" lon="30.31150460243225">
        <ele>17.15</ele>
      </trkpt>
      <trkpt lat="60.003150533884764" lon="30.3111170232296">
        <ele>16.85</ele>
      </trkpt>
      <trkpt lat="60.00310778617859" lon="30.310732126235962">
        <ele>16.51</ele>
      </trkpt>
      <trkpt lat="60.003103595227" lon="30.310265170410275">
        <ele>16.14</ele>
      </trkpt>
      <trkpt lat="60.00309948809445" lon="30.309801483526826">
        <ele>15.71</ele>
      </trkpt>
      <trkpt lat="60.00309948809445" lon="30.309801399707794">
        <ele>15.26</ele>
      </trkpt>
      <trkpt lat="60.00309714116156" lon="30.30953049659729">
        <ele>14.77</ele>
      </trkpt>
      <trkpt lat="60.002810480073094" lon="30.30958422459662">
        <ele>14.1</ele>
      </trkpt>
      <trkpt lat="60.00252390280366" lon="30.30963795259595">
        <ele>13.4</ele>
      </trkpt>
      <trkpt lat="60.002238834276795" lon="30.309691429138184">
        <ele>12.7</ele>
      </trkpt>
      <trkpt lat="60.002238750457764" lon="30.309691429138184">
        <ele>12.21</ele>
      </trkpt>
      <trkpt lat="60.00234603881836" lon="30.309369564056396">
        <ele>10.92</ele>
      </trkpt>
      <trkpt lat="60.00240521505475" lon="30.308949714526534">
        <ele>10.55</ele>
      </trkpt>
      <trkpt lat="60.002464056015015" lon="30.30853271484375">
        <ele>10.17</ele>
      </trkpt>
      <trkpt lat="60.00263571739197" lon="30.308114290237427">
        <ele>9.8</ele>
      </trkpt>
      <trkpt lat="60.00265717506409" lon="30.307652950286865">
        <ele>9.43</ele>
      </trkpt>
      <trkpt lat="60.002721548080444" lon="30.307137966156006">
        <ele>9.14</ele>
      </trkpt>
      <trkpt lat="60.00287175178528" lon="30.306708812713623">
        <ele>8.81</ele>
      </trkpt>
      <trkpt lat="60.00285037793219" lon="30.306226015090942">
        <ele>8.34</ele>
      </trkpt>
      <trkpt lat="60.00288248062134" lon="30.306172370910645">
        <ele>8.12</ele>
      </trkpt>
      <trkpt lat="60.00288256444037" lon="30.306172370910645">
        <ele>7.99</ele>
      </trkpt>
      <trkpt lat="60.00309621915221" lon="30.305820163339376">
        <ele>7.83</ele>
      </trkpt>
      <trkpt lat="60.003309957683086" lon="30.30546795576811">
        <ele>7.81</ele>
      </trkpt>
      <trkpt lat="60.00352369621396" lon="30.305115832015872">
        <ele>7.88</ele>
      </trkpt>
      <trkpt lat="60.003737434744835" lon="30.304763624444604">
        <ele>8.01</ele>
      </trkpt>
      <trkpt lat="60.00395117327571" lon="30.304411416873336">
        <ele>8.25</ele>
      </trkpt>
      <trkpt lat="60.00416491180658" lon="30.304059209302068">
        <ele>8.46</ele>
      </trkpt>
      <trkpt lat="60.00437865033746" lon="30.3037070017308">
        <ele>8.66</ele>
      </trkpt>
      <trkpt lat="60.00458836555481" lon="30.303361415863037">
        <ele>8.98</ele>
      </trkpt>
      <trkpt lat="60.00458844937384" lon="30.303361415863037">
        <ele>9.2</ele>
      </trkpt>
      <trkpt lat="60.00470814295113" lon="30.303141809999943">
        <ele>9.52</ele>
      </trkpt>
      <trkpt lat="60.00482733361423" lon="30.30292329378426">
        <ele>9.73</ele>
      </trkpt>
      <trkpt lat="60.00491031445563" lon="30.30277132987976">
        <ele>10.05</ele>
      </trkpt>
      <trkpt lat="60.00513562001288" lon="30.302352905273438">
        <ele>10.21</ele>
      </trkpt>
      <trkpt lat="60.0053505320102" lon="30.30225969851017">
        <ele>10.25</ele>
      </trkpt>
      <trkpt lat="60.005565444007516" lon="30.302166575565934">
        <ele>10.32</ele>
      </trkpt>
      <trkpt lat="60.00577926635742" lon="30.30207395553589">
        <ele>10.44</ele>
      </trkpt>
      <trkpt lat="60.00602644868195" lon="30.301821241155267">
        <ele>10.57</ele>
      </trkpt>
      <trkpt lat="60.00627279281616" lon="30.30156970024109">
        <ele>10.66</ele>
      </trkpt>
      <trkpt lat="60.006272876635194" lon="30.30156970024109">
        <ele>10.76</ele>
      </trkpt>
      <trkpt lat="60.006476640701294" lon="30.30132293701172">
        <ele>10.96</ele>
      </trkpt>
      <trkpt lat="60.006508911028504" lon="30.30105471611023">
        <ele>11.03</ele>
      </trkpt>
      <trkpt lat="60.00648728571832" lon="30.30072631314397">
        <ele>11.04</ele>
      </trkpt>
      <trkpt lat="60.006465911865234" lon="30.300400257110596">
        <ele>11.01</ele>
      </trkpt>
      <trkpt lat="60.006594909355044" lon="30.300201270729303">
        <ele>11.1</ele>
      </trkpt>
      <trkpt lat="60.006723403930664" lon="30.30000329017639">
        <ele>11.17</ele>
      </trkpt>
      <trkpt lat="60.006906213238835" lon="30.29974521137774">
        <ele>11.21</ele>
      </trkpt>
      <trkpt lat="60.00708902254701" lon="30.299487132579088">
        <ele>11.32</ele>
      </trkpt>
      <trkpt lat="60.007270658388734" lon="30.299230813980103">
        <ele>11.6</ele>
      </trkpt>
      <trkpt lat="60.0072705745697" lon="30.299230813980103">
        <ele>12.19</ele>
      </trkpt>
      <trkpt lat="60.00743159092963" lon="30.299166440963745">
        <ele>12.63</ele>
      </trkpt>
      <trkpt lat="60.007641054689884" lon="30.299166440963745">
        <ele>13.22</ele>
      </trkpt>
      <trkpt lat="60.00784993171692" lon="30.299166440963745">
        <ele>13.59</ele>
      </trkpt>
      <trkpt lat="60.00813290476799" lon="30.299155628308654">
        <ele>13.84</ele>
      </trkpt>
      <trkpt lat="60.00841587781906" lon="30.299144899472594">
        <ele>14.09</ele>
      </trkpt>
      <trkpt lat="60.008697509765625" lon="30.299134254455566">
        <ele>14.36</ele>
      </trkpt>
      <trkpt lat="60.00889029353857" lon="30.299108773469925">
        <ele>14.62</ele>
      </trkpt>
      <trkpt lat="60.00915910117328" lon="30.299073150381446">
        <ele>15.31</ele>
      </trkpt>
      <trkpt lat="60.00942715443671" lon="30.29903769493103">
        <ele>15.87</ele>
      </trkpt>
      <trkpt lat="60.009727478027344" lon="30.299134254455566">
        <ele>16.39</ele>
      </trkpt>
      <trkpt lat="60.00977517105639" lon="30.29913878068328">
        <ele>16.63</ele>
      </trkpt>
    </trkseg>
  </trk>
</gpx>
