<?xml version="1.0" encoding="UTF-8"?>
<gpx creator="Garmin Connect" version="1.1"
  xsi:schemaLocation="http://www.topografix.com/GPX/1/1 http://www.topografix.com/GPX/11.xsd"
  xmlns:ns3="http://www.garmin.com/xmlschemas/TrackPointExtension/v1"
  xmlns="http://www.topografix.com/GPX/1/1"
  xmlns:xsi="http://www.w3.org/2001/XMLSchema-instance" xmlns:ns2="http://www.garmin.com/xmlschemas/GpxExtensions/v3">
  <metadata>
    <name>Удельный парк</name>
    <link href="connect.garmin.com">
      <text>Garmin Connect</text>
    </link>
    <time>2026-09-25T19:58:31.000Z</time>
  </metadata>
  <wpt lat="60.00939733857771" lon="30.30700927021146">
    <ele>0.0</ele>
    <name>Смотровая площа</name>
    <type>GENERIC</type>
  </wpt>
  <trk>
    <name>Удельный парк</name>
    <trkseg>
      <trkpt lat="60.00957987271249" lon="30.298672830685973">
        <ele>15.24</ele>
      </trkpt>
      <trkpt lat="60.00972295179963" lon="30.299155628308654">
        <ele>15.35</ele>
      </trkpt>
      <trkpt lat="60.01002193428576" lon="30.299195693805814">
        <ele>15.09</ele>
      </trkpt>
      <trkpt lat="60.01031999476254" lon="30.299235675483942">
        <ele>14.67</ele>
      </trkpt>
      <trkpt lat="60.0104327313602" lon="30.299356374889612">
        <ele>14.28</ele>
      </trkpt>
      <trkpt lat="60.01049593091011" lon="30.299670193344355">
        <ele>13.96</ele>
      </trkpt>
      <trkpt lat="60.010528871789575" lon="30.300061712041497">
        <ele>13.72</ele>
      </trkpt>
      <trkpt lat="60.01056172885001" lon="30.30045071616769">
        <ele>13.53</ele>
      </trkpt>
      <trkpt lat="60.010318234562874" lon="30.300624053925276">
        <ele>13.46</ele>
      </trkpt>
      <trkpt lat="60.01007474027574" lon="30.300797475501895">
        <ele>13.46</ele>
      </trkpt>
      <trkpt lat="60.00983267091215" lon="30.300969807431102">
        <ele>13.27</ele>
      </trkpt>
      <trkpt lat="60.00966042280197" lon="30.30124238692224">
        <ele>13.15</ele>
      </trkpt>
      <trkpt lat="60.009488090872765" lon="30.30151496641338">
        <ele>13.2</ele>
      </trkpt>
      <trkpt lat="60.00931701622903" lon="30.301785618066788">
        <ele>13.42</ele>
      </trkpt>
      <trkpt lat="60.009432937949896" lon="30.302320132032037">
        <ele>13.65</ele>
      </trkpt>
      <trkpt lat="60.00954877585173" lon="30.302854645997286">
        <ele>14.1</ele>
      </trkpt>
      <trkpt lat="60.009663524106145" lon="30.303384214639664">
        <ele>14.67</ele>
      </trkpt>
      <trkpt lat="60.00965774059296" lon="30.303632905706763">
        <ele>15.24</ele>
      </trkpt>
      <trkpt lat="60.00982269644737" lon="30.303901713341475">
        <ele>15.76</ele>
      </trkpt>
      <trkpt lat="60.00998681411147" lon="30.304169347509742">
        <ele>16.36</ele>
      </trkpt>
      <trkpt lat="60.01007507555187" lon="30.30453085899353">
        <ele>17.23</ele>
      </trkpt>
      <trkpt lat="60.01016275025904" lon="30.304890275001526">
        <ele>18.29</ele>
      </trkpt>
      <trkpt lat="60.01027456484735" lon="30.30517534352839">
        <ele>19.42</ele>
      </trkpt>
      <trkpt lat="60.010385708883405" lon="30.305458903312683">
        <ele>20.5</ele>
      </trkpt>
      <trkpt lat="60.01018756069243" lon="30.305769704282284">
        <ele>21.68</ele>
      </trkpt>
      <trkpt lat="60.009989412501454" lon="30.306080505251884">
        <ele>22.71</ele>
      </trkpt>
      <trkpt lat="60.00979126431048" lon="30.306391306221485">
        <ele>23.65</ele>
      </trkpt>
      <trkpt lat="60.009593116119504" lon="30.306702023372054">
        <ele>24.61</ele>
      </trkpt>
      <trkpt lat="60.00939731486142" lon="30.30700922012329">
        <ele>25.48</ele>
      </trkpt>
      <trkpt lat="60.009357584640384" lon="30.307557648047805">
        <ele>26.44</ele>
      </trkpt>
      <trkpt lat="60.00931818969548" lon="30.308102471753955">
        <ele>27.26</ele>
      </trkpt>
      <trkpt lat="60.00917854718864" lon="30.308628184720874">
        <ele>27.76</ele>
      </trkpt>
      <trkpt lat="60.00921073369682" lon="30.30921290628612">
        <ele>28.27</ele>
      </trkpt>
      <trkpt lat="60.00925105065107" lon="30.30973325483501">
        <ele>28.77</ele>
      </trkpt>
      <trkpt lat="60.00927938148379" lon="30.310249999165535">
        <ele>29.19</ele>
      </trkpt>
      <trkpt lat="60.00930746085942" lon="30.31076322309673">
        <ele>29.56</ele>
      </trkpt>
      <trkpt lat="60.00925096683204" lon="30.31137459911406">
        <ele>29.97</ele>
      </trkpt>
      <trkpt lat="60.0091945566237" lon="30.311985975131392">
        <ele>30.38</ele>
      </trkpt>
      <trkpt lat="60.00913864932954" lon="30.31259131617844">
        <ele>30.75</ele>
      </trkpt>
      <trkpt lat="60.00940033234656" lon="30.31283020041883">
        <ele>30.91</ele>
      </trkpt>
      <trkpt lat="60.00966193154454" lon="30.31306908465922">
        <ele>31.0</ele>
      </trkpt>
      <trkpt lat="60.00992361456156" lon="30.313307968899608">
        <ele>31.1</ele>
      </trkpt>
      <trkpt lat="60.01018521375954" lon="30.313546853139997">
        <ele>31.19</ele>
      </trkpt>
      <trkpt lat="60.01044689677656" lon="30.313785737380385">
        <ele>31.11</ele>
      </trkpt>
      <trkpt lat="60.01070849597454" lon="30.314024621620774">
        <ele>30.99</ele>
      </trkpt>
      <trkpt lat="60.010970178991556" lon="30.314263505861163">
        <ele>30.97</ele>
      </trkpt>
      <trkpt lat="60.01123177818954" lon="30.314502390101552">
        <ele>30.97</ele>
      </trkpt>
      <trkpt lat="60.01148885115981" lon="30.314737083390355">
        <ele>30.77</ele>
      </trkpt>
      <trkpt lat="60.0112216360867" lon="30.315001280978322">
        <ele>30.5</ele>
      </trkpt>
      <trkpt lat="60.010954421013594" lon="30.31526547856629">
        <ele>30.21</ele>
      </trkpt>
      <trkpt lat="60.010687205940485" lon="30.315529676154256">
        <ele>29.97</ele>
      </trkpt>
      <trkpt lat="60.010419990867376" lon="30.31579378992319">
        <ele>29.7</ele>
      </trkpt>
      <trkpt lat="60.01015277579427" lon="30.316057987511158">
        <ele>29.35</ele>
      </trkpt>
      <trkpt lat="60.00988556072116" lon="30.316322185099125">
        <ele>29.12</ele>
      </trkpt>
      <trkpt lat="60.00961834564805" lon="30.316586382687092">
        <ele>28.89</ele>
      </trkpt>
      <trkpt lat="60.00935113057494" lon="30.316850496456027">
        <ele>28.49</ele>
      </trkpt>
      <trkpt lat="60.00908391550183" lon="30.317114694043994">
        <ele>28.08</ele>
      </trkpt>
      <trkpt lat="60.008816700428724" lon="30.31737880781293">
        <ele>27.69</ele>
      </trkpt>
      <trkpt lat="60.008549485355616" lon="30.317643005400896">
        <ele>27.35</ele>
      </trkpt>
      <trkpt lat="60.00828227028251" lon="30.31790711916983">
        <ele>26.93</ele>
      </trkpt>
      <trkpt lat="60.0080150552094" lon="30.318171316757798">
        <ele>26.58</ele>
      </trkpt>
      <trkpt lat="60.007755383849144" lon="30.318427802994847">
        <ele>26.11</ele>
      </trkpt>
      <trkpt lat="60.00747215934098" lon="30.318581024184823">
        <ele>25.72</ele>
      </trkpt>
      <trkpt lat="60.00718893483281" lon="30.318734161555767">
        <ele>25.34</ele>
      </trkpt>
      <trkpt lat="60.006905710324645" lon="30.31888729892671">
        <ele>24.97</ele>
      </trkpt>
      <trkpt lat="60.00662248581648" lon="30.319040520116687">
        <ele>24.76</ele>
      </trkpt>
      <trkpt lat="60.00633926130831" lon="30.31919365748763">
        <ele>24.53</ele>
      </trkpt>
      <trkpt lat="60.006056036800146" lon="30.319346794858575">
        <ele>24.22</ele>
      </trkpt>
      <trkpt lat="60.00577281229198" lon="30.31950001604855">
        <ele>23.94</ele>
      </trkpt>
      <trkpt lat="60.005493611097336" lon="30.31965089030564">
        <ele>23.7</ele>
      </trkpt>
      <trkpt lat="60.00521298497915" lon="30.319479815661907">
        <ele>23.69</ele>
      </trkpt>
      <trkpt lat="60.00493336468935" lon="30.319309327751398">
        <ele>23.69</ele>
      </trkpt>
      <trkpt lat="60.004696575924754" lon="30.319505464285612">
        <ele>23.6</ele>
      </trkpt>
      <trkpt lat="60.004460625350475" lon="30.319700930267572">
        <ele>23.54</ele>
      </trkpt>
      <trkpt lat="60.00418519601226" lon="30.3196270018816">
        <ele>23.59</ele>
      </trkpt>
      <trkpt lat="60.00390976667404" lon="30.319553073495626">
        <ele>23.55</ele>
      </trkpt>
      <trkpt lat="60.003635762259364" lon="30.319479564204812">
        <ele>23.39</ele>
      </trkpt>
      <trkpt lat="60.00338053330779" lon="30.319366911426187">
        <ele>23.06</ele>
      </trkpt>
      <trkpt lat="60.00353769399226" lon="30.31896349042654">
        <ele>23.01</ele>
      </trkpt>
      <trkpt lat="60.00369477085769" lon="30.318560069426894">
        <ele>22.81</ele>
      </trkpt>
      <trkpt lat="60.00385067425668" lon="30.318159917369485">
        <ele>22.58</ele>
      </trkpt>
      <trkpt lat="60.00365814194083" lon="30.317872250452638">
        <ele>22.31</ele>
      </trkpt>
      <trkpt lat="60.0034664478153" lon="30.317585924640298">
        <ele>22.11</ele>
      </trkpt>
      <trkpt lat="60.003281123936176" lon="30.317376712337136">
        <ele>21.71</ele>
      </trkpt>
      <trkpt lat="60.00318171456456" lon="30.316920736804605">
        <ele>21.37</ele>
      </trkpt>
      <trkpt lat="60.0031588319689" lon="30.3164201695472">
        <ele>21.1</ele>
      </trkpt>
      <trkpt lat="60.00313603319228" lon="30.315922955051064">
        <ele>20.87</ele>
      </trkpt>
      <trkpt lat="60.003336695954204" lon="30.315581476315856">
        <ele>20.76</ele>
      </trkpt>
      <trkpt lat="60.00353635288775" lon="30.315241673961282">
        <ele>20.68</ele>
      </trkpt>
      <trkpt lat="60.00364917330444" lon="30.314866164699197">
        <ele>20.59</ele>
      </trkpt>
      <trkpt lat="60.0036786776036" lon="30.314415553584695">
        <ele>20.58</ele>
      </trkpt>
      <trkpt lat="60.00389006920159" lon="30.3141010645777">
        <ele>20.79</ele>
      </trkpt>
      <trkpt lat="60.004100454971194" lon="30.31378791667521">
        <ele>21.02</ele>
      </trkpt>
      <trkpt lat="60.004276391118765" lon="30.31355674378574">
        <ele>21.3</ele>
      </trkpt>
      <trkpt lat="60.004452243447304" lon="30.313325570896268">
        <ele>21.55</ele>
      </trkpt>
      <trkpt lat="60.00462700612843" lon="30.313095906749368">
        <ele>21.8</ele>
      </trkpt>
      <trkpt lat="60.004826160147786" lon="30.312961544841528">
        <ele>22.04</ele>
      </trkpt>
      <trkpt lat="60.00502455979586" lon="30.31282768584788">
        <ele>22.14</ele>
      </trkpt>
      <trkpt lat="60.005236538127065" lon="30.312564745545387">
        <ele>22.21</ele>
      </trkpt>
      <trkpt lat="60.00544851645827" lon="30.312301805242896">
        <ele>22.34</ele>
      </trkpt>
      <trkpt lat="60.005659153684974" lon="30.31204062514007">
        <ele>22.46</ele>
      </trkpt>
      <trkpt lat="60.00584087334573" lon="30.312269115820527">
        <ele>22.7</ele>
      </trkpt>
      <trkpt lat="60.006021838635206" lon="30.312496600672603">
        <ele>22.96</ele>
      </trkpt>
      <trkpt lat="60.00616961158812" lon="30.31283992342651">
        <ele>23.19</ele>
      </trkpt>
      <trkpt lat="60.00613541342318" lon="30.312354611232877">
        <ele>23.35</ele>
      </trkpt>
      <trkpt lat="60.00610129907727" lon="30.311869299039245">
        <ele>23.41</ele>
      </trkpt>
      <trkpt lat="60.00606752000749" lon="30.311388848349452">
        <ele>23.49</ele>
      </trkpt>
      <trkpt lat="60.006255777552724" lon="30.31133101321757">
        <ele>23.75</ele>
      </trkpt>
      <trkpt lat="60.0064433645457" lon="30.311273345723748">
        <ele>24.12</ele>
      </trkpt>
      <trkpt lat="60.006549479439855" lon="30.31109363771975">
        <ele>24.37</ele>
      </trkpt>
      <trkpt lat="60.006779143586755" lon="30.3106886241585">
        <ele>24.68</ele>
      </trkpt>
      <trkpt lat="60.00697234645486" lon="30.31115130521357">
        <ele>24.96</ele>
      </trkpt>
      <trkpt lat="60.00706907361746" lon="30.311231771484017">
        <ele>25.1</ele>
      </trkpt>
      <trkpt lat="60.00708784908056" lon="30.311591187492013">
        <ele>25.17</ele>
      </trkpt>
      <trkpt lat="60.007270239293575" lon="30.311734937131405">
        <ele>25.15</ele>
      </trkpt>
      <trkpt lat="60.0074518751353" lon="30.311878183856606">
        <ele>25.06</ele>
      </trkpt>
      <trkpt lat="60.00749487429857" lon="30.31139454804361">
        <ele>24.9</ele>
      </trkpt>
      <trkpt lat="60.00753762200475" lon="30.310914097353816">
        <ele>24.67</ele>
      </trkpt>
      <trkpt lat="60.00752412714064" lon="30.310483518987894">
        <ele>24.32</ele>
      </trkpt>
      <trkpt lat="60.00751071609557" lon="30.31005579046905">
        <ele>23.9</ele>
      </trkpt>
      <trkpt lat="60.00749998725951" lon="30.30978756956756">
        <ele>23.36</ele>
      </trkpt>
      <trkpt lat="60.00724517740309" lon="30.30950803309679">
        <ele>22.64</ele>
      </trkpt>
      <trkpt lat="60.00699036754668" lon="30.30922849662602">
        <ele>21.82</ele>
      </trkpt>
      <trkpt lat="60.006737150251865" lon="30.308950720354915">
        <ele>21.02</ele>
      </trkpt>
      <trkpt lat="60.00644043087959" lon="30.309000927954912">
        <ele>20.32</ele>
      </trkpt>
      <trkpt lat="60.00614371150732" lon="30.309051051735878">
        <ele>19.65</ele>
      </trkpt>
      <trkpt lat="60.00584707595408" lon="30.309101175516844">
        <ele>19.2</ele>
      </trkpt>
      <trkpt lat="60.00555035658181" lon="30.30915138311684">
        <ele>19.04</ele>
      </trkpt>
      <trkpt lat="60.005253637209535" lon="30.309201506897807">
        <ele>18.9</ele>
      </trkpt>
      <trkpt lat="60.00495691783726" lon="30.309251714497805">
        <ele>18.56</ele>
      </trkpt>
      <trkpt lat="60.00466028228402" lon="30.30930183827877">
        <ele>18.16</ele>
      </trkpt>
      <trkpt lat="60.00436356291175" lon="30.309351962059736">
        <ele>17.75</ele>
      </trkpt>
      <trkpt lat="60.004066843539476" lon="30.309402169659734">
        <ele>17.18</ele>
      </trkpt>
      <trkpt lat="60.003770124167204" lon="30.3094522934407">
        <ele>16.54</ele>
      </trkpt>
      <trkpt lat="60.00347348861396" lon="30.309502417221665">
        <ele>15.89</ele>
      </trkpt>
      <trkpt lat="60.00317676924169" lon="30.309552624821663">
        <ele>15.21</ele>
      </trkpt>
      <trkpt lat="60.00288004986942" lon="30.30960274860263">
        <ele>14.38</ele>
      </trkpt>
      <trkpt lat="60.002583330497146" lon="30.309652872383595">
        <ele>13.53</ele>
      </trkpt>
      <trkpt lat="60.00229415483773" lon="30.309701738879085">
        <ele>12.65</ele>
      </trkpt>
      <trkpt lat="60.00218669883907" lon="30.30928331427276">
        <ele>11.93</ele>
      </trkpt>
      <trkpt lat="60.00235643237829" lon="30.308809988200665">
        <ele>11.49</ele>
      </trkpt>
      <trkpt lat="60.002525160089135" lon="30.30833917669952">
        <ele>10.95</ele>
      </trkpt>
      <trkpt lat="60.00258986838162" lon="30.30793022364378">
        <ele>10.33</ele>
      </trkpt>
      <trkpt lat="60.002654157578945" lon="30.307523785158992">
        <ele>9.8</ele>
      </trkpt>
      <trkpt lat="60.00282607041299" lon="30.30706244520843">
        <ele>9.34</ele>
      </trkpt>
      <trkpt lat="60.00289052724838" lon="30.30659037642181">
        <ele>8.74</ele>
      </trkpt>
      <trkpt lat="60.002852976322174" lon="30.306204138323665">
        <ele>8.09</ele>
      </trkpt>
      <trkpt lat="60.003048945218325" lon="30.30586433596909">
        <ele>7.66</ele>
      </trkpt>
      <trkpt lat="60.00324499793351" lon="30.305524449795485">
        <ele>7.41</ele>
      </trkpt>
      <trkpt lat="60.00344105064869" lon="30.30518464744091">
        <ele>7.28</ele>
      </trkpt>
      <trkpt lat="60.00363710336387" lon="30.304844845086336">
        <ele>7.23</ele>
      </trkpt>
      <trkpt lat="60.003830809146166" lon="30.304508982226253">
        <ele>7.31</ele>
      </trkpt>
      <trkpt lat="60.004019318148494" lon="30.304199857637286">
        <ele>7.49</ele>
      </trkpt>
      <trkpt lat="60.00420774333179" lon="30.303890649229288">
        <ele>7.58</ele>
      </trkpt>
      <trkpt lat="60.00439625233412" lon="30.30358144082129">
        <ele>7.77</ele>
      </trkpt>
      <trkpt lat="60.00458300113678" lon="30.303275166079402">
        <ele>8.12</ele>
      </trkpt>
      <trkpt lat="60.00477151013911" lon="30.30297408811748">
        <ele>8.48</ele>
      </trkpt>
      <trkpt lat="60.004959935322404" lon="30.30267301015556">
        <ele>8.74</ele>
      </trkpt>
      <trkpt lat="60.005147103220224" lon="30.302373943850398">
        <ele>9.1</ele>
      </trkpt>
      <trkpt lat="60.00543233938515" lon="30.30225575901568">
        <ele>9.35</ele>
      </trkpt>
      <trkpt lat="60.00571665354073" lon="30.302137909457088">
        <ele>9.81</ele>
      </trkpt>
      <trkpt lat="60.00590859912336" lon="30.301951579749584">
        <ele>10.4</ele>
      </trkpt>
      <trkpt lat="60.00610062852502" lon="30.30176525004208">
        <ele>11.13</ele>
      </trkpt>
      <trkpt lat="60.006291484460235" lon="30.30158000998199">
        <ele>11.89</ele>
      </trkpt>
      <trkpt lat="60.006523160263896" lon="30.301982760429382">
        <ele>12.9</ele>
      </trkpt>
      <trkpt lat="60.00675491988659" lon="30.302385510876775">
        <ele>13.87</ele>
      </trkpt>
      <trkpt lat="60.00698659569025" lon="30.302788261324167">
        <ele>14.81</ele>
      </trkpt>
      <trkpt lat="60.00721835531294" lon="30.30319101177156">
        <ele>15.61</ele>
      </trkpt>
      <trkpt lat="60.007450031116605" lon="30.303593846037984">
        <ele>15.85</ele>
      </trkpt>
      <trkpt lat="60.0076817907393" lon="30.303996596485376">
        <ele>15.81</ele>
      </trkpt>
      <trkpt lat="60.00791346654296" lon="30.30439934693277">
        <ele>15.94</ele>
      </trkpt>
      <trkpt lat="60.00814514234662" lon="30.30480209738016">
        <ele>15.89</ele>
      </trkpt>
      <trkpt lat="60.008376901969314" lon="30.305204847827554">
        <ele>15.52</ele>
      </trkpt>
      <trkpt lat="60.008608577772975" lon="30.305607682093978">
        <ele>15.25</ele>
      </trkpt>
      <trkpt lat="60.00884033739567" lon="30.30601043254137">
        <ele>15.48</ele>
      </trkpt>
      <trkpt lat="60.00906530767679" lon="30.306401951238513">
        <ele>16.54</ele>
      </trkpt>
    </trkseg>
  </trk>
</gpx>
