<?xml version="1.0" encoding="UTF-8"?>
<gpx creator="Garmin Connect" version="1.1"
  xsi:schemaLocation="http://www.topografix.com/GPX/1/1 http://www.topografix.com/GPX/11.xsd"
  xmlns:ns3="http://www.garmin.com/xmlschemas/TrackPointExtension/v1"
  xmlns="http://www.topografix.com/GPX/1/1"
  xmlns:xsi="http://www.w3.org/2001/XMLSchema-instance" xmlns:ns2="http://www.garmin.com/xmlschemas/GpxExtensions/v3">
  <metadata>
    <name>Шуваловский парк
пос. Парголово (м. Парнас) Бег 10 км</name>
    <link href="connect.garmin.com">
      <text>Garmin Connect</text>
    </link>
    <time>2026-09-25T18:56:41.000Z</time>
  </metadata>
  <trk>
    <name>Шуваловский парк
пос. Парголово (м. Парнас) Бег 10 км</name>
    <trkseg>
      <trkpt lat="60.07423996925354" lon="30.294703245162964">
        <ele>46.14</ele>
      </trkpt>
      <trkpt lat="60.07449788041413" lon="30.294751524925232">
        <ele>46.98</ele>
      </trkpt>
      <trkpt lat="60.0747549533844" lon="30.2947998046875">
        <ele>47.65</ele>
      </trkpt>
      <trkpt lat="60.07478713989258" lon="30.294896364212036">
        <ele>48.56</ele>
      </trkpt>
      <trkpt lat="60.07492158561945" lon="30.2952297963202">
        <ele>49.21</ele>
      </trkpt>
      <trkpt lat="60.0750554446131" lon="30.29556155204773">
        <ele>50.13</ele>
      </trkpt>
      <trkpt lat="60.07506617344916" lon="30.295743942260742">
        <ele>50.72</ele>
      </trkpt>
      <trkpt lat="60.0751038081944" lon="30.296201426535845">
        <ele>51.1</ele>
      </trkpt>
      <trkpt lat="60.075141275301576" lon="30.296655893325806">
        <ele>51.06</ele>
      </trkpt>
      <trkpt lat="60.07521637715399" lon="30.297138690948486">
        <ele>50.47</ele>
      </trkpt>
      <trkpt lat="60.0752592086792" lon="30.297492742538452">
        <ele>49.8</ele>
      </trkpt>
      <trkpt lat="60.07520564831793" lon="30.297986268997192">
        <ele>49.01</ele>
      </trkpt>
      <trkpt lat="60.075173461809754" lon="30.298125743865967">
        <ele>48.35</ele>
      </trkpt>
      <trkpt lat="60.075141275301576" lon="30.2982759475708">
        <ele>47.72</ele>
      </trkpt>
      <trkpt lat="60.07516264915466" lon="30.298447608947754">
        <ele>47.13</ele>
      </trkpt>
      <trkpt lat="60.0751157104969" lon="30.298486417159438">
        <ele>46.61</ele>
      </trkpt>
      <trkpt lat="60.074862660840154" lon="30.298695545643568">
        <ele>45.7</ele>
      </trkpt>
      <trkpt lat="60.074609611183405" lon="30.29890475794673">
        <ele>45.44</ele>
      </trkpt>
      <trkpt lat="60.07435807026923" lon="30.299112796783447">
        <ele>45.31</ele>
      </trkpt>
      <trkpt lat="60.074132261797786" lon="30.299360062927008">
        <ele>45.02</ele>
      </trkpt>
      <trkpt lat="60.073907459154725" lon="30.299606323242188">
        <ele>44.65</ele>
      </trkpt>
      <trkpt lat="60.073886001482606" lon="30.299627780914307">
        <ele>44.41</ele>
      </trkpt>
      <trkpt lat="60.073713921010494" lon="30.299805141985416">
        <ele>44.05</ele>
      </trkpt>
      <trkpt lat="60.07354259490967" lon="30.299981832504272">
        <ele>43.79</ele>
      </trkpt>
      <trkpt lat="60.07352398708463" lon="30.300000440329313">
        <ele>43.7</ele>
      </trkpt>
      <trkpt lat="60.07352113723755" lon="30.30000329017639">
        <ele>43.89</ele>
      </trkpt>
      <trkpt lat="60.07349976338446" lon="30.30001401901245">
        <ele>44.14</ele>
      </trkpt>
      <trkpt lat="60.07349967956543" lon="30.30001401901245">
        <ele>44.53</ele>
      </trkpt>
      <trkpt lat="60.07361803203821" lon="30.300325993448496">
        <ele>44.95</ele>
      </trkpt>
      <trkpt lat="60.07373579777777" lon="30.300636291503906">
        <ele>45.5</ele>
      </trkpt>
      <trkpt lat="60.073875272646546" lon="30.300990343093872">
        <ele>46.18</ele>
      </trkpt>
      <trkpt lat="60.073875188827515" lon="30.300990343093872">
        <ele>47.01</ele>
      </trkpt>
      <trkpt lat="60.074047269299626" lon="30.301393680274487">
        <ele>47.87</ele>
      </trkpt>
      <trkpt lat="60.07421851158142" lon="30.30179500579834">
        <ele>48.78</ele>
      </trkpt>
      <trkpt lat="60.07444960065186" lon="30.30176809988916">
        <ele>49.99</ele>
      </trkpt>
      <trkpt lat="60.074679935351014" lon="30.301741361618042">
        <ele>51.36</ele>
      </trkpt>
      <trkpt lat="60.07495662197471" lon="30.30175745487213">
        <ele>52.82</ele>
      </trkpt>
      <trkpt lat="60.07523339241743" lon="30.30177354812622">
        <ele>54.21</ele>
      </trkpt>
      <trkpt lat="60.07551007904112" lon="30.30178964138031">
        <ele>55.51</ele>
      </trkpt>
      <trkpt lat="60.07578500546515" lon="30.3018057346344">
        <ele>56.54</ele>
      </trkpt>
      <trkpt lat="60.07578492164612" lon="30.3018057346344">
        <ele>57.1</ele>
      </trkpt>
      <trkpt lat="60.075845858082175" lon="30.301794670522213">
        <ele>57.43</ele>
      </trkpt>
      <trkpt lat="60.07578492164612" lon="30.3018057346344">
        <ele>57.2</ele>
      </trkpt>
      <trkpt lat="60.07578500546515" lon="30.3018057346344">
        <ele>56.68</ele>
      </trkpt>
      <trkpt lat="60.07557193748653" lon="30.302242431789637">
        <ele>55.5</ele>
      </trkpt>
      <trkpt lat="60.07535895332694" lon="30.302679128944874">
        <ele>54.06</ele>
      </trkpt>
      <trkpt lat="60.07514596916735" lon="30.30311582610011">
        <ele>52.6</ele>
      </trkpt>
      <trkpt lat="60.07493298500776" lon="30.303552523255348">
        <ele>51.02</ele>
      </trkpt>
      <trkpt lat="60.07472276687622" lon="30.303983688354492">
        <ele>49.29</ele>
      </trkpt>
      <trkpt lat="60.07472285069525" lon="30.303983688354492">
        <ele>44.7</ele>
      </trkpt>
      <trkpt lat="60.07472276687622" lon="30.303983688354492">
        <ele>43.19</ele>
      </trkpt>
      <trkpt lat="60.07470139302313" lon="30.304230451583862">
        <ele>41.63</ele>
      </trkpt>
      <trkpt lat="60.07466903887689" lon="30.30454259365797">
        <ele>40.13</ele>
      </trkpt>
      <trkpt lat="60.074636936187744" lon="30.304852724075317">
        <ele>38.71</ele>
      </trkpt>
      <trkpt lat="60.074604749679565" lon="30.304927825927734">
        <ele>37.39</ele>
      </trkpt>
      <trkpt lat="60.07433233782649" lon="30.30518221668899">
        <ele>36.09</ele>
      </trkpt>
      <trkpt lat="60.07406000979245" lon="30.305436607450247">
        <ele>35.03</ele>
      </trkpt>
      <trkpt lat="60.07378935813904" lon="30.305689573287964">
        <ele>34.08</ele>
      </trkpt>
      <trkpt lat="60.073639154434204" lon="30.305689573287964">
        <ele>33.25</ele>
      </trkpt>
      <trkpt lat="60.073413932695985" lon="30.305346250534058">
        <ele>32.46</ele>
      </trkpt>
      <trkpt lat="60.07341384887695" lon="30.305346250534058">
        <ele>31.87</ele>
      </trkpt>
      <trkpt lat="60.07321008481085" lon="30.305228233337402">
        <ele>31.28</ele>
      </trkpt>
      <trkpt lat="60.07305418141186" lon="30.30537868849933">
        <ele>30.86</ele>
      </trkpt>
      <trkpt lat="60.072898948565125" lon="30.30552864074707">
        <ele>30.58</ele>
      </trkpt>
      <trkpt lat="60.07277020253241" lon="30.305603742599487">
        <ele>30.45</ele>
      </trkpt>
      <trkpt lat="60.07254967465997" lon="30.305259581655264">
        <ele>30.53</ele>
      </trkpt>
      <trkpt lat="60.07233023643494" lon="30.304917097091675">
        <ele>30.77</ele>
      </trkpt>
      <trkpt lat="60.07228740490973" lon="30.304723978042603">
        <ele>32.5</ele>
      </trkpt>
      <trkpt lat="60.07228195667267" lon="30.304099610075355">
        <ele>33.19</ele>
      </trkpt>
      <trkpt lat="60.07227667607367" lon="30.303479433059692">
        <ele>34.09</ele>
      </trkpt>
      <trkpt lat="60.072351694107056" lon="30.30325412750244">
        <ele>34.84</ele>
      </trkpt>
      <trkpt lat="60.07250198163092" lon="30.303114652633667">
        <ele>35.51</ele>
      </trkpt>
      <trkpt lat="60.07264170795679" lon="30.302953300997615">
        <ele>36.17</ele>
      </trkpt>
      <trkpt lat="60.07278093136847" lon="30.30279278755188">
        <ele>36.82</ele>
      </trkpt>
      <trkpt lat="60.07281311787665" lon="30.30254602432251">
        <ele>37.5</ele>
      </trkpt>
      <trkpt lat="60.07287221029401" lon="30.30221770517528">
        <ele>38.09</ele>
      </trkpt>
      <trkpt lat="60.07293105125427" lon="30.301891565322876">
        <ele>38.54</ele>
      </trkpt>
      <trkpt lat="60.07311377674341" lon="30.301741026341915">
        <ele>38.88</ele>
      </trkpt>
      <trkpt lat="60.07329591549933" lon="30.301591157913208">
        <ele>39.12</ele>
      </trkpt>
      <trkpt lat="60.0732958316803" lon="30.301591157913208">
        <ele>39.34</ele>
      </trkpt>
      <trkpt lat="60.07355919107795" lon="30.301316985860467">
        <ele>39.46</ele>
      </trkpt>
      <trkpt lat="60.07382162846625" lon="30.30104398727417">
        <ele>39.71</ele>
      </trkpt>
      <trkpt lat="60.07382154464722" lon="30.30104398727417">
        <ele>39.7</ele>
      </trkpt>
      <trkpt lat="60.07382162846625" lon="30.30104398727417">
        <ele>39.2</ele>
      </trkpt>
      <trkpt lat="60.07382154464722" lon="30.30104398727417">
        <ele>38.9</ele>
      </trkpt>
      <trkpt lat="60.073875272646546" lon="30.300990343093872">
        <ele>38.61</ele>
      </trkpt>
      <trkpt lat="60.073896730318666" lon="30.301612615585327">
        <ele>38.01</ele>
      </trkpt>
      <trkpt lat="60.073918187990785" lon="30.301934480667114">
        <ele>37.56</ele>
      </trkpt>
      <trkpt lat="60.07397183217108" lon="30.302234888076782">
        <ele>37.1</ele>
      </trkpt>
      <trkpt lat="60.07397183217108" lon="30.30227780342102">
        <ele>36.68</ele>
      </trkpt>
      <trkpt lat="60.07400401867926" lon="30.30254602432251">
        <ele>36.28</ele>
      </trkpt>
      <trkpt lat="60.07399320602417" lon="30.30291734263301">
        <ele>35.89</ele>
      </trkpt>
      <trkpt lat="60.07398247718811" lon="30.30328631401062">
        <ele>35.52</ele>
      </trkpt>
      <trkpt lat="60.07412756793201" lon="30.30350675806403">
        <ele>35.29</ele>
      </trkpt>
      <trkpt lat="60.07427215576172" lon="30.303726196289062">
        <ele>35.18</ele>
      </trkpt>
      <trkpt lat="60.07427223958075" lon="30.303726196289062">
        <ele>35.14</ele>
      </trkpt>
      <trkpt lat="60.074400901794434" lon="30.30425190925598">
        <ele>35.28</ele>
      </trkpt>
      <trkpt lat="60.074400985613465" lon="30.30425190925598">
        <ele>35.45</ele>
      </trkpt>
      <trkpt lat="60.07447608746588" lon="30.304605960845947">
        <ele>35.77</ele>
      </trkpt>
      <trkpt lat="60.07449888624251" lon="30.304663125425577">
        <ele>36.17</ele>
      </trkpt>
      <trkpt lat="60.07449888624251" lon="30.30466320924461">
        <ele>36.67</ele>
      </trkpt>
      <trkpt lat="60.074604749679565" lon="30.304927825927734">
        <ele>37.37</ele>
      </trkpt>
      <trkpt lat="60.074637020006776" lon="30.304852724075317">
        <ele>38.14</ele>
      </trkpt>
      <trkpt lat="60.074669290333986" lon="30.304540498182178">
        <ele>39.04</ele>
      </trkpt>
      <trkpt lat="60.07470139302313" lon="30.304230451583862">
        <ele>40.05</ele>
      </trkpt>
      <trkpt lat="60.07472276687622" lon="30.303983688354492">
        <ele>41.14</ele>
      </trkpt>
      <trkpt lat="60.074826031923294" lon="30.304245371371508">
        <ele>43.49</ele>
      </trkpt>
      <trkpt lat="60.074826031923294" lon="30.304245287552476">
        <ele>44.69</ele>
      </trkpt>
      <trkpt lat="60.074883783236146" lon="30.304391384124756">
        <ele>46.0</ele>
      </trkpt>
      <trkpt lat="60.0749481562525" lon="30.30453085899353">
        <ele>47.35</ele>
      </trkpt>
      <trkpt lat="60.0750018004328" lon="30.304616689682007">
        <ele>48.71</ele>
      </trkpt>
      <trkpt lat="60.07500171661377" lon="30.304616689682007">
        <ele>50.01</ele>
      </trkpt>
      <trkpt lat="60.07514152675867" lon="30.304858591407537">
        <ele>51.45</ele>
      </trkpt>
      <trkpt lat="60.07528075017035" lon="30.305099487304688">
        <ele>52.76</ele>
      </trkpt>
      <trkpt lat="60.075514605268836" lon="30.305435433983803">
        <ele>54.17</ele>
      </trkpt>
      <trkpt lat="60.07574846036732" lon="30.30577146448195">
        <ele>55.66</ele>
      </trkpt>
      <trkpt lat="60.07598231546581" lon="30.306107494980097">
        <ele>56.99</ele>
      </trkpt>
      <trkpt lat="60.07621415890753" lon="30.306440591812134">
        <ele>57.88</ele>
      </trkpt>
      <trkpt lat="60.0762140750885" lon="30.306440591812134">
        <ele>58.67</ele>
      </trkpt>
      <trkpt lat="60.07632144726813" lon="30.30650496482849">
        <ele>59.31</ele>
      </trkpt>
      <trkpt lat="60.07647165097296" lon="30.30649423599243">
        <ele>59.84</ele>
      </trkpt>
      <trkpt lat="60.0765145663172" lon="30.306483507156372">
        <ele>60.23</ele>
      </trkpt>
      <trkpt lat="60.07670793682337" lon="30.30642969533801">
        <ele>60.48</ele>
      </trkpt>
      <trkpt lat="60.076900804415345" lon="30.306376218795776">
        <ele>60.62</ele>
      </trkpt>
      <trkpt lat="60.07691631093621" lon="30.306372363120317">
        <ele>60.63</ele>
      </trkpt>
      <trkpt lat="60.07694363594055" lon="30.306365489959717">
        <ele>60.35</ele>
      </trkpt>
      <trkpt lat="60.077018821612" lon="30.306848287582397">
        <ele>59.85</ele>
      </trkpt>
      <trkpt lat="60.07712636142969" lon="30.307273333892226">
        <ele>59.45</ele>
      </trkpt>
      <trkpt lat="60.07723331451416" lon="30.307695865631104">
        <ele>59.08</ele>
      </trkpt>
      <trkpt lat="60.07736214436591" lon="30.307846069335938">
        <ele>58.73</ele>
      </trkpt>
      <trkpt lat="60.07744789123535" lon="30.307964086532593">
        <ele>58.38</ele>
      </trkpt>
      <trkpt lat="60.0775767210871" lon="30.308468341827393">
        <ele>57.97</ele>
      </trkpt>
      <trkpt lat="60.07758744992316" lon="30.30877947807312">
        <ele>57.64</ele>
      </trkpt>
      <trkpt lat="60.07765551097691" lon="30.309202764183283">
        <ele>57.3</ele>
      </trkpt>
      <trkpt lat="60.077723655849695" lon="30.309626134112477">
        <ele>57.13</ele>
      </trkpt>
      <trkpt lat="60.07779121398926" lon="30.31004548072815">
        <ele>57.07</ele>
      </trkpt>
      <trkpt lat="60.07779129780829" lon="30.31004548072815">
        <ele>56.92</ele>
      </trkpt>
      <trkpt lat="60.077853156253695" lon="30.31053515151143">
        <ele>56.86</ele>
      </trkpt>
      <trkpt lat="60.0779150146991" lon="30.311024906113744">
        <ele>56.79</ele>
      </trkpt>
      <trkpt lat="60.07797687314451" lon="30.311514660716057">
        <ele>56.66</ele>
      </trkpt>
      <trkpt lat="60.07803797721863" lon="30.31199812889099">
        <ele>56.66</ele>
      </trkpt>
      <trkpt lat="60.07803806103766" lon="30.31199812889099">
        <ele>56.63</ele>
      </trkpt>
      <trkpt lat="60.07811316289008" lon="30.312577486038208">
        <ele>56.69</ele>
      </trkpt>
      <trkpt lat="60.07814543321729" lon="30.312889628112316">
        <ele>56.71</ele>
      </trkpt>
      <trkpt lat="60.078177535906434" lon="30.313199758529663">
        <ele>56.73</ele>
      </trkpt>
      <trkpt lat="60.07819438353181" lon="30.313104037195444">
        <ele>56.72</ele>
      </trkpt>
      <trkpt lat="60.07819438353181" lon="30.313103953376412">
        <ele>56.69</ele>
      </trkpt>
      <trkpt lat="60.07820963859558" lon="30.31301736831665">
        <ele>56.65</ele>
      </trkpt>
      <trkpt lat="60.07826345041394" lon="30.31269441358745">
        <ele>56.59</ele>
      </trkpt>
      <trkpt lat="60.07831692695618" lon="30.312373638153076">
        <ele>56.49</ele>
      </trkpt>
      <trkpt lat="60.07851012982428" lon="30.31205177307129">
        <ele>56.39</ele>
      </trkpt>
      <trkpt lat="60.078660333529115" lon="30.311622619628906">
        <ele>56.31</ele>
      </trkpt>
      <trkpt lat="60.07866024971008" lon="30.311622619628906">
        <ele>56.24</ele>
      </trkpt>
      <trkpt lat="60.078735603019595" lon="30.311077209189534">
        <ele>56.12</ele>
      </trkpt>
      <trkpt lat="60.07881095632911" lon="30.310531882569194">
        <ele>55.93</ele>
      </trkpt>
      <trkpt lat="60.078885639086366" lon="30.30999183654785">
        <ele>55.75</ele>
      </trkpt>
      <trkpt lat="60.07896074093878" lon="30.309605598449707">
        <ele>55.7</ele>
      </trkpt>
      <trkpt lat="60.0790358427912" lon="30.30924081802368">
        <ele>55.7</ele>
      </trkpt>
      <trkpt lat="60.07911647669971" lon="30.30883178114891">
        <ele>55.88</ele>
      </trkpt>
      <trkpt lat="60.07919669151306" lon="30.308425426483154">
        <ele>56.13</ele>
      </trkpt>
      <trkpt lat="60.07921823300421" lon="30.308328866958618">
        <ele>56.36</ele>
      </trkpt>
      <trkpt lat="60.07932552136481" lon="30.30779242515564">
        <ele>56.79</ele>
      </trkpt>
      <trkpt lat="60.07941512390971" lon="30.307318847626448">
        <ele>57.18</ele>
      </trkpt>
      <trkpt lat="60.07950481027365" lon="30.306845270097256">
        <ele>57.48</ele>
      </trkpt>
      <trkpt lat="60.079593658447266" lon="30.306376218795776">
        <ele>57.65</ele>
      </trkpt>
      <trkpt lat="60.079668844118714" lon="30.305850505828857">
        <ele>57.72</ele>
      </trkpt>
      <trkpt lat="60.07966876029968" lon="30.305850505828857">
        <ele>57.87</ele>
      </trkpt>
      <trkpt lat="60.07975216023624" lon="30.305398469790816">
        <ele>58.0</ele>
      </trkpt>
      <trkpt lat="60.079835560172796" lon="30.304946433752775">
        <ele>58.11</ele>
      </trkpt>
      <trkpt lat="60.079919043928385" lon="30.304494397714734">
        <ele>58.17</ele>
      </trkpt>
      <trkpt lat="60.08000143803656" lon="30.30404806137085">
        <ele>58.22</ele>
      </trkpt>
      <trkpt lat="60.0800443533808" lon="30.303930044174194">
        <ele>58.27</ele>
      </trkpt>
      <trkpt lat="60.08001216687262" lon="30.303640365600586">
        <ele>58.34</ele>
      </trkpt>
      <trkpt lat="60.08000143803656" lon="30.303114652633667">
        <ele>58.43</ele>
      </trkpt>
      <trkpt lat="60.08000135421753" lon="30.303114652633667">
        <ele>58.49</ele>
      </trkpt>
      <trkpt lat="60.08001753129065" lon="30.302700167521834">
        <ele>58.5</ele>
      </trkpt>
      <trkpt lat="60.08003362454474" lon="30.30228853225708">
        <ele>58.47</ele>
      </trkpt>
      <trkpt lat="60.08006581105292" lon="30.301906317472458">
        <ele>58.49</ele>
      </trkpt>
      <trkpt lat="60.080097913742065" lon="30.30152678489685">
        <ele>58.57</ele>
      </trkpt>
      <trkpt lat="60.080081736668944" lon="30.30113384127617">
        <ele>58.81</ele>
      </trkpt>
      <trkpt lat="60.08006572723389" lon="30.300743579864502">
        <ele>59.11</ele>
      </trkpt>
      <trkpt lat="60.08006581105292" lon="30.300743579864502">
        <ele>59.46</ele>
      </trkpt>
      <trkpt lat="60.08006572723389" lon="30.300743579864502">
        <ele>59.58</ele>
      </trkpt>
      <trkpt lat="60.08027703501284" lon="30.300610978156328">
        <ele>59.6</ele>
      </trkpt>
      <trkpt lat="60.08048842661083" lon="30.300478376448154">
        <ele>59.68</ele>
      </trkpt>
      <trkpt lat="60.0806987285614" lon="30.300346612930298">
        <ele>59.75</ele>
      </trkpt>
      <trkpt lat="60.08054852485657" lon="30.30000329017639">
        <ele>60.6</ele>
      </trkpt>
      <trkpt lat="60.080381724983454" lon="30.299637503921986">
        <ele>60.88</ele>
      </trkpt>
      <trkpt lat="60.08021593093872" lon="30.29927372932434">
        <ele>61.15</ele>
      </trkpt>
      <trkpt lat="60.08021601475775" lon="30.29927372932434">
        <ele>61.31</ele>
      </trkpt>
      <trkpt lat="60.08004929870367" lon="30.29913928359747">
        <ele>61.46</ele>
      </trkpt>
      <trkpt lat="60.079883337020874" lon="30.29900550842285">
        <ele>61.57</ele>
      </trkpt>
      <trkpt lat="60.079840421676636" lon="30.298683643341064">
        <ele>61.65</ele>
      </trkpt>
      <trkpt lat="60.079668341204524" lon="30.298389606177807">
        <ele>61.71</ele>
      </trkpt>
      <trkpt lat="60.07949626073241" lon="30.29809565283358">
        <ele>61.76</ele>
      </trkpt>
      <trkpt lat="60.079325437545776" lon="30.29780387878418">
        <ele>61.78</ele>
      </trkpt>
      <trkpt lat="60.079094180837274" lon="30.297438176348805">
        <ele>61.66</ele>
      </trkpt>
      <trkpt lat="60.078864097595215" lon="30.29707431793213">
        <ele>61.58</ele>
      </trkpt>
      <trkpt lat="60.07871397770941" lon="30.296602249145508">
        <ele>61.5</ele>
      </trkpt>
      <trkpt lat="60.07871389389038" lon="30.296602249145508">
        <ele>61.48</ele>
      </trkpt>
      <trkpt lat="60.07871397770941" lon="30.296602249145508">
        <ele>61.46</ele>
      </trkpt>
      <trkpt lat="60.07860668934882" lon="30.296409130096436">
        <ele>61.46</ele>
      </trkpt>
      <trkpt lat="60.07873543538153" lon="30.296194553375244">
        <ele>61.41</ele>
      </trkpt>
      <trkpt lat="60.078874826431274" lon="30.296119451522827">
        <ele>61.42</ele>
      </trkpt>
      <trkpt lat="60.078874910250306" lon="30.296119451522827">
        <ele>61.41</ele>
      </trkpt>
      <trkpt lat="60.078917825594544" lon="30.296097993850708">
        <ele>61.39</ele>
      </trkpt>
      <trkpt lat="60.07911656051874" lon="30.295974360778928">
        <ele>61.38</ele>
      </trkpt>
      <trkpt lat="60.07931470870972" lon="30.295851230621338">
        <ele>61.42</ele>
      </trkpt>
      <trkpt lat="60.07943272590637" lon="30.295636653900146">
        <ele>61.37</ele>
      </trkpt>
      <trkpt lat="60.07947564125061" lon="30.29555082321167">
        <ele>61.28</ele>
      </trkpt>
      <trkpt lat="60.07950782775879" lon="30.295475721359253">
        <ele>61.13</ele>
      </trkpt>
      <trkpt lat="60.0797282718122" lon="30.295040113851428">
        <ele>60.96</ele>
      </trkpt>
      <trkpt lat="60.07994771003723" lon="30.294606685638428">
        <ele>60.79</ele>
      </trkpt>
      <trkpt lat="60.07994779385626" lon="30.294606685638428">
        <ele>60.44</ele>
      </trkpt>
      <trkpt lat="60.080119874328375" lon="30.294259758666158">
        <ele>59.99</ele>
      </trkpt>
      <trkpt lat="60.08029195480049" lon="30.29391291551292">
        <ele>59.44</ele>
      </trkpt>
      <trkpt lat="60.0804640352726" lon="30.29356598854065">
        <ele>58.78</ele>
      </trkpt>
      <trkpt lat="60.080634439364076" lon="30.293222665786743">
        <ele>57.86</ele>
      </trkpt>
      <trkpt lat="60.08068808354437" lon="30.293136835098267">
        <ele>57.24</ele>
      </trkpt>
      <trkpt lat="60.08053779602051" lon="30.292643308639526">
        <ele>56.71</ele>
      </trkpt>
      <trkpt lat="60.08037376217544" lon="30.292296381667256">
        <ele>56.22</ele>
      </trkpt>
      <trkpt lat="60.080209728330374" lon="30.291949454694986">
        <ele>55.81</ele>
      </trkpt>
      <trkpt lat="60.08004569448531" lon="30.291602527722716">
        <ele>55.35</ele>
      </trkpt>
      <trkpt lat="60.079883420839906" lon="30.291259288787842">
        <ele>54.85</ele>
      </trkpt>
      <trkpt lat="60.079883337020874" lon="30.291259288787842">
        <ele>54.46</ele>
      </trkpt>
      <trkpt lat="60.07970639504492" lon="30.290896352380514">
        <ele>54.07</ele>
      </trkpt>
      <trkpt lat="60.07953037507832" lon="30.290535343810916">
        <ele>53.7</ele>
      </trkpt>
      <trkpt lat="60.07946499623358" lon="30.290400981903076">
        <ele>53.22</ele>
      </trkpt>
      <trkpt lat="60.079411352053285" lon="30.290379524230957">
        <ele>53.08</ele>
      </trkpt>
      <trkpt lat="60.079217813909054" lon="30.290298890322447">
        <ele>52.94</ele>
      </trkpt>
      <trkpt lat="60.07902503013611" lon="30.290218591690063">
        <ele>52.84</ele>
      </trkpt>
      <trkpt lat="60.07893525995314" lon="30.290778251364827">
        <ele>53.06</ele>
      </trkpt>
      <trkpt lat="60.078845573589206" lon="30.29133791103959">
        <ele>53.22</ele>
      </trkpt>
      <trkpt lat="60.07875680923462" lon="30.291892290115356">
        <ele>53.34</ele>
      </trkpt>
      <trkpt lat="60.078659914433956" lon="30.29219353571534">
        <ele>53.52</ele>
      </trkpt>
      <trkpt lat="60.07856369018555" lon="30.292493104934692">
        <ele>53.72</ele>
      </trkpt>
      <trkpt lat="60.078389178961515" lon="30.29285897500813">
        <ele>53.91</ele>
      </trkpt>
      <trkpt lat="60.078214751556516" lon="30.2932249289006">
        <ele>54.05</ele>
      </trkpt>
      <trkpt lat="60.07804166525602" lon="30.29358803294599">
        <ele>54.12</ele>
      </trkpt>
      <trkpt lat="60.077862376347184" lon="30.29396421276033">
        <ele>54.26</ele>
      </trkpt>
      <trkpt lat="60.077684009447694" lon="30.29433846473694">
        <ele>54.27</ele>
      </trkpt>
      <trkpt lat="60.07768392562866" lon="30.29433846473694">
        <ele>54.33</ele>
      </trkpt>
      <trkpt lat="60.0775230769068" lon="30.294671058654785">
        <ele>54.37</ele>
      </trkpt>
      <trkpt lat="60.07752299308777" lon="30.294671058654785">
        <ele>54.38</ele>
      </trkpt>
      <trkpt lat="60.07730791345239" lon="30.29495419934392">
        <ele>54.44</ele>
      </trkpt>
      <trkpt lat="60.07709291763604" lon="30.295237340033054">
        <ele>54.52</ele>
      </trkpt>
      <trkpt lat="60.076879346743226" lon="30.29551863670349">
        <ele>54.61</ele>
      </trkpt>
      <trkpt lat="60.07661774754524" lon="30.295407492667437">
        <ele>54.37</ele>
      </trkpt>
      <trkpt lat="60.07635623216629" lon="30.295296432450414">
        <ele>54.05</ele>
      </trkpt>
      <trkpt lat="60.07609614171088" lon="30.295186042785645">
        <ele>53.74</ele>
      </trkpt>
      <trkpt lat="60.076096057891846" lon="30.295186042785645">
        <ele>53.47</ele>
      </trkpt>
      <trkpt lat="60.075844349339604" lon="30.295104403048754">
        <ele>53.1</ele>
      </trkpt>
      <trkpt lat="60.075592724606395" lon="30.295022763311863">
        <ele>52.69</ele>
      </trkpt>
      <trkpt lat="60.07534244097769" lon="30.294941626489162">
        <ele>52.25</ele>
      </trkpt>
      <trkpt lat="60.07530220784247" lon="30.294928550720215">
        <ele>51.63</ele>
      </trkpt>
      <trkpt lat="60.07523783482611" lon="30.294907093048096">
        <ele>51.32</ele>
      </trkpt>
      <trkpt lat="60.07502292282879" lon="30.294859316200018">
        <ele>50.97</ele>
      </trkpt>
      <trkpt lat="60.07480884902179" lon="30.294811790809035">
        <ele>50.67</ele>
      </trkpt>
      <trkpt lat="60.07502359338105" lon="30.29485948383808">
        <ele>50.47</ele>
      </trkpt>
      <trkpt lat="60.07523775100708" lon="30.294907093048096">
        <ele>50.47</ele>
      </trkpt>
      <trkpt lat="60.0752055644989" lon="30.29501438140869">
        <ele>50.41</ele>
      </trkpt>
      <trkpt lat="60.07520564831793" lon="30.29501438140869">
        <ele>50.32</ele>
      </trkpt>
      <trkpt lat="60.07506608963013" lon="30.295486450195312">
        <ele>50.37</ele>
      </trkpt>
      <trkpt lat="60.07506617344916" lon="30.295486450195312">
        <ele>50.26</ele>
      </trkpt>
      <trkpt lat="60.0750554446131" lon="30.29556155204773">
        <ele>50.16</ele>
      </trkpt>
      <trkpt lat="60.07506617344916" lon="30.295743942260742">
        <ele>50.09</ele>
      </trkpt>
      <trkpt lat="60.0751038081944" lon="30.296201426535845">
        <ele>49.95</ele>
      </trkpt>
      <trkpt lat="60.075141275301576" lon="30.296655893325806">
        <ele>49.65</ele>
      </trkpt>
      <trkpt lat="60.07521637715399" lon="30.297138690948486">
        <ele>49.13</ele>
      </trkpt>
      <trkpt lat="60.0752592086792" lon="30.297492742538452">
        <ele>48.72</ele>
      </trkpt>
      <trkpt lat="60.07520564831793" lon="30.297986268997192">
        <ele>48.27</ele>
      </trkpt>
      <trkpt lat="60.075173461809754" lon="30.298125743865967">
        <ele>47.93</ele>
      </trkpt>
      <trkpt lat="60.075141275301576" lon="30.2982759475708">
        <ele>47.57</ele>
      </trkpt>
      <trkpt lat="60.07516264915466" lon="30.298447608947754">
        <ele>47.2</ele>
      </trkpt>
      <trkpt lat="60.07504362612963" lon="30.298545928671956">
        <ele>46.84</ele>
      </trkpt>
      <trkpt lat="60.07504362612963" lon="30.298546012490988">
        <ele>46.48</ele>
      </trkpt>
      <trkpt lat="60.07481463253498" lon="30.2987352758646">
        <ele>46.15</ele>
      </trkpt>
      <trkpt lat="60.074585638940334" lon="30.298924539238214">
        <ele>45.89</ele>
      </trkpt>
      <trkpt lat="60.07435807026923" lon="30.299112796783447">
        <ele>45.67</ele>
      </trkpt>
      <trkpt lat="60.074132261797786" lon="30.299360062927008">
        <ele>45.32</ele>
      </trkpt>
      <trkpt lat="60.073907459154725" lon="30.299606323242188">
        <ele>44.94</ele>
      </trkpt>
      <trkpt lat="60.073886001482606" lon="30.299627780914307">
        <ele>44.68</ele>
      </trkpt>
      <trkpt lat="60.073713921010494" lon="30.299805141985416">
        <ele>44.36</ele>
      </trkpt>
      <trkpt lat="60.07354259490967" lon="30.299981832504272">
        <ele>44.15</ele>
      </trkpt>
      <trkpt lat="60.07352113723755" lon="30.30000329017639">
        <ele>44.1</ele>
      </trkpt>
      <trkpt lat="60.07349976338446" lon="30.30001401901245">
        <ele>44.14</ele>
      </trkpt>
      <trkpt lat="60.07349967956543" lon="30.30001401901245">
        <ele>44.28</ele>
      </trkpt>
      <trkpt lat="60.07360143586993" lon="30.300282407552004">
        <ele>44.47</ele>
      </trkpt>
      <trkpt lat="60.073702773079276" lon="30.30054945498705">
        <ele>44.79</ele>
      </trkpt>
      <trkpt lat="60.07373579777777" lon="30.300636291503906">
        <ele>45.79</ele>
      </trkpt>
      <trkpt lat="60.073875272646546" lon="30.300990343093872">
        <ele>46.43</ele>
      </trkpt>
      <trkpt lat="60.073875188827515" lon="30.300990343093872">
        <ele>47.17</ele>
      </trkpt>
      <trkpt lat="60.074047269299626" lon="30.301393680274487">
        <ele>47.95</ele>
      </trkpt>
      <trkpt lat="60.07421851158142" lon="30.30179500579834">
        <ele>48.76</ele>
      </trkpt>
      <trkpt lat="60.07444960065186" lon="30.30176809988916">
        <ele>49.81</ele>
      </trkpt>
      <trkpt lat="60.074679935351014" lon="30.301741361618042">
        <ele>50.95</ele>
      </trkpt>
      <trkpt lat="60.07495662197471" lon="30.30175745487213">
        <ele>52.12</ele>
      </trkpt>
      <trkpt lat="60.07523339241743" lon="30.30177354812622">
        <ele>53.16</ele>
      </trkpt>
      <trkpt lat="60.07551007904112" lon="30.30178964138031">
        <ele>54.09</ele>
      </trkpt>
      <trkpt lat="60.07578500546515" lon="30.3018057346344">
        <ele>54.73</ele>
      </trkpt>
      <trkpt lat="60.07578492164612" lon="30.3018057346344">
        <ele>54.95</ele>
      </trkpt>
      <trkpt lat="60.07578500546515" lon="30.3018057346344">
        <ele>54.25</ele>
      </trkpt>
      <trkpt lat="60.07557202130556" lon="30.302242431789637">
        <ele>53.18</ele>
      </trkpt>
      <trkpt lat="60.07535903714597" lon="30.302679128944874">
        <ele>51.9</ele>
      </trkpt>
      <trkpt lat="60.07514605298638" lon="30.30311582610011">
        <ele>50.63</ele>
      </trkpt>
      <trkpt lat="60.074933068826795" lon="30.303552523255348">
        <ele>49.24</ele>
      </trkpt>
      <trkpt lat="60.07472285069525" lon="30.303983688354492">
        <ele>47.71</ele>
      </trkpt>
      <trkpt lat="60.07472276687622" lon="30.303983688354492">
        <ele>46.35</ele>
      </trkpt>
      <trkpt lat="60.07470139302313" lon="30.304230451583862">
        <ele>44.86</ele>
      </trkpt>
      <trkpt lat="60.07464959286153" lon="30.304730096831918">
        <ele>43.29</ele>
      </trkpt>
      <trkpt lat="60.074636936187744" lon="30.304852724075317">
        <ele>40.5</ele>
      </trkpt>
      <trkpt lat="60.074604749679565" lon="30.304927825927734">
        <ele>39.13</ele>
      </trkpt>
      <trkpt lat="60.07433233782649" lon="30.30518221668899">
        <ele>37.75</ele>
      </trkpt>
      <trkpt lat="60.07406000979245" lon="30.305436607450247">
        <ele>36.59</ele>
      </trkpt>
      <trkpt lat="60.07378935813904" lon="30.305689573287964">
        <ele>35.52</ele>
      </trkpt>
      <trkpt lat="60.073639154434204" lon="30.305689573287964">
        <ele>34.57</ele>
      </trkpt>
      <trkpt lat="60.073413932695985" lon="30.305346250534058">
        <ele>33.65</ele>
      </trkpt>
      <trkpt lat="60.07341384887695" lon="30.305346250534058">
        <ele>32.93</ele>
      </trkpt>
      <trkpt lat="60.07321008481085" lon="30.305228233337402">
        <ele>32.22</ele>
      </trkpt>
      <trkpt lat="60.07305418141186" lon="30.30537868849933">
        <ele>31.69</ele>
      </trkpt>
      <trkpt lat="60.072898948565125" lon="30.30552864074707">
        <ele>31.3</ele>
      </trkpt>
      <trkpt lat="60.07277020253241" lon="30.305603742599487">
        <ele>31.08</ele>
      </trkpt>
      <trkpt lat="60.072640869766474" lon="30.30540199019015">
        <ele>31.05</ele>
      </trkpt>
      <trkpt lat="60.07251229137182" lon="30.30520124360919">
        <ele>31.18</ele>
      </trkpt>
      <trkpt lat="60.07233023643494" lon="30.304917097091675">
        <ele>31.78</ele>
      </trkpt>
      <trkpt lat="60.07228740490973" lon="30.304723978042603">
        <ele>32.23</ele>
      </trkpt>
      <trkpt lat="60.07228195667267" lon="30.304099610075355">
        <ele>32.8</ele>
      </trkpt>
      <trkpt lat="60.07227667607367" lon="30.303479433059692">
        <ele>33.59</ele>
      </trkpt>
      <trkpt lat="60.072351694107056" lon="30.30325412750244">
        <ele>34.24</ele>
      </trkpt>
      <trkpt lat="60.07250198163092" lon="30.303114652633667">
        <ele>34.83</ele>
      </trkpt>
      <trkpt lat="60.07264170795679" lon="30.302953300997615">
        <ele>35.4</ele>
      </trkpt>
      <trkpt lat="60.07278093136847" lon="30.30279278755188">
        <ele>35.99</ele>
      </trkpt>
      <trkpt lat="60.07281311787665" lon="30.30254602432251">
        <ele>36.61</ele>
      </trkpt>
      <trkpt lat="60.07287221029401" lon="30.30221770517528">
        <ele>37.14</ele>
      </trkpt>
      <trkpt lat="60.07293105125427" lon="30.301891565322876">
        <ele>37.55</ele>
      </trkpt>
      <trkpt lat="60.07311377674341" lon="30.301741026341915">
        <ele>37.84</ele>
      </trkpt>
      <trkpt lat="60.07329591549933" lon="30.301591157913208">
        <ele>38.04</ele>
      </trkpt>
      <trkpt lat="60.0732958316803" lon="30.301591157913208">
        <ele>38.23</ele>
      </trkpt>
      <trkpt lat="60.07350663654506" lon="30.301371719688177">
        <ele>38.31</ele>
      </trkpt>
      <trkpt lat="60.07371660321951" lon="30.301153287291527">
        <ele>38.44</ele>
      </trkpt>
      <trkpt lat="60.07371660321951" lon="30.301153203472495">
        <ele>38.41</ele>
      </trkpt>
      <trkpt lat="60.07382162846625" lon="30.30104398727417">
        <ele>38.41</ele>
      </trkpt>
      <trkpt lat="60.07382154464722" lon="30.30104398727417">
        <ele>38.25</ele>
      </trkpt>
      <trkpt lat="60.073875272646546" lon="30.300990343093872">
        <ele>38.08</ele>
      </trkpt>
      <trkpt lat="60.073896730318666" lon="30.301612615585327">
        <ele>37.61</ele>
      </trkpt>
      <trkpt lat="60.073918187990785" lon="30.301934480667114">
        <ele>37.27</ele>
      </trkpt>
      <trkpt lat="60.07397183217108" lon="30.302234888076782">
        <ele>36.91</ele>
      </trkpt>
      <trkpt lat="60.07397183217108" lon="30.30227780342102">
        <ele>36.58</ele>
      </trkpt>
      <trkpt lat="60.07400401867926" lon="30.30254602432251">
        <ele>36.26</ele>
      </trkpt>
      <trkpt lat="60.07399320602417" lon="30.30291734263301">
        <ele>35.94</ele>
      </trkpt>
      <trkpt lat="60.07398247718811" lon="30.30328631401062">
        <ele>35.63</ele>
      </trkpt>
      <trkpt lat="60.07412756793201" lon="30.30350675806403">
        <ele>35.44</ele>
      </trkpt>
      <trkpt lat="60.07427215576172" lon="30.303726196289062">
        <ele>35.37</ele>
      </trkpt>
      <trkpt lat="60.07427223958075" lon="30.303726196289062">
        <ele>35.36</ele>
      </trkpt>
      <trkpt lat="60.074400901794434" lon="30.30425190925598">
        <ele>35.52</ele>
      </trkpt>
      <trkpt lat="60.074400985613465" lon="30.30425190925598">
        <ele>35.7</ele>
      </trkpt>
      <trkpt lat="60.074448846280575" lon="30.304477801546454">
        <ele>36.0</ele>
      </trkpt>
      <trkpt lat="60.07447608746588" lon="30.304605960845947">
        <ele>36.9</ele>
      </trkpt>
      <trkpt lat="60.074604749679565" lon="30.304927825927734">
        <ele>37.61</ele>
      </trkpt>
      <trkpt lat="60.074637020006776" lon="30.304852724075317">
        <ele>38.37</ele>
      </trkpt>
      <trkpt lat="60.07468705996871" lon="30.304368417710066">
        <ele>39.33</ele>
      </trkpt>
      <trkpt lat="60.07468705996871" lon="30.304368333891034">
        <ele>40.23</ele>
      </trkpt>
      <trkpt lat="60.07470139302313" lon="30.304230451583862">
        <ele>41.24</ele>
      </trkpt>
      <trkpt lat="60.07472276687622" lon="30.303983688354492">
        <ele>42.4</ele>
      </trkpt>
      <trkpt lat="60.074883783236146" lon="30.304391384124756">
        <ele>44.89</ele>
      </trkpt>
      <trkpt lat="60.0749481562525" lon="30.30453085899353">
        <ele>46.18</ele>
      </trkpt>
      <trkpt lat="60.0750018004328" lon="30.304616689682007">
        <ele>47.49</ele>
      </trkpt>
      <trkpt lat="60.07500171661377" lon="30.304616689682007">
        <ele>48.76</ele>
      </trkpt>
      <trkpt lat="60.075092324987054" lon="30.304773598909378">
        <ele>50.12</ele>
      </trkpt>
      <trkpt lat="60.07528075017035" lon="30.305099487304688">
        <ele>52.67</ele>
      </trkpt>
      <trkpt lat="60.075514605268836" lon="30.305435433983803">
        <ele>54.02</ele>
      </trkpt>
      <trkpt lat="60.07574846036732" lon="30.30577146448195">
        <ele>55.45</ele>
      </trkpt>
      <trkpt lat="60.07598231546581" lon="30.306107494980097">
        <ele>56.72</ele>
      </trkpt>
      <trkpt lat="60.07621415890753" lon="30.306440591812134">
        <ele>57.53</ele>
      </trkpt>
      <trkpt lat="60.0762140750885" lon="30.306440591812134">
        <ele>58.26</ele>
      </trkpt>
      <trkpt lat="60.07632144726813" lon="30.30650496482849">
        <ele>58.83</ele>
      </trkpt>
      <trkpt lat="60.07647165097296" lon="30.30649423599243">
        <ele>59.3</ele>
      </trkpt>
      <trkpt lat="60.0765145663172" lon="30.306483507156372">
        <ele>59.63</ele>
      </trkpt>
      <trkpt lat="60.07670793682337" lon="30.30642969533801">
        <ele>59.84</ele>
      </trkpt>
      <trkpt lat="60.076900804415345" lon="30.306376218795776">
        <ele>59.94</ele>
      </trkpt>
      <trkpt lat="60.07694363594055" lon="30.306365489959717">
        <ele>59.91</ele>
      </trkpt>
      <trkpt lat="60.077018821612" lon="30.306848287582397">
        <ele>59.56</ele>
      </trkpt>
      <trkpt lat="60.07712636142969" lon="30.307273333892226">
        <ele>59.28</ele>
      </trkpt>
      <trkpt lat="60.07723331451416" lon="30.307695865631104">
        <ele>59.03</ele>
      </trkpt>
      <trkpt lat="60.07736214436591" lon="30.307846069335938">
        <ele>58.77</ele>
      </trkpt>
      <trkpt lat="60.07744789123535" lon="30.307964086532593">
        <ele>58.5</ele>
      </trkpt>
      <trkpt lat="60.0775767210871" lon="30.308468341827393">
        <ele>58.15</ele>
      </trkpt>
      <trkpt lat="60.07758744992316" lon="30.30877947807312">
        <ele>57.87</ele>
      </trkpt>
      <trkpt lat="60.07765551097691" lon="30.309202764183283">
        <ele>57.55</ele>
      </trkpt>
      <trkpt lat="60.077723655849695" lon="30.309626134112477">
        <ele>57.39</ele>
      </trkpt>
      <trkpt lat="60.07779121398926" lon="30.31004548072815">
        <ele>57.34</ele>
      </trkpt>
      <trkpt lat="60.07779129780829" lon="30.31004548072815">
        <ele>57.18</ele>
      </trkpt>
      <trkpt lat="60.077853156253695" lon="30.31053515151143">
        <ele>57.1</ele>
      </trkpt>
      <trkpt lat="60.0779150146991" lon="30.311024906113744">
        <ele>57.0</ele>
      </trkpt>
      <trkpt lat="60.07797687314451" lon="30.311514660716057">
        <ele>56.84</ele>
      </trkpt>
      <trkpt lat="60.07803797721863" lon="30.31199812889099">
        <ele>56.8</ele>
      </trkpt>
      <trkpt lat="60.07803806103766" lon="30.31199812889099">
        <ele>56.74</ele>
      </trkpt>
      <trkpt lat="60.07811316289008" lon="30.312577486038208">
        <ele>56.75</ele>
      </trkpt>
      <trkpt lat="60.078138979151845" lon="30.312827937304974">
        <ele>56.72</ele>
      </trkpt>
      <trkpt lat="60.078138979151845" lon="30.312827853485942">
        <ele>56.67</ele>
      </trkpt>
      <trkpt lat="60.078177535906434" lon="30.313199758529663">
        <ele>56.64</ele>
      </trkpt>
      <trkpt lat="60.07820963859558" lon="30.31301736831665">
        <ele>56.59</ele>
      </trkpt>
      <trkpt lat="60.07826345041394" lon="30.31269441358745">
        <ele>56.51</ele>
      </trkpt>
      <trkpt lat="60.07831692695618" lon="30.312373638153076">
        <ele>56.39</ele>
      </trkpt>
      <trkpt lat="60.07851012982428" lon="30.31205177307129">
        <ele>56.28</ele>
      </trkpt>
      <trkpt lat="60.078660333529115" lon="30.311622619628906">
        <ele>56.2</ele>
      </trkpt>
      <trkpt lat="60.07866024971008" lon="30.311622619628906">
        <ele>56.12</ele>
      </trkpt>
      <trkpt lat="60.078735603019595" lon="30.311077209189534">
        <ele>56.0</ele>
      </trkpt>
      <trkpt lat="60.07881095632911" lon="30.310531882569194">
        <ele>55.8</ele>
      </trkpt>
      <trkpt lat="60.078885639086366" lon="30.30999183654785">
        <ele>55.62</ele>
      </trkpt>
      <trkpt lat="60.07896074093878" lon="30.309605598449707">
        <ele>55.58</ele>
      </trkpt>
      <trkpt lat="60.0790358427912" lon="30.30924081802368">
        <ele>55.59</ele>
      </trkpt>
      <trkpt lat="60.07911647669971" lon="30.30883178114891">
        <ele>55.77</ele>
      </trkpt>
      <trkpt lat="60.07919669151306" lon="30.308425426483154">
        <ele>56.02</ele>
      </trkpt>
      <trkpt lat="60.07921823300421" lon="30.308328866958618">
        <ele>56.25</ele>
      </trkpt>
      <trkpt lat="60.07932552136481" lon="30.30779242515564">
        <ele>56.68</ele>
      </trkpt>
      <trkpt lat="60.07941512390971" lon="30.307318847626448">
        <ele>57.08</ele>
      </trkpt>
      <trkpt lat="60.07950481027365" lon="30.306845270097256">
        <ele>57.36</ele>
      </trkpt>
      <trkpt lat="60.079593658447266" lon="30.306376218795776">
        <ele>57.53</ele>
      </trkpt>
      <trkpt lat="60.079668844118714" lon="30.305850505828857">
        <ele>57.6</ele>
      </trkpt>
      <trkpt lat="60.07966876029968" lon="30.305850505828857">
        <ele>57.75</ele>
      </trkpt>
      <trkpt lat="60.07975216023624" lon="30.305398469790816">
        <ele>57.87</ele>
      </trkpt>
      <trkpt lat="60.079835560172796" lon="30.304946433752775">
        <ele>57.98</ele>
      </trkpt>
      <trkpt lat="60.079919043928385" lon="30.304494397714734">
        <ele>58.04</ele>
      </trkpt>
      <trkpt lat="60.08000143803656" lon="30.30404806137085">
        <ele>58.09</ele>
      </trkpt>
      <trkpt lat="60.0800443533808" lon="30.303930044174194">
        <ele>58.13</ele>
      </trkpt>
      <trkpt lat="60.08001216687262" lon="30.303640365600586">
        <ele>58.21</ele>
      </trkpt>
      <trkpt lat="60.08000143803656" lon="30.303114652633667">
        <ele>58.32</ele>
      </trkpt>
      <trkpt lat="60.08000135421753" lon="30.303114652633667">
        <ele>58.38</ele>
      </trkpt>
      <trkpt lat="60.08001753129065" lon="30.302700167521834">
        <ele>58.41</ele>
      </trkpt>
      <trkpt lat="60.08003362454474" lon="30.30228853225708">
        <ele>58.41</ele>
      </trkpt>
      <trkpt lat="60.08006581105292" lon="30.301906317472458">
        <ele>58.46</ele>
      </trkpt>
      <trkpt lat="60.080097913742065" lon="30.30152678489685">
        <ele>58.58</ele>
      </trkpt>
      <trkpt lat="60.08007863536477" lon="30.30105773359537">
        <ele>58.91</ele>
      </trkpt>
      <trkpt lat="60.08007863536477" lon="30.301057817414403">
        <ele>59.07</ele>
      </trkpt>
      <trkpt lat="60.08006581105292" lon="30.300743579864502">
        <ele>59.4</ele>
      </trkpt>
      <trkpt lat="60.08006572723389" lon="30.300743579864502">
        <ele>59.59</ele>
      </trkpt>
      <trkpt lat="60.080327661708" lon="30.300579210743308">
        <ele>59.67</ele>
      </trkpt>
      <trkpt lat="60.08058875799179" lon="30.3004155959934">
        <ele>59.8</ele>
      </trkpt>
      <trkpt lat="60.0806987285614" lon="30.300346612930298">
        <ele>60.19</ele>
      </trkpt>
      <trkpt lat="60.08054852485657" lon="30.30000329017639">
        <ele>60.58</ele>
      </trkpt>
      <trkpt lat="60.080381724983454" lon="30.299637503921986">
        <ele>60.89</ele>
      </trkpt>
      <trkpt lat="60.08021593093872" lon="30.29927372932434">
        <ele>61.18</ele>
      </trkpt>
      <trkpt lat="60.08021601475775" lon="30.29927372932434">
        <ele>61.36</ele>
      </trkpt>
      <trkpt lat="60.08004929870367" lon="30.29913928359747">
        <ele>61.53</ele>
      </trkpt>
      <trkpt lat="60.079883337020874" lon="30.29900550842285">
        <ele>61.65</ele>
      </trkpt>
      <trkpt lat="60.079840421676636" lon="30.298683643341064">
        <ele>61.74</ele>
      </trkpt>
      <trkpt lat="60.079668341204524" lon="30.298389606177807">
        <ele>61.81</ele>
      </trkpt>
      <trkpt lat="60.07949626073241" lon="30.29809565283358">
        <ele>61.87</ele>
      </trkpt>
      <trkpt lat="60.079325437545776" lon="30.29780387878418">
        <ele>61.89</ele>
      </trkpt>
      <trkpt lat="60.079094180837274" lon="30.297438176348805">
        <ele>61.78</ele>
      </trkpt>
      <trkpt lat="60.078864097595215" lon="30.29707431793213">
        <ele>61.7</ele>
      </trkpt>
      <trkpt lat="60.07871397770941" lon="30.296602249145508">
        <ele>61.63</ele>
      </trkpt>
      <trkpt lat="60.07865781895816" lon="30.29650124721229">
        <ele>61.62</ele>
      </trkpt>
      <trkpt lat="60.07860668934882" lon="30.296409130096436">
        <ele>61.63</ele>
      </trkpt>
      <trkpt lat="60.07873543538153" lon="30.296194553375244">
        <ele>61.59</ele>
      </trkpt>
      <trkpt lat="60.078874826431274" lon="30.296119451522827">
        <ele>61.62</ele>
      </trkpt>
      <trkpt lat="60.078874910250306" lon="30.296119451522827">
        <ele>61.62</ele>
      </trkpt>
      <trkpt lat="60.078917825594544" lon="30.296097993850708">
        <ele>61.62</ele>
      </trkpt>
      <trkpt lat="60.07911656051874" lon="30.295974360778928">
        <ele>61.62</ele>
      </trkpt>
      <trkpt lat="60.07931470870972" lon="30.295851230621338">
        <ele>61.69</ele>
      </trkpt>
      <trkpt lat="60.07943272590637" lon="30.295636653900146">
        <ele>61.65</ele>
      </trkpt>
      <trkpt lat="60.07947564125061" lon="30.29555082321167">
        <ele>61.56</ele>
      </trkpt>
      <trkpt lat="60.07950782775879" lon="30.295475721359253">
        <ele>61.42</ele>
      </trkpt>
      <trkpt lat="60.0797282718122" lon="30.295040113851428">
        <ele>61.25</ele>
      </trkpt>
      <trkpt lat="60.07994771003723" lon="30.294606685638428">
        <ele>61.06</ele>
      </trkpt>
      <trkpt lat="60.07994779385626" lon="30.294606685638428">
        <ele>60.69</ele>
      </trkpt>
      <trkpt lat="60.080119874328375" lon="30.294259758666158">
        <ele>60.19</ele>
      </trkpt>
      <trkpt lat="60.08029195480049" lon="30.29391291551292">
        <ele>59.59</ele>
      </trkpt>
      <trkpt lat="60.0804640352726" lon="30.29356598854065">
        <ele>58.88</ele>
      </trkpt>
      <trkpt lat="60.080634439364076" lon="30.293222665786743">
        <ele>57.92</ele>
      </trkpt>
      <trkpt lat="60.08068808354437" lon="30.293136835098267">
        <ele>57.28</ele>
      </trkpt>
      <trkpt lat="60.08053779602051" lon="30.292643308639526">
        <ele>56.74</ele>
      </trkpt>
      <trkpt lat="60.08039614185691" lon="30.292343823239207">
        <ele>56.22</ele>
      </trkpt>
      <trkpt lat="60.08025532588363" lon="30.29204593040049">
        <ele>55.77</ele>
      </trkpt>
      <trkpt lat="60.08006882853806" lon="30.29165156185627">
        <ele>54.83</ele>
      </trkpt>
      <trkpt lat="60.079883420839906" lon="30.291259288787842">
        <ele>54.32</ele>
      </trkpt>
      <trkpt lat="60.079883337020874" lon="30.291259288787842">
        <ele>53.93</ele>
      </trkpt>
      <trkpt lat="60.07967362180352" lon="30.290828961879015">
        <ele>53.53</ele>
      </trkpt>
      <trkpt lat="60.07946499623358" lon="30.290400981903076">
        <ele>53.13</ele>
      </trkpt>
      <trkpt lat="60.079411352053285" lon="30.290379524230957">
        <ele>52.92</ele>
      </trkpt>
      <trkpt lat="60.079217813909054" lon="30.290298890322447">
        <ele>52.71</ele>
      </trkpt>
      <trkpt lat="60.07902503013611" lon="30.290218591690063">
        <ele>52.58</ele>
      </trkpt>
      <trkpt lat="60.07893525995314" lon="30.290778251364827">
        <ele>52.78</ele>
      </trkpt>
      <trkpt lat="60.078845573589206" lon="30.29133791103959">
        <ele>52.92</ele>
      </trkpt>
      <trkpt lat="60.07875680923462" lon="30.291892290115356">
        <ele>53.02</ele>
      </trkpt>
      <trkpt lat="60.07867969572544" lon="30.292132180184126">
        <ele>53.19</ele>
      </trkpt>
      <trkpt lat="60.07867969572544" lon="30.292132264003158">
        <ele>53.35</ele>
      </trkpt>
      <trkpt lat="60.07856369018555" lon="30.292493104934692">
        <ele>53.59</ele>
      </trkpt>
      <trkpt lat="60.078387251123786" lon="30.292863082140684">
        <ele>53.82</ele>
      </trkpt>
      <trkpt lat="60.07821089588106" lon="30.293233143165708">
        <ele>54.0</ele>
      </trkpt>
      <trkpt lat="60.078034456819296" lon="30.2936031203717">
        <ele>54.13</ele>
      </trkpt>
      <trkpt lat="60.07785810157657" lon="30.293973181396723">
        <ele>54.26</ele>
      </trkpt>
      <trkpt lat="60.077684009447694" lon="30.29433846473694">
        <ele>54.45</ele>
      </trkpt>
      <trkpt lat="60.07768392562866" lon="30.29433846473694">
        <ele>54.71</ele>
      </trkpt>
      <trkpt lat="60.0775230769068" lon="30.294671058654785">
        <ele>54.98</ele>
      </trkpt>
      <trkpt lat="60.07752299308777" lon="30.294671058654785">
        <ele>55.23</ele>
      </trkpt>
      <trkpt lat="60.07727321237326" lon="30.294999964535236">
        <ele>55.55</ele>
      </trkpt>
      <trkpt lat="60.07707581855357" lon="30.295259803533554">
        <ele>55.95</ele>
      </trkpt>
      <trkpt lat="60.076879346743226" lon="30.29551863670349">
        <ele>56.09</ele>
      </trkpt>
      <trkpt lat="60.07661774754524" lon="30.295407492667437">
        <ele>55.8</ele>
      </trkpt>
      <trkpt lat="60.07635623216629" lon="30.295296432450414">
        <ele>55.4</ele>
      </trkpt>
      <trkpt lat="60.07609614171088" lon="30.295186042785645">
        <ele>54.98</ele>
      </trkpt>
      <trkpt lat="60.076096057891846" lon="30.295186042785645">
        <ele>54.55</ele>
      </trkpt>
      <trkpt lat="60.07587402127683" lon="30.2951140422374">
        <ele>53.95</ele>
      </trkpt>
      <trkpt lat="60.075652906671166" lon="30.295042293146253">
        <ele>53.24</ele>
      </trkpt>
      <trkpt lat="60.07547722198069" lon="30.294985296204686">
        <ele>51.72</ele>
      </trkpt>
      <trkpt lat="60.07530220784247" lon="30.294928550720215">
        <ele>50.79</ele>
      </trkpt>
      <trkpt lat="60.07523783482611" lon="30.294907093048096">
        <ele>49.92</ele>
      </trkpt>
      <trkpt lat="60.07499601691961" lon="30.294853281229734">
        <ele>48.95</ele>
      </trkpt>
      <trkpt lat="60.07475503720343" lon="30.2947998046875">
        <ele>48.05</ele>
      </trkpt>
      <trkpt lat="60.0747549533844" lon="30.2947998046875">
        <ele>47.32</ele>
      </trkpt>
      <trkpt lat="60.07449695840478" lon="30.2947514411062">
        <ele>46.51</ele>
      </trkpt>
      <trkpt lat="60.07423996925354" lon="30.294703245162964">
        <ele>45.87</ele>
      </trkpt>
      <trkpt lat="60.074154222384095" lon="30.29477834701538">
        <ele>43.28</ele>
      </trkpt>
      <trkpt lat="60.07410250604153" lon="30.294810701161623">
        <ele>43.3</ele>
      </trkpt>
    </trkseg>
  </trk>
</gpx>
