<?xml version="1.0" encoding="UTF-8"?>
<gpx creator="Garmin Connect" version="1.1"
  xsi:schemaLocation="http://www.topografix.com/GPX/1/1 http://www.topografix.com/GPX/11.xsd"
  xmlns:ns3="http://www.garmin.com/xmlschemas/TrackPointExtension/v1"
  xmlns="http://www.topografix.com/GPX/1/1"
  xmlns:xsi="http://www.w3.org/2001/XMLSchema-instance" xmlns:ns2="http://www.garmin.com/xmlschemas/GpxExtensions/v3">
  <metadata>
    <name>Шуваловский парк
пос. Парголово (м. Парнас) Бег 5 км</name>
    <link href="connect.garmin.com">
      <text>Garmin Connect</text>
    </link>
    <time>2026-09-25T18:32:41.000Z</time>
  </metadata>
  <trk>
    <name>Шуваловский парк
пос. Парголово (м. Парнас) Бег 5 км</name>
    <trkseg>
      <trkpt lat="60.06868243217468" lon="30.297975540161133">
        <ele>31.19</ele>
      </trkpt>
      <trkpt lat="60.068682515993714" lon="30.297975540161133">
        <ele>31.34</ele>
      </trkpt>
      <trkpt lat="60.068940008059144" lon="30.297932624816895">
        <ele>31.65</ele>
      </trkpt>
      <trkpt lat="60.0690043810755" lon="30.297932624816895">
        <ele>31.91</ele>
      </trkpt>
      <trkpt lat="60.069154584780335" lon="30.297878980636597">
        <ele>32.16</ele>
      </trkpt>
      <trkpt lat="60.069401348009706" lon="30.2978253364563">
        <ele>32.56</ele>
      </trkpt>
      <trkpt lat="60.06958398967981" lon="30.29787906445563">
        <ele>33.03</ele>
      </trkpt>
      <trkpt lat="60.06976612843573" lon="30.297932624816895">
        <ele>33.61</ele>
      </trkpt>
      <trkpt lat="60.06984123028815" lon="30.297954082489014">
        <ele>34.18</ele>
      </trkpt>
      <trkpt lat="60.070099141448736" lon="30.298054330050945">
        <ele>34.91</ele>
      </trkpt>
      <trkpt lat="60.070357052609324" lon="30.29815466143191">
        <ele>35.45</ele>
      </trkpt>
      <trkpt lat="60.07061370648444" lon="30.29825448989868">
        <ele>35.85</ele>
      </trkpt>
      <trkpt lat="60.070613622665405" lon="30.29825448989868">
        <ele>36.34</ele>
      </trkpt>
      <trkpt lat="60.07072099484503" lon="30.29831886291504">
        <ele>36.81</ele>
      </trkpt>
      <trkpt lat="60.07099499925971" lon="30.29842095449567">
        <ele>37.37</ele>
      </trkpt>
      <trkpt lat="60.07126816548407" lon="30.29852271080017">
        <ele>38.24</ele>
      </trkpt>
      <trkpt lat="60.07133253850043" lon="30.29856562614441">
        <ele>38.95</ele>
      </trkpt>
      <trkpt lat="60.07160478271544" lon="30.29871960170567">
        <ele>39.75</ele>
      </trkpt>
      <trkpt lat="60.07187702693045" lon="30.298873661085963">
        <ele>40.49</ele>
      </trkpt>
      <trkpt lat="60.072149354964495" lon="30.299027720466256">
        <ele>41.3</ele>
      </trkpt>
      <trkpt lat="60.072421599179506" lon="30.29918177984655">
        <ele>42.04</ele>
      </trkpt>
      <trkpt lat="60.07269384339452" lon="30.299335839226842">
        <ele>42.62</ele>
      </trkpt>
      <trkpt lat="60.07296323776245" lon="30.299488306045532">
        <ele>43.32</ele>
      </trkpt>
      <trkpt lat="60.07315132766962" lon="30.29961721971631">
        <ele>43.84</ele>
      </trkpt>
      <trkpt lat="60.073338747024536" lon="30.299745798110962">
        <ele>44.19</ele>
      </trkpt>
      <trkpt lat="60.07345768623054" lon="30.299949645996094">
        <ele>44.36</ele>
      </trkpt>
      <trkpt lat="60.07348895072937" lon="30.30000329017639">
        <ele>44.46</ele>
      </trkpt>
      <trkpt lat="60.07349976338446" lon="30.30001401901245">
        <ele>44.39</ele>
      </trkpt>
      <trkpt lat="60.07349967956543" lon="30.30001401901245">
        <ele>44.24</ele>
      </trkpt>
      <trkpt lat="60.07361803203821" lon="30.300325993448496">
        <ele>43.94</ele>
      </trkpt>
      <trkpt lat="60.07373579777777" lon="30.300636291503906">
        <ele>43.59</ele>
      </trkpt>
      <trkpt lat="60.073875272646546" lon="30.300990343093872">
        <ele>43.21</ele>
      </trkpt>
      <trkpt lat="60.073875188827515" lon="30.300990343093872">
        <ele>42.84</ele>
      </trkpt>
      <trkpt lat="60.07382154464722" lon="30.30104398727417">
        <ele>41.49</ele>
      </trkpt>
      <trkpt lat="60.07382162846625" lon="30.30104398727417">
        <ele>41.02</ele>
      </trkpt>
      <trkpt lat="60.07355818524957" lon="30.30131807550788">
        <ele>40.32</ele>
      </trkpt>
      <trkpt lat="60.0732958316803" lon="30.301591157913208">
        <ele>39.83</ele>
      </trkpt>
      <trkpt lat="60.07329591549933" lon="30.301591157913208">
        <ele>39.3</ele>
      </trkpt>
      <trkpt lat="60.07311310619116" lon="30.301741613075137">
        <ele>38.85</ele>
      </trkpt>
      <trkpt lat="60.07293105125427" lon="30.301891565322876">
        <ele>38.38</ele>
      </trkpt>
      <trkpt lat="60.07287187501788" lon="30.302219800651073">
        <ele>37.84</ele>
      </trkpt>
      <trkpt lat="60.07281311787665" lon="30.30254602432251">
        <ele>37.21</ele>
      </trkpt>
      <trkpt lat="60.07278093136847" lon="30.30279278755188">
        <ele>36.53</ele>
      </trkpt>
      <trkpt lat="60.07264112122357" lon="30.3029540553689">
        <ele>35.9</ele>
      </trkpt>
      <trkpt lat="60.07250198163092" lon="30.303114652633667">
        <ele>35.31</ele>
      </trkpt>
      <trkpt lat="60.072351694107056" lon="30.30325412750244">
        <ele>34.72</ele>
      </trkpt>
      <trkpt lat="60.07227667607367" lon="30.303479433059692">
        <ele>34.07</ele>
      </trkpt>
      <trkpt lat="60.07227868773043" lon="30.303719574585557">
        <ele>33.38</ele>
      </trkpt>
      <trkpt lat="60.07227868773043" lon="30.30371965840459">
        <ele>32.85</ele>
      </trkpt>
      <trkpt lat="60.07228304632008" lon="30.30422349460423">
        <ele>32.2</ele>
      </trkpt>
      <trkpt lat="60.07228740490973" lon="30.304723978042603">
        <ele>31.73</ele>
      </trkpt>
      <trkpt lat="60.07233023643494" lon="30.304917097091675">
        <ele>31.35</ele>
      </trkpt>
      <trkpt lat="60.07255068048835" lon="30.305261174216866">
        <ele>31.0</ele>
      </trkpt>
      <trkpt lat="60.07277020253241" lon="30.305603742599487">
        <ele>30.79</ele>
      </trkpt>
      <trkpt lat="60.07282879203558" lon="30.305569544434547">
        <ele>30.73</ele>
      </trkpt>
      <trkpt lat="60.072898948565125" lon="30.30552864074707">
        <ele>30.87</ele>
      </trkpt>
      <trkpt lat="60.073054768145084" lon="30.30537810176611">
        <ele>31.15</ele>
      </trkpt>
      <trkpt lat="60.07321008481085" lon="30.305228233337402">
        <ele>31.51</ele>
      </trkpt>
      <trkpt lat="60.07341384887695" lon="30.305346250534058">
        <ele>32.02</ele>
      </trkpt>
      <trkpt lat="60.073413932695985" lon="30.305346250534058">
        <ele>32.44</ele>
      </trkpt>
      <trkpt lat="60.073639154434204" lon="30.305689573287964">
        <ele>33.01</ele>
      </trkpt>
      <trkpt lat="60.07378935813904" lon="30.305689573287964">
        <ele>33.55</ele>
      </trkpt>
      <trkpt lat="60.07403167895973" lon="30.30546309426427">
        <ele>34.13</ele>
      </trkpt>
      <trkpt lat="60.07427399978042" lon="30.305236699059606">
        <ele>34.75</ele>
      </trkpt>
      <trkpt lat="60.0745149794966" lon="30.30501164495945">
        <ele>35.5</ele>
      </trkpt>
      <trkpt lat="60.074604749679565" lon="30.304927825927734">
        <ele>36.97</ele>
      </trkpt>
      <trkpt lat="60.074637020006776" lon="30.304852724075317">
        <ele>37.78</ele>
      </trkpt>
      <trkpt lat="60.074669290333986" lon="30.304540498182178">
        <ele>38.65</ele>
      </trkpt>
      <trkpt lat="60.07470139302313" lon="30.304230451583862">
        <ele>39.55</ele>
      </trkpt>
      <trkpt lat="60.07472276687622" lon="30.303983688354492">
        <ele>40.48</ele>
      </trkpt>
      <trkpt lat="60.074883783236146" lon="30.304391384124756">
        <ele>45.11</ele>
      </trkpt>
      <trkpt lat="60.0749481562525" lon="30.30453085899353">
        <ele>46.12</ele>
      </trkpt>
      <trkpt lat="60.0750018004328" lon="30.304616689682007">
        <ele>47.15</ele>
      </trkpt>
      <trkpt lat="60.07500171661377" lon="30.304616689682007">
        <ele>48.12</ele>
      </trkpt>
      <trkpt lat="60.07514144293964" lon="30.304858591407537">
        <ele>49.26</ele>
      </trkpt>
      <trkpt lat="60.07528066635132" lon="30.305099487304688">
        <ele>50.3</ele>
      </trkpt>
      <trkpt lat="60.07528603076935" lon="30.305465441197157">
        <ele>51.21</ele>
      </trkpt>
      <trkpt lat="60.07529147900641" lon="30.30582904815674">
        <ele>52.21</ele>
      </trkpt>
      <trkpt lat="60.07533984258771" lon="30.306195002049208">
        <ele>53.35</ele>
      </trkpt>
      <trkpt lat="60.075388038530946" lon="30.30655860900879">
        <ele>54.44</ele>
      </trkpt>
      <trkpt lat="60.07547378540039" lon="30.306698083877563">
        <ele>55.43</ele>
      </trkpt>
      <trkpt lat="60.07576924748719" lon="30.306735634803772">
        <ele>58.7</ele>
      </trkpt>
      <trkpt lat="60.07606387138367" lon="30.30677318572998">
        <ele>59.31</ele>
      </trkpt>
      <trkpt lat="60.0760639552027" lon="30.30677318572998">
        <ele>59.81</ele>
      </trkpt>
      <trkpt lat="60.07619270123541" lon="30.306687355041504">
        <ele>60.24</ele>
      </trkpt>
      <trkpt lat="60.0762521289289" lon="30.306603033095598">
        <ele>60.6</ele>
      </trkpt>
      <trkpt lat="60.0762521289289" lon="30.30660311691463">
        <ele>60.83</ele>
      </trkpt>
      <trkpt lat="60.07632144726813" lon="30.30650496482849">
        <ele>61.02</ele>
      </trkpt>
      <trkpt lat="60.07647165097296" lon="30.30649423599243">
        <ele>61.07</ele>
      </trkpt>
      <trkpt lat="60.0765145663172" lon="30.306483507156372">
        <ele>61.03</ele>
      </trkpt>
      <trkpt lat="60.07670793682337" lon="30.30642969533801">
        <ele>60.91</ele>
      </trkpt>
      <trkpt lat="60.07690072059631" lon="30.306376218795776">
        <ele>60.73</ele>
      </trkpt>
      <trkpt lat="60.07692075334489" lon="30.306496499106288">
        <ele>60.37</ele>
      </trkpt>
      <trkpt lat="60.07692075334489" lon="30.30649658292532">
        <ele>60.05</ele>
      </trkpt>
      <trkpt lat="60.076900804415345" lon="30.306376218795776">
        <ele>59.77</ele>
      </trkpt>
      <trkpt lat="60.07694363594055" lon="30.306365489959717">
        <ele>59.35</ele>
      </trkpt>
      <trkpt lat="60.077018821612" lon="30.306848287582397">
        <ele>58.67</ele>
      </trkpt>
      <trkpt lat="60.07712636142969" lon="30.307273333892226">
        <ele>58.14</ele>
      </trkpt>
      <trkpt lat="60.07723331451416" lon="30.307695865631104">
        <ele>57.7</ele>
      </trkpt>
      <trkpt lat="60.07736214436591" lon="30.307846069335938">
        <ele>57.31</ele>
      </trkpt>
      <trkpt lat="60.07744789123535" lon="30.307964086532593">
        <ele>56.96</ele>
      </trkpt>
      <trkpt lat="60.0775767210871" lon="30.308468341827393">
        <ele>56.58</ele>
      </trkpt>
      <trkpt lat="60.07758744992316" lon="30.30877947807312">
        <ele>56.31</ele>
      </trkpt>
      <trkpt lat="60.07765551097691" lon="30.309202764183283">
        <ele>56.05</ele>
      </trkpt>
      <trkpt lat="60.077723655849695" lon="30.309626134112477">
        <ele>55.99</ele>
      </trkpt>
      <trkpt lat="60.07779121398926" lon="30.31004548072815">
        <ele>56.06</ele>
      </trkpt>
      <trkpt lat="60.07779129780829" lon="30.31004548072815">
        <ele>56.04</ele>
      </trkpt>
      <trkpt lat="60.077853156253695" lon="30.31053515151143">
        <ele>56.13</ele>
      </trkpt>
      <trkpt lat="60.0779150146991" lon="30.311024906113744">
        <ele>56.2</ele>
      </trkpt>
      <trkpt lat="60.07797687314451" lon="30.311514660716057">
        <ele>56.22</ele>
      </trkpt>
      <trkpt lat="60.07803797721863" lon="30.31199812889099">
        <ele>56.36</ele>
      </trkpt>
      <trkpt lat="60.07803806103766" lon="30.31199812889099">
        <ele>56.46</ele>
      </trkpt>
      <trkpt lat="60.07811316289008" lon="30.312577486038208">
        <ele>56.65</ele>
      </trkpt>
      <trkpt lat="60.078145349398255" lon="30.312889628112316">
        <ele>56.78</ele>
      </trkpt>
      <trkpt lat="60.0781774520874" lon="30.313199758529663">
        <ele>56.9</ele>
      </trkpt>
      <trkpt lat="60.078177535906434" lon="30.313199758529663">
        <ele>57.01</ele>
      </trkpt>
      <trkpt lat="60.07820963859558" lon="30.31301736831665">
        <ele>57.01</ele>
      </trkpt>
      <trkpt lat="60.07826345041394" lon="30.31269441358745">
        <ele>56.96</ele>
      </trkpt>
      <trkpt lat="60.07831692695618" lon="30.312373638153076">
        <ele>56.85</ele>
      </trkpt>
      <trkpt lat="60.07851012982428" lon="30.31205177307129">
        <ele>56.74</ele>
      </trkpt>
      <trkpt lat="60.078660333529115" lon="30.311622619628906">
        <ele>56.63</ele>
      </trkpt>
      <trkpt lat="60.07866024971008" lon="30.311622619628906">
        <ele>56.53</ele>
      </trkpt>
      <trkpt lat="60.078735603019595" lon="30.311077209189534">
        <ele>56.37</ele>
      </trkpt>
      <trkpt lat="60.07881095632911" lon="30.310531882569194">
        <ele>56.12</ele>
      </trkpt>
      <trkpt lat="60.078885639086366" lon="30.30999183654785">
        <ele>55.9</ele>
      </trkpt>
      <trkpt lat="60.07896074093878" lon="30.309605598449707">
        <ele>55.81</ele>
      </trkpt>
      <trkpt lat="60.0790358427912" lon="30.30924081802368">
        <ele>55.78</ele>
      </trkpt>
      <trkpt lat="60.07911647669971" lon="30.30883178114891">
        <ele>55.93</ele>
      </trkpt>
      <trkpt lat="60.07919669151306" lon="30.308425426483154">
        <ele>56.16</ele>
      </trkpt>
      <trkpt lat="60.07921823300421" lon="30.308328866958618">
        <ele>56.37</ele>
      </trkpt>
      <trkpt lat="60.07932552136481" lon="30.30779242515564">
        <ele>56.8</ele>
      </trkpt>
      <trkpt lat="60.07941512390971" lon="30.307318847626448">
        <ele>57.19</ele>
      </trkpt>
      <trkpt lat="60.07950481027365" lon="30.306845270097256">
        <ele>57.47</ele>
      </trkpt>
      <trkpt lat="60.079593658447266" lon="30.306376218795776">
        <ele>57.62</ele>
      </trkpt>
      <trkpt lat="60.079668844118714" lon="30.305850505828857">
        <ele>57.68</ele>
      </trkpt>
      <trkpt lat="60.07966876029968" lon="30.305850505828857">
        <ele>57.82</ele>
      </trkpt>
      <trkpt lat="60.07975216023624" lon="30.305398469790816">
        <ele>57.93</ele>
      </trkpt>
      <trkpt lat="60.079835560172796" lon="30.304946433752775">
        <ele>58.03</ele>
      </trkpt>
      <trkpt lat="60.079919043928385" lon="30.304494397714734">
        <ele>58.07</ele>
      </trkpt>
      <trkpt lat="60.08000143803656" lon="30.30404806137085">
        <ele>58.11</ele>
      </trkpt>
      <trkpt lat="60.0800443533808" lon="30.303930044174194">
        <ele>58.15</ele>
      </trkpt>
      <trkpt lat="60.08001216687262" lon="30.303640365600586">
        <ele>58.21</ele>
      </trkpt>
      <trkpt lat="60.08000143803656" lon="30.303114652633667">
        <ele>58.31</ele>
      </trkpt>
      <trkpt lat="60.08000135421753" lon="30.303114652633667">
        <ele>58.38</ele>
      </trkpt>
      <trkpt lat="60.08001753129065" lon="30.302700167521834">
        <ele>58.4</ele>
      </trkpt>
      <trkpt lat="60.08003362454474" lon="30.30228853225708">
        <ele>58.4</ele>
      </trkpt>
      <trkpt lat="60.08006581105292" lon="30.301906317472458">
        <ele>58.44</ele>
      </trkpt>
      <trkpt lat="60.080097913742065" lon="30.30152678489685">
        <ele>58.57</ele>
      </trkpt>
      <trkpt lat="60.080081736668944" lon="30.30113384127617">
        <ele>58.87</ele>
      </trkpt>
      <trkpt lat="60.08006581105292" lon="30.300743579864502">
        <ele>59.25</ele>
      </trkpt>
      <trkpt lat="60.08006572723389" lon="30.300743579864502">
        <ele>59.44</ele>
      </trkpt>
      <trkpt lat="60.08036194369197" lon="30.30055775307119">
        <ele>59.51</ele>
      </trkpt>
      <trkpt lat="60.08065715432167" lon="30.30037268064916">
        <ele>59.63</ele>
      </trkpt>
      <trkpt lat="60.0806987285614" lon="30.300346612930298">
        <ele>60.06</ele>
      </trkpt>
      <trkpt lat="60.08054852485657" lon="30.30000329017639">
        <ele>60.46</ele>
      </trkpt>
      <trkpt lat="60.080381724983454" lon="30.299637503921986">
        <ele>60.79</ele>
      </trkpt>
      <trkpt lat="60.08021593093872" lon="30.29927372932434">
        <ele>61.1</ele>
      </trkpt>
      <trkpt lat="60.08021601475775" lon="30.29927372932434">
        <ele>61.29</ele>
      </trkpt>
      <trkpt lat="60.08004929870367" lon="30.29913928359747">
        <ele>61.46</ele>
      </trkpt>
      <trkpt lat="60.079883337020874" lon="30.29900550842285">
        <ele>61.59</ele>
      </trkpt>
      <trkpt lat="60.079840421676636" lon="30.298683643341064">
        <ele>61.68</ele>
      </trkpt>
      <trkpt lat="60.079668341204524" lon="30.298389606177807">
        <ele>61.74</ele>
      </trkpt>
      <trkpt lat="60.07949626073241" lon="30.29809565283358">
        <ele>61.79</ele>
      </trkpt>
      <trkpt lat="60.079325437545776" lon="30.29780387878418">
        <ele>61.8</ele>
      </trkpt>
      <trkpt lat="60.079094180837274" lon="30.297438176348805">
        <ele>61.67</ele>
      </trkpt>
      <trkpt lat="60.078864097595215" lon="30.29707431793213">
        <ele>61.58</ele>
      </trkpt>
      <trkpt lat="60.07871397770941" lon="30.296602249145508">
        <ele>61.49</ele>
      </trkpt>
      <trkpt lat="60.07867282256484" lon="30.296595711261034">
        <ele>61.49</ele>
      </trkpt>
      <trkpt lat="60.07871397770941" lon="30.296602249145508">
        <ele>61.44</ele>
      </trkpt>
      <trkpt lat="60.07860668934882" lon="30.296409130096436">
        <ele>61.46</ele>
      </trkpt>
      <trkpt lat="60.07873543538153" lon="30.296194553375244">
        <ele>61.42</ele>
      </trkpt>
      <trkpt lat="60.078874826431274" lon="30.296119451522827">
        <ele>61.45</ele>
      </trkpt>
      <trkpt lat="60.078874910250306" lon="30.296119451522827">
        <ele>61.47</ele>
      </trkpt>
      <trkpt lat="60.078917825594544" lon="30.296097993850708">
        <ele>61.47</ele>
      </trkpt>
      <trkpt lat="60.07911656051874" lon="30.295974360778928">
        <ele>61.5</ele>
      </trkpt>
      <trkpt lat="60.07931470870972" lon="30.295851230621338">
        <ele>61.58</ele>
      </trkpt>
      <trkpt lat="60.07943272590637" lon="30.295636653900146">
        <ele>61.56</ele>
      </trkpt>
      <trkpt lat="60.07947564125061" lon="30.29555082321167">
        <ele>61.5</ele>
      </trkpt>
      <trkpt lat="60.07950782775879" lon="30.295475721359253">
        <ele>61.38</ele>
      </trkpt>
      <trkpt lat="60.0797282718122" lon="30.295040113851428">
        <ele>61.23</ele>
      </trkpt>
      <trkpt lat="60.07994771003723" lon="30.294606685638428">
        <ele>61.08</ele>
      </trkpt>
      <trkpt lat="60.07994779385626" lon="30.294606685638428">
        <ele>60.73</ele>
      </trkpt>
      <trkpt lat="60.080119874328375" lon="30.294259758666158">
        <ele>60.26</ele>
      </trkpt>
      <trkpt lat="60.08029195480049" lon="30.29391291551292">
        <ele>59.68</ele>
      </trkpt>
      <trkpt lat="60.0804640352726" lon="30.29356598854065">
        <ele>58.98</ele>
      </trkpt>
      <trkpt lat="60.080634439364076" lon="30.293222665786743">
        <ele>58.01</ele>
      </trkpt>
      <trkpt lat="60.08068808354437" lon="30.293136835098267">
        <ele>57.35</ele>
      </trkpt>
      <trkpt lat="60.08053779602051" lon="30.292643308639526">
        <ele>56.79</ele>
      </trkpt>
      <trkpt lat="60.08037376217544" lon="30.292296381667256">
        <ele>56.26</ele>
      </trkpt>
      <trkpt lat="60.080209728330374" lon="30.291949454694986">
        <ele>55.8</ele>
      </trkpt>
      <trkpt lat="60.08004569448531" lon="30.291602527722716">
        <ele>55.29</ele>
      </trkpt>
      <trkpt lat="60.079883420839906" lon="30.291259288787842">
        <ele>54.73</ele>
      </trkpt>
      <trkpt lat="60.079883337020874" lon="30.291259288787842">
        <ele>54.28</ele>
      </trkpt>
      <trkpt lat="60.07975618354976" lon="30.290998443961143">
        <ele>53.86</ele>
      </trkpt>
      <trkpt lat="60.0796297006309" lon="30.290739024057984">
        <ele>53.44</ele>
      </trkpt>
      <trkpt lat="60.07946499623358" lon="30.290400981903076">
        <ele>52.78</ele>
      </trkpt>
      <trkpt lat="60.079411352053285" lon="30.290379524230957">
        <ele>52.59</ele>
      </trkpt>
      <trkpt lat="60.079217813909054" lon="30.290298890322447">
        <ele>52.4</ele>
      </trkpt>
      <trkpt lat="60.07902503013611" lon="30.290218591690063">
        <ele>52.26</ele>
      </trkpt>
      <trkpt lat="60.07893525995314" lon="30.290778251364827">
        <ele>52.47</ele>
      </trkpt>
      <trkpt lat="60.078845573589206" lon="30.29133791103959">
        <ele>52.61</ele>
      </trkpt>
      <trkpt lat="60.07875680923462" lon="30.291892290115356">
        <ele>52.72</ele>
      </trkpt>
      <trkpt lat="60.078659914433956" lon="30.29219353571534">
        <ele>52.91</ele>
      </trkpt>
      <trkpt lat="60.07856369018555" lon="30.292493104934692">
        <ele>53.13</ele>
      </trkpt>
      <trkpt lat="60.07835322059691" lon="30.292934412136674">
        <ele>53.37</ele>
      </trkpt>
      <trkpt lat="60.078142834827304" lon="30.293375803157687">
        <ele>53.53</ele>
      </trkpt>
      <trkpt lat="60.07793236523867" lon="30.2938171941787">
        <ele>53.67</ele>
      </trkpt>
      <trkpt lat="60.077724158763885" lon="30.294254058972">
        <ele>53.76</ele>
      </trkpt>
      <trkpt lat="60.077684009447694" lon="30.29433846473694">
        <ele>54.28</ele>
      </trkpt>
      <trkpt lat="60.07768392562866" lon="30.29433846473694">
        <ele>54.57</ele>
      </trkpt>
      <trkpt lat="60.0775230769068" lon="30.294671058654785">
        <ele>54.86</ele>
      </trkpt>
      <trkpt lat="60.07752299308777" lon="30.294671058654785">
        <ele>55.16</ele>
      </trkpt>
      <trkpt lat="60.07730791345239" lon="30.29495419934392">
        <ele>55.52</ele>
      </trkpt>
      <trkpt lat="60.07709291763604" lon="30.295237340033054">
        <ele>55.93</ele>
      </trkpt>
      <trkpt lat="60.076879346743226" lon="30.29551863670349">
        <ele>56.34</ele>
      </trkpt>
      <trkpt lat="60.07661774754524" lon="30.295407492667437">
        <ele>56.39</ele>
      </trkpt>
      <trkpt lat="60.07635623216629" lon="30.295296432450414">
        <ele>56.37</ele>
      </trkpt>
      <trkpt lat="60.076096057891846" lon="30.295186042785645">
        <ele>56.34</ele>
      </trkpt>
      <trkpt lat="60.07607468403876" lon="30.295250415802002">
        <ele>56.03</ele>
      </trkpt>
      <trkpt lat="60.07597804069519" lon="30.295722484588623">
        <ele>55.94</ele>
      </trkpt>
      <trkpt lat="60.075827836990356" lon="30.295958518981934">
        <ele>55.59</ele>
      </trkpt>
      <trkpt lat="60.07578802295029" lon="30.29611123725772">
        <ele>55.08</ele>
      </trkpt>
      <trkpt lat="60.07566615007818" lon="30.296578695997596">
        <ele>53.66</ele>
      </trkpt>
      <trkpt lat="60.075544361025095" lon="30.297046154737473">
        <ele>52.69</ele>
      </trkpt>
      <trkpt lat="60.07542257197201" lon="30.29751361347735">
        <ele>51.74</ele>
      </trkpt>
      <trkpt lat="60.07530220784247" lon="30.297975540161133">
        <ele>51.06</ele>
      </trkpt>
      <trkpt lat="60.07527002133429" lon="30.29806137084961">
        <ele>50.52</ele>
      </trkpt>
      <trkpt lat="60.075173461809754" lon="30.298125743865967">
        <ele>49.98</ele>
      </trkpt>
      <trkpt lat="60.075141275301576" lon="30.2982759475708">
        <ele>49.49</ele>
      </trkpt>
      <trkpt lat="60.07516264915466" lon="30.298447608947754">
        <ele>49.04</ele>
      </trkpt>
      <trkpt lat="60.075127528980374" lon="30.298476610332727">
        <ele>48.64</ele>
      </trkpt>
      <trkpt lat="60.074870539829135" lon="30.298689007759094">
        <ele>47.92</ele>
      </trkpt>
      <trkpt lat="60.074613550677896" lon="30.298901489004493">
        <ele>47.68</ele>
      </trkpt>
      <trkpt lat="60.07435807026923" lon="30.299112796783447">
        <ele>47.45</ele>
      </trkpt>
      <trkpt lat="60.074132261797786" lon="30.299360062927008">
        <ele>47.01</ele>
      </trkpt>
      <trkpt lat="60.073907459154725" lon="30.299606323242188">
        <ele>46.49</ele>
      </trkpt>
      <trkpt lat="60.073886001482606" lon="30.299627780914307">
        <ele>46.1</ele>
      </trkpt>
      <trkpt lat="60.073713921010494" lon="30.299805141985416">
        <ele>45.58</ele>
      </trkpt>
      <trkpt lat="60.07354259490967" lon="30.299981832504272">
        <ele>45.19</ele>
      </trkpt>
      <trkpt lat="60.07352113723755" lon="30.30000329017639">
        <ele>44.91</ele>
      </trkpt>
      <trkpt lat="60.07349976338446" lon="30.30001401901245">
        <ele>44.64</ele>
      </trkpt>
      <trkpt lat="60.07348895072937" lon="30.30000329017639">
        <ele>44.39</ele>
      </trkpt>
      <trkpt lat="60.073338747024536" lon="30.299745798110962">
        <ele>44.18</ele>
      </trkpt>
      <trkpt lat="60.07323254831135" lon="30.2996729593724">
        <ele>43.81</ele>
      </trkpt>
      <trkpt lat="60.07296323776245" lon="30.299488306045532">
        <ele>42.67</ele>
      </trkpt>
      <trkpt lat="60.07269090972841" lon="30.299334162846208">
        <ele>41.91</ele>
      </trkpt>
      <trkpt lat="60.072418665513396" lon="30.299180103465915">
        <ele>41.36</ele>
      </trkpt>
      <trkpt lat="60.07214633747935" lon="30.299026044085622">
        <ele>40.64</ele>
      </trkpt>
      <trkpt lat="60.07187409326434" lon="30.29887198470533">
        <ele>39.91</ele>
      </trkpt>
      <trkpt lat="60.07160184904933" lon="30.298717925325036">
        <ele>39.3</ele>
      </trkpt>
      <trkpt lat="60.07133253850043" lon="30.29856562614441">
        <ele>38.64</ele>
      </trkpt>
      <trkpt lat="60.07126816548407" lon="30.29852271080017">
        <ele>38.13</ele>
      </trkpt>
      <trkpt lat="60.07126808166504" lon="30.29852271080017">
        <ele>37.64</ele>
      </trkpt>
      <trkpt lat="60.07126816548407" lon="30.29852271080017">
        <ele>36.45</ele>
      </trkpt>
      <trkpt lat="60.071026431396604" lon="30.29843268916011">
        <ele>35.49</ele>
      </trkpt>
      <trkpt lat="60.070785619318485" lon="30.298343002796173">
        <ele>34.97</ele>
      </trkpt>
    </trkseg>
  </trk>
</gpx>
